StoreName,CityName,Street Address,Longitude,Latitude,province,cityE
北京西站第一咖啡店,北京市,"丰台区, 北京西站通廊7-1号, 中关村南大街2号",116.32,39.9,Beijing,Beijing
北京华宇时尚店,北京市,"海淀区, 数码大厦B座华宇时尚购物中心内, 蓝色港湾国际商区1座C1-3单元首层、",116.32,39.97,Beijing,Beijing
北京蓝色港湾圣拉娜店,北京市,"朝阳区朝阳公园路6号, 二层C1-3单元及二层阳台, 太阳宫中路12号",116.47,39.95,Beijing,Beijing
北京太阳宫凯德嘉茂店,北京市,"朝阳区, 太阳宫凯德嘉茂一层01-44/45号, 东三环北路27号",116.45,39.97,Beijing,Beijing
北京东三环北店,北京市,"朝阳区, 嘉铭中心大厦A座B1层024商铺, 金融大街7号",116.46,39.93,Beijing,Beijing
北京英蓝国际店,北京市,"西城区, 英蓝国际金融中心首层F111-F112单元, 建国门内大街18号",116.36,39.92,Beijing,Beijing
北京建国门内大街店,北京市,"东城区, 恒基中心一层039单元, 北清路1号院1号楼",116.43,39.91,Beijing,Beijing
北京北清路永旺商城店,北京市,"昌平区, 永旺国际商城购物中心1层NO.120区域, 建内大街19号",116.29,40.1,Beijing,Beijing
北京新闻大厦店,北京市,"东城区, 新闻大厦1层, 酒仙桥路12号",116.42,39.91,Beijing,Beijing
北京酒仙桥路咖啡店,北京市,"朝阳区, 乐天玛特超市1层LJ02-50单元, 建国门外大街丙12号",116.49,39.98,Beijing,Beijing
北京宝钢大厦店,北京市,"朝阳区, 宝钢大厦1层, 惠新东街钱柜一层",116.45,39.91,Beijing,Beijing
北京惠新东街咖啡店,北京市,"惠新东街4号, 广渠家园3号楼1层",116.42,39.99,Beijing,Beijing
北京广渠门名敦道店,北京市,"东城区, 新中街瑞士公寓1、2层L103&L202A",116.45,39.89,Beijing,Beijing
北京新中街瑞士公寓店,北京市,"东城区, 西单北大街176号",116.44,39.93,Beijing,Beijing
北京西单汉光百货商场店,北京市,"西城区, 光百货一层101商铺, 西小口路66号",116.38,39.91,Beijing,Beijing
北京西小口路店,北京市,"海淀区, 中关村东升科技园B区6号楼C座一层101, 九棵树西路80号",116.36,40.05,Beijing,Beijing
北京通州九棵树西路店,北京市,"通州区, 北京通州阳光新生活广场一层8-A单元, 复兴路69号",116.66,39.89,Beijing,Beijing
北京五棵松第二咖啡店,北京市,"海淀区, 3号楼5层（05）502-5C015单元, 首都国际机场2号航站楼国际隔离区内",116.28,39.91,Beijing,Beijing
北京首都国际机场3店,北京市,"顺义区, 丰科路6号院",116.6,40.08,Beijing,Beijing
丰科路万达广场店,北京市,"北京市, 第一层1056号和1057号商铺, 阜通东大街",116.3,39.82,Beijing,Beijing
北京阜通东大街二店,北京市,"朝阳区, 1号院6号楼1层2112, 北四环东路73号",116.48,40.0,Beijing,Beijing
北京北四环东路咖啡店,北京市,"朝阳区, 远洋未来广场一层31单元, 东方东路19号",116.43,39.99,Beijing,Beijing
北京东方东路二店,北京市,"朝阳区, 外交办公大楼1层F110&2层F213, 复兴路29号",116.46,39.95,Beijing,Beijing
北京翠微广场店,北京市,"海淀区, 翠微广场购物中心地上一层110号商铺, 南锣鼓巷20号",116.31,39.91,Beijing,Beijing
北京南锣鼓巷咖啡店,北京市,"东城区, 亦庄经济技术开发区",116.4,39.94,Beijing,Beijing
北京同济南路店,北京市,"大兴区, 同济南路1号院, 王府井大街253号",116.53,39.78,Beijing,Beijing
北京王府井店,北京市,"东城区, 王府井百货大楼首层, 崇文门外大街40号",116.41,39.91,Beijing,Beijing
北京崇文门外第二咖啡店,北京市,"东城区, 搜秀城一层, 东三环北路甲19 号",116.42,39.9,Beijing,Beijing
北京嘉盛SOHO中心店,北京市,"朝阳区, 嘉盛中心首层西侧大堂, 西大望路1号",116.46,39.93,Beijing,Beijing
北京西大望路温特莱店,北京市,"朝阳区, 温特莱中心一层, 首都国际机场1号航站楼",116.48,39.91,Beijing,Beijing
北京首都国际机场1店,北京市,"顺义区, 一层公共区东侧, 王府井大街138号",116.59,40.08,Beijing,Beijing
北京新东安店,北京市,"东城区, 新东安广场地下一层B111-B112号店铺, 前门大街1-1号",116.41,39.92,Beijing,Beijing
北京前门大街店,北京市,"崇文区, 方庄紫芳园四区3号楼",116.4,39.9,Beijing,Beijing
北京紫芳园咖啡店（方庄璞瑅）,北京市,"丰台区, 7号商铺, 上地三街9号",116.44,39.86,Beijing,Beijing
北京上地三街咖啡店,北京市,"海淀区, B座B-1号及B座首层玻璃间, 德胜门外大街83号",116.31,40.04,Beijing,Beijing
北京德外大街咖啡店,北京市,"西城区, 1层102号, 望京东园七区",116.38,39.96,Beijing,Beijing
北京望京东园二店,北京市,"朝阳区, 望京保利国际广场T1一层101单元, 羊坊店路18号",116.49,40.0,Beijing,Beijing
北京羊坊店路咖啡店,北京市,"光耀东方广场一层103单元, 海淀区, 丰台北路18号院",116.32,39.9,Beijing,Beijing
北京丽泽桥恒泰咖啡店,北京市,"丰台区, 恒泰广场一层L1-19-20, 东四环南路9号",116.31,39.87,Beijing,Beijing
北京燕莎奥特莱斯店,北京市,"朝阳区, 燕莎奥特莱斯购物中心二期C座一层1018#, 西单北大街110号",116.49,39.88,Beijing,Beijing
北京西单北大街咖啡店,北京市,"西城区, L2-2.23号, 霄云路甲26号",116.37,39.91,Beijing,Beijing
北京霄云路咖啡店,北京市,"朝阳区, 酒店一层, 建国门外大街甲5号",116.47,39.96,Beijing,Beijing
北京贵友大厦店,北京市,"朝阳区, 贵友大厦东侧, 东坝中路38号一层",116.45,39.91,Beijing,Beijing
北京金隅嘉品店,北京市,"朝阳区, L126、L127a、L129a单元, 建国门外大街甲6号1幢",116.55,39.95,Beijing,Beijing
北京爱思开大厦店,北京市,"朝阳区, SK大厦2层, 望京东园四区",116.46,39.91,Beijing,Beijing
北京望京东园店,北京市,"朝阳区, 9号楼1层101-1号, 三里屯路19号院",116.49,40.0,Beijing,Beijing
北京三里屯店,北京市,"朝阳区, 10号楼10-10&10-20, 北京市朝阳区阜通东大街6号院",116.45,39.93,Beijing,Beijing
北京阜通东大街咖啡店,北京市,"朝阳区, 3号楼物业一层1-101单元, 北京火车站",116.48,39.99,Beijing,Beijing
北京站第一咖啡店,北京市,"东城区, 出发层, 中关村南大街18号",116.43,39.9,Beijing,Beijing
北京中关村南大街咖啡店,北京市,"海淀区, 北京国际大厦一层C座01-101单元, 东大桥东侧路光华路9号",116.32,39.95,Beijing,Beijing
北京世贸天阶店,北京市,"朝阳区, 世贸天阶中心A座一层L123号, 翠微路12号01层",116.45,39.92,Beijing,Beijing
北京翠微路咖啡店,北京市,"海淀区, 101-06/44/K12B号, 西大街107号",116.3,39.91,Beijing,Beijing
北京中海国际大厦咖啡店,北京市,"西城区, 中海国际大厦28号楼 1层6-7单元, 中关村大街1号1号楼1层F100号铺位",116.36,39.93,Beijing,Beijing
北京中关村大街海龙大厦,北京市,"海淀区, 方庄芳古园一区28号楼",116.32,39.98,Beijing,Beijing
北京方庄通润商务会馆店,北京市,"丰台区, 通润商务会馆A段1层2单元, 天畅园7号楼1层108号",116.43,39.87,Beijing,Beijing
北京天畅园咖啡店,北京市,"朝阳区, 宣武门外大街8号",116.42,40.03,Beijing,Beijing
北京庄胜崇光店,北京市,"宣武区, 北京庄胜崇光百货新馆B1层, 朝阳区东三环南路1号",116.38,39.9,Beijing,Beijing
北京东三环南路店,北京市,"北京市, 佳龙大厦101, 古北口镇司马台村国际休闲旅游度假区",116.46,39.89,Beijing,Beijing
北京古北咖啡店,北京市,"密云县, 第一层101单元, 建国门外大街22号",117.28,40.65,Beijing,Beijing
北京赛特购物中心店,北京市,"朝阳区, 赛特购物中心地下一层扶梯东侧, 大成南里三区13号楼",116.44,39.91,Beijing,Beijing
北京大成路店,北京市,"丰台区, 零售商区的一层及负一层的01单元, 新华西路58号1号楼",116.27,39.89,Beijing,Beijing
北京通州万达广场第一店,北京市,"通州区, 通州万达广场地上一层1057号铺位, 来广营西路5号院",116.64,39.91,Beijing,Beijing
北京望京诚盈中心店,北京市,"朝阳区, 3号楼地上一层102A, 复兴门大街15号",116.47,40.02,Beijing,Beijing
北京三里河东路店,北京市,"西城区, 长安商场1层, 永定门西滨河路8号院7楼",116.35,39.91,Beijing,Beijing
北京永定门咖啡店,北京市,"东城区, 中海地产广场101东塔02单元, 永大路1号楼102室",116.39,39.87,Beijing,Beijing
北京龙湖时代天街店,北京市,"大兴区, 东三环中路39号",116.32,39.69,Beijing,Beijing
北京建外现代城店,北京市,"朝阳区, 建外SOHO5号别墅01户, 西单北大街131号",116.46,39.91,Beijing,Beijing
北京西单大悦城店,北京市,"西城区, 西单大悦城2F-33号商铺, 香江北路28号2-023",116.37,39.91,Beijing,Beijing
北京赛特奥特莱斯店,北京市,"朝阳区, 东三环中路7号院7楼1-31号",116.51,40.04,Beijing,Beijing
北京财富购物中心店,北京市,"朝阳区, 建国路甲92号北京世茂大厦首层102#单元",116.46,39.92,Beijing,Beijing
北京世茂大厦店,北京市,"朝阳区, 槐房南路6号院",116.47,39.91,Beijing,Beijing
北京槐房西路店,北京市,"丰台区, 槐房万达广场一层1083号, 临空经济核心区安泰大街9号院",116.37,39.82,Beijing,Beijing
北京祥云东方苑咖啡店,北京市,"顺义区, 10号楼102号, 复兴门内大街28号",116.53,40.09,Beijing,Beijing
北京复兴门内店,北京市,"西城区, 凯晨世贸中心西大堂东南侧, 东长安街1号P-W1(08-10)号店铺",116.36,39.91,Beijing,Beijing
北京东方广场三店,北京市,"东城区, 北京东方广场东方新天地商场平台层, 金宝街88号",116.41,39.91,Beijing,Beijing
北京金宝汇店,北京市,"东城区, 金宝汇112号商铺一层, 什刹海前海西沿甲19号",116.42,39.92,Beijing,Beijing
北京什刹海天荷坊店,北京市,"西城区, 北京南站",116.39,39.93,Beijing,Beijing
北京南站第五咖啡店,北京市,"丰台区, 北进口内测东部通道区域地上一层的单元, 金汇路",116.38,39.87,Beijing,Beijing
北京金汇路世界城店,北京市,"朝阳区, 世界城商业街9号楼1层W111单元, 复兴门内大街158号",116.45,39.92,Beijing,Beijing
北京西城远洋大厦店,北京市,"西城区, 远洋大厦首层G03A, 崇文门外大街18号",116.36,39.91,Beijing,Beijing
北京崇文门外第一咖啡店,北京市,"东城区, 国瑞城地下二层, 复兴路51号",116.42,39.9,Beijing,Beijing
北京复兴路咖啡店,北京市,"海淀区, 凯德精品商场1层西侧, 北京市通州区云景东路1号",116.3,39.91,Beijing,Beijing
北京通州贵友店,北京市,"通州区, 贵友大厦地上一层, 海淀大街3号",116.67,39.88,Beijing,Beijing
北京海淀鼎好电子大厦店,北京市,"海淀区, 鼎好电子大厦1层, 北三环东路36号2号楼C-05单元",116.31,39.98,Beijing,Beijing
北京环球贸易中心店,北京市,"东城区, 将台路丽都广场丽都商厦首层",116.41,39.97,Beijing,Beijing
北京丽都店,北京市,"朝阳区, 西红门镇",116.48,39.98,Beijing,Beijing
北京欣宁大街咖啡店,北京市,"大兴区, 欣宁大街15号1层1-01-28-R号, 朝阳门外大街甲6号",116.33,39.79,Beijing,Beijing
北京朝外大街咖啡店,北京市,"朝阳区, 一层2011,2012号商铺, 工人体育场北路13号",116.46,39.92,Beijing,Beijing
北京工体北路店,北京市,"朝阳区, 北京世茂百货F1层E103, 文化园东路6号01C01",116.45,39.94,Beijing,Beijing
北京文化园东路店,北京市,"经济技术开发区, 首都机场3号航站楼",116.5,39.81,Beijing,Beijing
北京首都国际机场5店,北京市,"顺义区, 到达大厅A2LE08#, 翠景北里21号楼",116.62,40.06,Beijing,Beijing
北京翠景北里咖啡店,北京市,"通州区, 南竹杆胡同1号地下1层",116.66,39.89,Beijing,Beijing
北京朝阳门SOHO店,北京市,"东城区, B-123号铺, 万博苑7号楼1层",116.43,39.92,Beijing,Beijing
北京万博苑咖啡店,北京市,"西城区, 东三环北路霞光里18号",116.36,39.87,Beijing,Beijing
北京霞光里店,北京市,"潮阳区, 佳程广场平台层, 太平桥大街18号",116.46,39.96,Beijing,Beijing
北京太平桥大街咖啡店,北京市,"西城区, 丰融国际203号, 良乡北关西路14号",116.37,39.92,Beijing,Beijing
北京房山北关西路咖啡店,北京市,"房山区, 华冠购物中心一层, 复兴路69号3号楼1层（01）101号001单元",116.14,39.74,Beijing,Beijing
北京五棵松卓展店,北京市,"海淀区, 朝阳门外大街",116.28,39.91,Beijing,Beijing
北京丰联广场店,北京市,"朝阳区, 丰联广场一层, 广安门外大街168号",116.44,39.92,Beijing,Beijing
北京朗琴国际大厦咖啡店,北京市,"西城区, 天虹百货商场1层101-1号, 东三环中路一号",116.34,39.89,Beijing,Beijing
北京环球金融中心店,北京市,"朝阳区, 环球金融中心首层W102, 北辰东路8号院",116.46,39.92,Beijing,Beijing
北京北辰东路第三咖啡店,北京市,"朝阳区, 1号楼一层108单元, 清河嘉园东区甲1号楼",116.41,39.99,Beijing,Beijing
北京清河嘉园东区咖啡店,北京市,"海淀区, 清河翠微百货一层101-01单元, 曙光西里甲5号院",116.35,40.03,Beijing,Beijing
北京曙光西里咖啡店,北京市,"朝阳区, 10号楼-17-1层17, 朝阳北路",116.46,39.96,Beijing,Beijing
北京青年路第二咖啡店,北京市,"朝阳区, 101号楼5层5F-48, 北京首都国际机场T3航站楼4层公共区",116.52,39.92,Beijing,Beijing
北京首都机场11店,北京市,"朝阳区, 工人体育场北路甲2号裙房01层103A",116.62,40.06,Beijing,Beijing
北京盈科中心第二咖啡店,北京市,"朝阳区, 单元及02层202A、203A单元, 建国门外大街乙12号",116.46,39.93,Beijing,Beijing
北京LG大厦店,北京市,"朝阳区, 北京双子座大厦首层L118, 大红门西路26号11号",116.45,39.91,Beijing,Beijing
北京大红门西路店,北京市,"丰台区, 商业楼首层L1-01单元, 北京南站",116.39,39.84,Beijing,Beijing
北京南站第六咖啡店,北京市,"丰台区, 换乘层7号出站口北侧区域的单元, 朝阳北路101号楼",116.38,39.86,Beijing,Beijing
北京青年路三店,北京市,"朝阳区, 北京朝阳大悦8层, 朝阳门内大街2号B座一层04单元",116.52,39.93,Beijing,Beijing
北京凯恒店,北京市,"东城区, 远大路1号",116.43,39.92,Beijing,Beijing
北京远大路第三咖啡店,北京市,"海淀区, 金源燕莎mall首层, 中关村大街19号",116.29,39.96,Beijing,Beijing
北京海淀新中关大厦店,北京市,"海淀区, 新中关大厦首层L128A号, 建国路93号院A座万达广场东区",116.32,39.98,Beijing,Beijing
北京万达广场店,北京市,"朝阳区, 新世界彩旋百货首层, 东北旺西路8号",116.47,39.91,Beijing,Beijing
北京东北旺西路咖啡店,北京市,"海淀区, 4号楼一层101-01, 阜石路300号",116.3,40.05,Beijing,Beijing
北京阜石路第一咖啡店,北京市,"石景山区, 一层101单元, 莲宝中路西侧",116.17,39.92,Beijing,Beijing
北京万丰路咖啡店,北京市,"丰台区, 万丰路68号和谐广场一层, 东四环中路56号",116.3,39.88,Beijing,Beijing
北京远洋天地店,北京市,"朝阳区, 远洋国际中心A座首层109号单元, 远大路1号",116.49,39.91,Beijing,Beijing
北京远大路金源燕莎2店,北京市,"海淀区, 北京燕莎友谊商城金源店地下一层, 苏州街3号，+C148",116.29,39.96,Beijing,Beijing
北京大恒科技大厦店,北京市,"海淀区, 大恒科技大厦首层, 王府井大街301号",116.31,39.98,Beijing,Beijing
北京金街咖啡店,北京市,"东城区, 新燕莎金街购物中心一层MF105-1、MF105-2商铺, 日坛路6号",116.41,39.91,Beijing,Beijing
北京新族大厦店,北京市,"朝阳区, 新族大厦首层1B, 太阳宫中路12号",116.44,39.91,Beijing,Beijing
北京太阳宫中路第二店,北京市,"朝阳区, 大堂第一层, 北京南站",116.45,39.97,Beijing,Beijing
北京南站第二咖啡店,北京市,"丰台区, 换乘层中区商业面向地铁南口西侧, 清华东路2号",116.38,39.86,Beijing,Beijing
北京金码大厦店,北京市,"海淀区, 金码大厦A座首层, 建国路93号",116.35,40.0,Beijing,Beijing
北京万达广场2店,北京市,"朝阳区, 万达广场B座3层, 建国路89号院",116.47,39.91,Beijing,Beijing
北京华贸二店,北京市,"朝阳区, 北京华贸19号楼一层102单元, 空港街道安泰大街6号院",116.48,39.91,Beijing,Beijing
北京祥云东方苑二店,北京市,"顺义区, 11号楼107, 北兴路2号1幢",116.54,40.09,Beijing,Beijing
北京大兴星光影视基地店,北京市,"大兴区, 上地东路1号院7号楼",116.36,39.77,Beijing,Beijing
北京上地东路店,北京市,"海淀区, 环洋大厦1层东101单元, 丰葆路88号",116.3,40.05,Beijing,Beijing
北京丰葆路店,北京市,"丰台区, 1号楼, 中关村大街11号一层A1500A单元",116.29,39.82,Beijing,Beijing
北京中关村亿世界店,北京市,"海淀区, 西红门宏福路",116.32,39.98,Beijing,Beijing
北京宏福路咖啡店,北京市,"大兴区, 鸿坤生活广场一层, 金融大街9号楼",116.34,39.79,Beijing,Beijing
北京金融大街店,北京市,"西城区, 1层106-01单元, 东直门48号银座广场",116.36,39.92,Beijing,Beijing
北京东直门第一咖啡店,北京市,"东城区, L3层23号商铺, 金宝街89号",116.44,39.94,Beijing,Beijing
北京东城区金宝大厦店,北京市,"东城区, 金宝大厦写字楼一层04商铺, 七圣中街12号院2号楼",116.42,39.92,Beijing,Beijing
北京七圣中街咖啡店,北京市,"朝阳区, 爱琴海购物中心一层101内F1007, 霄云路36号",116.44,39.97,Beijing,Beijing
北京国航大厦店,北京市,"朝阳区, 国航大厦一层, 丰北路甲79号楼",116.46,39.96,Beijing,Beijing
北京丰北路咖啡店,北京市,"丰台区, 华堂商场1层1-001单元, 天竺房地产开发区",116.29,39.87,Beijing,Beijing
北京日祥广场店,北京市,"顺义区, 日祥广场, 东方东路19号外交公寓A座会所2号商铺",116.55,40.06,Beijing,Beijing
北京东方东路外交公寓店,北京市,"朝阳区, 龙山东路2号院",116.46,39.95,Beijing,Beijing
北京龙山东路咖啡店,北京市,"怀柔区, 1号楼一层03单元, 朝阳公园6号11号楼",116.63,40.32,Beijing,Beijing
北京蓝色港湾第二咖啡店,北京市,"朝阳区, 成府路28号",116.48,39.95,Beijing,Beijing
北京五道口购物中心店,北京市,"海淀区, 1层101-10B及2层201-09号, 永定门外大街",116.34,39.99,Beijing,Beijing
北京南站第一咖啡店,北京市,"丰台区, 北京南站首层, 三丰北里5号楼",116.38,39.86,Beijing,Beijing
北京朝外第二店,北京市,"朝阳区, 01层（01）101中119号, 北辰东路8号1号楼B07",116.44,39.92,Beijing,Beijing
北京北辰东路店,北京市,"朝阳区, 朝阳北路101号楼L1-02号",116.41,39.99,Beijing,Beijing
北京朝阳大悦城店,北京市,"朝阳区, 科学院南路6号",116.52,39.92,Beijing,Beijing
北京科学院南路店,北京市,"海淀区, 融科资讯中心B座1层019单元, 北辰东路8号院",116.33,39.98,Beijing,Beijing
北京北辰东路第二咖啡店,北京市,"朝阳区, 16号楼一层101单元, 京顺路111号",116.41,39.99,Beijing,Beijing
北京京顺路咖啡店,北京市,"朝阳区, 比如世界京顺路店首层05号, 呼家楼1号",116.46,39.97,Beijing,Beijing
北京呼家楼咖啡店,北京市,"朝阳区, 京广商务中心1层, 东三环中路5号楼",116.46,39.92,Beijing,Beijing
北京财富中心三店,北京市,"朝阳区, 北京财富金融中心B1层, 石景山路乙18号院4号楼",116.46,39.92,Beijing,Beijing
北京石景山万达广场店,北京市,"北京市, 石景山万达广场一层, 上地西路6号",116.23,39.91,Beijing,Beijing
北京上地西路咖啡店,北京市,"海淀区, 联想科技园区内, 大兴区旧宫忠凉路1号院1号楼",116.3,40.05,Beijing,Beijing
北京旧宫万科咖啡店,北京市,"北京市, 住总万科广场一层L1001、L1002号, 东三环中路7号",116.46,39.81,Beijing,Beijing
北京财富中心店,北京市,"朝阳区, 财富中心一期写字楼首层E103, 建国路91号",116.46,39.92,Beijing,Beijing
北京金地中心店,北京市,"朝阳区, 金地中心L2层L201店铺, 建国路79号",116.47,39.91,Beijing,Beijing
北京华贸店,北京市,"朝阳区, 北京华贸购物中心L121及L223&224#, 颐和园路206号206-14、15、16",116.48,39.91,Beijing,Beijing
北京龙湖天街店,北京市,"海淀区, 西大望路15号",116.29,40.0,Beijing,Beijing
北京西大望路第一店,北京市,"朝阳区, 4号楼商业1（01层）内01号, 西四环南路103号院1号",116.48,39.89,Beijing,Beijing
北京西四环南路咖啡店,北京市,"丰台区, 资和信百货商场F1-1024, 南四环西路118号一区31号楼",116.29,39.84,Beijing,Beijing
北京南四环西路咖啡店,北京市,"丰台区, 1层（01）101区域内的01单元, 东大桥路9号",116.29,39.83,Beijing,Beijing
北京芳草地大厦咖啡店,北京市,"朝阳区, D座一层, 清河中街68号",116.45,39.92,Beijing,Beijing
北京五彩城店,北京市,"海淀区, 五彩城西区首层L101号商铺, 北辰西路8号院3号楼B座",116.33,40.03,Beijing,Beijing
北京北辰西路店,北京市,"朝阳区, 北辰世纪中心首层109单元, 新源南路1号",116.39,40.0,Beijing,Beijing
北京新源南路咖啡店,北京市,"朝阳区, 1至4层101内-1层B18单元, 中关村大街15-11号A区",116.46,39.95,Beijing,Beijing
北京中关村广场西区店,北京市,"海淀区, 负一层A126、A127单元, 望京湖光中街1号",116.31,39.98,Beijing,Beijing
北京望京鹏景阁店,北京市,"朝阳区, 鹏景阁首层, 立汤路186号院",116.47,40.0,Beijing,Beijing
北京龙德广场二店,北京市,"昌平区, 1号楼02层(02)201内208单元, 霄云路38号",116.42,40.06,Beijing,Beijing
北京霄云路二店,北京市,"朝阳区, 现代汽车大厦一层, 首都机场三号航站楼A3E4",116.46,39.96,Beijing,Beijing
北京首都国际机场9店,北京市,"朝阳区, 3层, 建国门外大街 光华路1号",116.62,40.06,Beijing,Beijing
北京嘉里中心第二咖啡店,北京市,"朝阳区, 北京嘉里中心商场一层111号，2层204号, 东城区东直门南大街3号",116.46,39.91,Beijing,Beijing
北京国华投资广场咖啡店,北京市,"北京市, 国华投资一层01单元, 建国门外大街1号",116.43,39.94,Beijing,Beijing
北京国贸四店,北京市,"朝阳区, 国际贸易中心商城地下一层SB126+SB127号铺位, 东三环北路8号",116.46,39.91,Beijing,Beijing
北京亮马河大厦店,北京市,"朝阳区, 亮马大厦一层, 金融街金融中心F区",116.46,39.95,Beijing,Beijing
北京金融街金树街店,北京市,"西城区, 北京建国路112号",116.36,39.92,Beijing,Beijing
北京建国路第二咖啡店,北京市,"朝阳区, 一层B, 崇文门外大街3号",116.46,39.91,Beijing,Beijing
北京新世界店,北京市,"崇文区, 新世界商场一期首层, 宣武门外大街28号",116.42,39.9,Beijing,Beijing
北京宣武门外富卓大厦店,北京市,"西城区, 富卓大厦一层, 北京南站换乘层地铁四号线围栏外",116.38,39.89,Beijing,Beijing
北京南站第三咖啡店,北京市,"丰台区, 东北角，M与1/M轴之间、2-9与2-10轴之间, 清河营南街",116.38,39.87,Beijing,Beijing
北京清河营南街店,北京市,"朝阳区, 7号院4号楼一层126-127商铺, 复内大街101号",116.43,40.05,Beijing,Beijing
北京百盛店,北京市,"西城区, 复兴门百盛商场二期一层, 天坛东路46号",116.36,39.91,Beijing,Beijing
北京天坛东路店,北京市,"东城区, 迤北红桥市场一层, 北三环东路36号1号楼A座首层02单元",116.42,39.89,Beijing,Beijing
北京安贞环贸2店,北京市,"东城区, 南礼士路66号",116.41,39.97,Beijing,Beijing
北京建威大厦店,北京市,"西城区, 建威大厦一层, 酒仙桥路18号",116.35,39.91,Beijing,Beijing
北京颐堤港中心咖啡店,北京市,"朝阳区, 颐堤港商场L1-72号, 工人体育场北路",116.49,39.97,Beijing,Beijing
北京工体北路第二咖啡店,北京市,"朝阳区, 8号院1号楼1层1118, 西直门北大街32号院",116.45,39.93,Beijing,Beijing
北京枫蓝国际中心店,北京市,"海淀区, 1号楼一层106-2, ""西城区金融街武定候街2号 """,116.36,39.95,Beijing,Beijing
北京泰康国际大厦店,北京市,"西城区, 泰康大厦1层, 悦盛路6号院",116.36,39.92,Beijing,Beijing
北京房山悦盛路店,北京市,"房山区, 奥特莱斯F1-B06, 林翠东路2号院",116.19,39.76,Beijing,Beijing
北京奥村咖啡店,北京市,"朝阳区, 甲3号楼一层F106区域, 城南街道南口路29号",116.38,40.01,Beijing,Beijing
北京乐多港店,北京市,"昌平区, L1028, 东三环中路63号(双井桥西北侧)",116.19,40.23,Beijing,Beijing
北京富力家园店,北京市,"朝阳区, 富力大厦1层101, 三丰北里2号楼悠唐生活广场",116.46,39.9,Beijing,Beijing
北京朝外悠唐店,北京市,"朝阳区, 天竺镇丽苑街15号",116.44,39.92,Beijing,Beijing
北京顺义丽苑街咖啡店,北京市,"顺义区, 27号楼102,103单元, 首体南路9号10楼等11幢之第四幢",116.56,40.05,Beijing,Beijing
北京首体南路咖啡店,北京市,"海淀区, 地上一层大堂B/C轴与22/25轴之间, 新顺南大街11号",116.32,39.93,Beijing,Beijing
北京新顺南大街咖啡店,北京市,"顺义区, 1幢一层2单元, 建国门外大街2号",116.65,40.13,Beijing,Beijing
北京银泰店,北京市,"朝阳区, 银泰中心B1-B38&B39, 广顺南大街16号院1号楼",116.46,39.91,Beijing,Beijing
北京望京店,北京市,"朝阳区, 北京新世界利莹百货首层010760A, 天星街1号院",116.48,39.99,Beijing,Beijing
北京天星街咖啡店,北京市,"房山区, 7号楼一层, 玉泉路59号院1号楼",116.16,39.76,Beijing,Beijing
北京鲁谷远洋咖啡店,北京市,"石景山区, 远洋沁山水1层A001单元, 首都机场T3航站楼D区",116.25,39.9,Beijing,Beijing
北京首都国际机场八店,北京市,"朝阳区, 2层, 慈云寺北里",116.61,40.06,Beijing,Beijing
北京苏宁生活广场店,北京市,"朝阳区, 118号楼苏宁生活广场第一层104B, 南三环东路成寿寺路2号",116.49,39.92,Beijing,Beijing
北京成寿寺路咖啡店,北京市,"丰台区, 阳光新生活广场一层A129, 崇文门外大街5号",116.45,39.86,Beijing,Beijing
北京新世界商场二店,北京市,"东城区, 北京新世界商场青春馆地下1层010009B号, 机场辅路将台路甲2号",116.42,39.9,Beijing,Beijing
北京海润店,北京市,"朝阳区, 海润国际公寓底商1层, 西直门外大街1号",116.48,39.98,Beijing,Beijing
北京西环广场2期店,北京市,"西城区, 西区B1-45/47A号, 首都国际机场三号航站楼国际隔离区B2S13",116.35,39.94,Beijing,Beijing
北京首都国际机场6店,北京市,"顺义区, 北四环东路9号",116.61,40.08,Beijing,Beijing
北京北四环东路Ⅱ店,北京市,"朝阳区, 四元桥家乐福1层1-36a单元, 常通路",116.46,39.98,Beijing,Beijing
北京常通路第一咖啡店,北京市,"朝阳区, 1号院1号楼 1F-08/2F-08, 东长安街1号",116.6,39.93,Beijing,Beijing
北京东方广场西店,北京市,"东城区, 东方广场东方新天地商场地下一层, 黄平路19号院1号楼B单元101-02室",116.41,39.91,Beijing,Beijing
北京黄平路咖啡店,北京市,"昌平区, 西直门外大街168号",116.35,40.07,Beijing,Beijing
北京腾达大厦咖啡店,北京市,"海淀区, 腾达大厦2层210号, 首都国际机场三号航站楼国际隔离区B2W13",116.33,39.94,Beijing,Beijing
北京首都国际机场7店,北京市,"顺义区, 西单北大街131号",116.61,40.08,Beijing,Beijing
北京西单大悦城二店,北京市,"西城区, 西单大悦城101-XZL号, 朝阳区常通路",116.37,39.91,Beijing,Beijing
北京常通路第二咖啡店,北京市,"北京市, 1号院1号楼 1F-08/2F-08, 陈家营西路3号院23号楼",116.6,39.92,Beijing,Beijing
北京陈家营西路店,北京市,"昌平区, 招商嘉铭珑原商业楼, 中关村东路1号",116.4,40.04,Beijing,Beijing
北京威新国际大厦店,北京市,"海淀区, 清华科技园9号楼威新国际大厦首层, 左家庄北里58号楼一层1037号",116.33,39.99,Beijing,Beijing
北京国展天虹店,北京市,"朝阳区, 建国路88 号",116.44,39.96,Beijing,Beijing
北京建国路咖啡店,北京市,"朝阳区, SOHO 现代城801 单元地上一层及二层, 远大路1号",116.48,39.91,Beijing,Beijing
北京远大路金源燕莎店,北京市,"海淀区, 金源燕莎Mall首层1016, 三里屯路11号院地下一层NLG-32a单元",116.29,39.96,Beijing,Beijing
北京三里屯北区店,北京市,"朝阳区, 首都国际机场2号航站楼一层国际到港厅",116.45,39.94,Beijing,Beijing
北京首都国际机场2店,北京市,"顺义区, 马家堡路华冠天地",116.59,40.08,Beijing,Beijing
北京公益西桥咖啡店,北京市,"丰台区, 1层1105, 亦庄天宝东路",116.38,39.84,Beijing,Beijing
北京朝林广场店,北京市,"大兴区, 朝林广场A座一层, 北京市西城区复兴门外大街A2号",116.51,39.79,Beijing,Beijing
北京复兴门外咖啡店,北京市,"西城区, 办公楼主楼首层大堂01号, 立汤路186号",116.35,39.91,Beijing,Beijing
北京龙德时代广场店,北京市,"昌平区, 龙德广场首层F158, 黄村东大街38号院1号楼",116.41,40.06,Beijing,Beijing
北京大兴王府井咖啡店,北京市,"大兴区, 大兴王府井百货1 层105号商铺, 安定门东大街28号",116.34,39.73,Beijing,Beijing
北京雍和大厦店,北京市,"东城区, 雍和大厦东楼1层, 大栅栏街道弓字胡同10号",116.42,39.95,Beijing,Beijing
北京大栅栏店,北京市,"西城区, 广顺北大街33号",116.39,39.9,Beijing,Beijing
北京望京凯德咖啡店,北京市,"朝阳区, 望京嘉茂1层, 裕祥路99号",116.47,39.99,Beijing,Beijing
北京欧陆时尚店,北京市,"顺义区, 一层L105和L106单元, 天洋广场购物中心",116.55,40.07,Beijing,Beijing
廊坊三河天洋广场咖啡店,廊坊市,"亿丰大街南侧汉王路西侧, G120国道27号",116.82,39.97,Hebei,Langfang
廊坊燕郊永旺梦乐城店,廊坊市,"高新区, 永旺梦乐城购物中心一层192号, 天津站候车室内第二层的高架候车层",116.86,39.95,Hebei,Langfang
天津火车站店,天津市,"河北区新纬路1 号, 东侧13 号-14 号检票口中间位置, 天津站交通枢纽",117.21,39.14,Tianjin,Tianjin
天津站区第二咖啡店,天津市,"河东区, 后广场轨道换乘中心地下一层D区010号, 环河北路168号",117.21,39.14,Tianjin,Tianjin
天津SM城市广场店,天津市,"空港经济开发区, SM城市广场一层D栋D1026单元, 天津滨海国际机场",117.43,39.16,Tianjin,Tianjin
天津滨海国际机场1店,天津市,"东丽区, T2航站楼商业区域二层核心区, 六纬路238号",117.36,39.13,Tianjin,Tianjin
天津嘉里中心店,天津市,"河东区, 嘉里中心商场一层L1012A单元, 卫津路北端嘉利大厦1-102-A01",117.22,39.13,Tianjin,Tianjin
天津嘉利大厦店,天津市,"和平区, 南门外大街与南马路交口",117.18,39.12,Tianjin,Tianjin
天津大悦城店,天津市,"南开区, 东马路137号",117.18,39.14,Tianjin,Tianjin
天津仁恒广场咖啡店,天津市,"南开区, 乐天百货一层EF-1单元, 泰安道18号增1号三号院一号楼",117.19,39.14,Tianjin,Tianjin
天津五大院店,天津市,"和平区, C1-2铺位首层及二层, 新港路1709号,1813号",117.21,39.12,Tianjin,Tianjin
天津滨海宝龙国际店,天津市,"滨海新区, 宝龙城市广场一层L1-128单元, 永旺梦乐城天津TEDA 购物中心1 层",117.68,39.01,Tianjin,Tianjin
天津永旺梦乐城滨海店,天津市,"经济技术开发区时尚东路29号, 区域120单元, 大沽南路531号",117.73,39.03,Tianjin,Tianjin
天津怡乐天地店,天津市,"河西区, 一层1022单元, 西马路与南马路交口东北侧",117.22,39.1,Tianjin,Tianjin
天津天佑城咖啡店,天津市,"南开区, 如意大厦101-102单元天佑城一层, 南京路189号",117.17,39.14,Tianjin,Tianjin
天津津汇广场第二咖啡店,天津市,"和平区, 津汇广场裙楼一层01-01new单元, 第一大街86号",117.2,39.12,Tianjin,Tianjin
天津名都市民广场店,天津市,"经济技术开发区, 新开路",117.7,39.02,Tianjin,Tianjin
天津新开路远洋新天地店,天津市,"河东区, 67号101、102单元, 南京路189号",117.22,39.14,Tianjin,Tianjin
天津津汇店,天津市,"和平区, 津汇广场地下一层B-35, 乐园道9号",117.2,39.12,Tianjin,Tianjin
天津银河广场咖啡店,天津市,"河西区, 银河国际购物中心一层L1-045-2单元, 解放北路与哈尔滨道交口东北侧",117.21,39.09,Tianjin,Tianjin
天津金谷大厦店,天津市,"和平区, 金之谷大厦1-107单元, 滨江道108号",117.21,39.13,Tianjin,Tianjin
天津友谊新天地商厦店,天津市,"和平区, 友谊新天地商厦一层, 大丰路18号水游城二层F2AN15单元",117.2,39.12,Tianjin,Tianjin
天津水游城店,天津市,"红桥区, 劝业场街南京路108号",117.17,39.15,Tianjin,Tianjin
天津南京路店,天津市,"和平区, 现代城C区地下一层9单元, 鞍山西道259号一层101单元",117.2,39.12,Tianjin,Tianjin
天津时代数码广场咖啡店,天津市,"南开区, 黑牛城道125号",117.16,39.11,Tianjin,Tianjin
天津友谊路新业广场店,天津市,"河西区, 新业广场1层A101-A102, 塘沽新港路276号",117.21,39.08,Tianjin,Tianjin
天津滨海金元宝于家堡店,天津市,"滨海新区, 于家堡金元宝购物中心一层A01单元, 塘沽解放路668号",117.7,39.0,Tianjin,Tianjin
天津塘沽金元宝金街店,天津市,"滨海新区, 塘沽金元宝商厦一层, 凌宾路时代奥城广场8号楼",117.67,39.02,Tianjin,Tianjin
天津奥城咖啡店,天津市,"南开区, 彩七汇生活广场一层8102-1单元, 宁宇家园",117.17,39.08,Tianjin,Tianjin
天津万福生活广场店,天津市,"河北区, 9号楼/配3-101, 新产业园区华苑产业区工华道",117.21,39.18,Tianjin,Tianjin
天津滨海高新区工华道店,天津市,"南开区, 1号虚拟园-104-1,105-1",117.12,39.09,Tianjin,Tianjin
天津小白楼店,天津市,"小白楼开封道54号1层及2层No.54, 友谊北路60号",117.22,39.12,Tianjin,Tianjin
天津金河购物中心店,天津市,"河西区, 金河购物中心一层, 解放北路188号",117.2,39.1,Tianjin,Tianjin
天津海信店,天津市,"和平区, 海信广场2层及3层, 南京路128号",117.22,39.12,Tianjin,Tianjin
天津乐宾店,天津市,"和平区, 乐宾百货首层C06&C07＃, 友谊南路111号",117.19,39.12,Tianjin,Tianjin
天津印象城店,天津市,"西青经济技术开发区, 印象城L1-18单元, 南北大街1号",117.22,39.02,Tianjin,Tianjin
天津凯德天津湾店,天津市,"河西区, 凯德嘉茂一层",117.24,39.1,Tianjin,Tianjin
天津国际大厦店,天津市,南京路75号天津国际大厦一层,117.21,39.12,Tianjin,Tianjin
天津新意街店,天津市,"新意大利风情街自由道60-62号, 前进道与翠通路交口",117.2,39.14,Tianjin,Tianjin
天津武清意安广场店,天津市,"武清区, 威尼都H1-101，102A, 京津公路342号",117.01,39.38,Tianjin,Tianjin
天津武清友谊商场店,天津市,"武清区, 武清友谊百货商厦一层, 南门外大街2号",117.07,39.37,Tianjin,Tianjin
天津大悦城第二咖啡店,天津市,"南开区, 大悦城B1-48, 乐园道与越秀路交口B1层",117.18,39.14,Tianjin,Tianjin
天津地铁店,天津市,"河西区, 津滨大道53号一层151A单元",117.21,39.09,Tianjin,Tianjin
天津河东万达店,天津市,"河东区, 洛阳道61-73号",117.26,39.12,Tianjin,Tianjin
天津五大道店,天津市,"和平区, 69.71.73号楼一层, 南京路39号01-05/06号",117.2,39.11,Tianjin,Tianjin
天津凯德国际贸易中心店,天津市,"河西区, 中北工业园阜盛道1号",117.22,39.11,Tianjin,Tianjin
天津中北永旺购物中心店,天津市,"西青区, 永旺梦乐城中北购物中心一层, 环河北路98号",117.09,39.14,Tianjin,Tianjin
天津新燕莎奥特莱斯店,天津市,"空港经济区, 新燕莎奥特莱斯一层A8-108号单元, 南京路66号",117.4,39.16,Tianjin,Tianjin
天津凯旋门大厦咖啡店,天津市,"河西区, 凯旋门大厦一层1-01单元, 风水园2-25单元",117.22,39.11,Tianjin,Tianjin
天津梅江凤水园咖啡店,天津市,"河西区, 友谊南路与珠江道交口西南侧, 南京路",117.22,39.06,Tianjin,Tianjin
天津国际商场店,天津市,"和平区, 天津国际商场A座1&2层, 友谊南路111号",117.19,39.12,Tianjin,Tianjin
天津永旺梦乐城梅江店,天津市,"西青经济开发区, A区, 南市街",117.22,39.03,Tianjin,Tianjin
天津万兆新文化花园店,天津市,"和平区, 福安大街新文化花园新丽居底商-102, 东马路135号",117.18,39.13,Tianjin,Tianjin
天津仁恒置地广场二店,天津市,"南开区, 仁恒海河广场一层1-10, 黄海路19号",117.19,39.14,Tianjin,Tianjin
天津金元宝滨海中心店,天津市,"泰达开发区, 金元宝滨海国际购物中心一层, 和平路172号",117.69,39.03,Tianjin,Tianjin
天津百货大楼咖啡店,天津市,"和平区, 百货大楼一层1F-A03单元, 咸水沽镇",117.19,39.13,Tianjin,Tianjin
天津咸水沽月坛商厦店,天津市,"津南区, 津和路56-57号, 宾水西道与凌宾路交口西南侧",117.39,38.99,Tianjin,Tianjin
天津奥城商业广场店,天津市,"南开区, 奥城商业广场4号楼一层-商1, 大寺镇环岛西路11号",117.17,39.08,Tianjin,Tianjin
天津大岛广场店,天津市,"西青区, 大岛商业广场S1-106, 兴安路166号",117.22,39.04,Tianjin,Tianjin
天津恒隆广场咖啡店,天津市,"和平区, 恒隆广场, 朝阳北大街99号",117.2,39.13,Tianjin,Tianjin
保定百盛咖啡店,保定市,"新市区, 零售商区的第一层, 裕华西路555号",115.47,38.87,Hebei,Baoding
保定华创广场咖啡店,保定市,"南市区, 零售商区的第一层和第二层的Y15单元, 保定北国先天下购物广场一层",115.49,38.86,Hebei,Baoding
保定先天下广场店,保定市,"朝阳北大街799号, 新华西道2号",115.47,38.89,Hebei,Baoding
唐山银泰店,唐山市,"路南区, 综合楼首层F1-58单元, 增盛路18号",118.18,39.63,Hebei,Tangshan
唐山万达广场店,唐山市,"路南区, 万达广场1058、1059单元, 新华东道125号",118.19,39.62,Hebei,Tangshan
唐山百货大楼店,唐山市,"路北区, 百货大楼一层, 新华西道32号",118.18,39.63,Hebei,Tangshan
唐山新华贸咖啡店,唐山市,"路北区, 新华路43号",118.17,39.63,Hebei,Tangshan
廊坊明珠大厦咖啡店,廊坊市,"广阳区, 新华路50号廊坊万达广场1051-2号铺位",116.71,39.52,Hebei,Langfang
廊坊万达广场店,廊坊市,"广阳区, 裕华路188号",116.71,39.52,Hebei,Langfang
廊坊万向城购物中心店,廊坊市,"广阳区, 滨河中路2号",116.68,39.54,Hebei,Langfang
张家口百盛店,张家口,"桥东区, 百盛购物中心一层, 新华北路1号",114.89,40.82,,
承德双百购物广场咖啡店,承德市,"双桥区, 双百购物广场, 中山东路11号",117.94,40.97,Hebei,Dengde
石家庄乐汇城店,石家庄,"桥东区, 1层W09单元, 中山东路39号",114.5,38.04,,
石家庄勒泰中心2店,石家庄,"桥东区, 勒泰中心6层, 裕华西路15号",114.51,38.05,,
石家庄万象天成店,石家庄,"桥西区, 万象天成商务广场一层120、200、122、123单元, 零售商区的第一层的主楼（写字楼）部分",114.48,38.04,,
石家庄银座商城东购店,石家庄,"中山西路83号, 育才街58号",114.49,38.04,,
石家庄青园店,石家庄,"长安区, 北国先天下广场第一层1F-GN2单元",114.53,38.04,,
石家庄万达广场店,石家庄,"槐安路万达广场1层, 中山东路39号",114.54,38.02,,
石家庄勒泰中心第一店,石家庄,"桥东区, 勒泰中心一层, 秦皇东大街138号",114.51,38.04,,
秦皇岛世纪港湾店,秦皇岛,"海港区, A1206, 海港区河北大街中段115号",119.58,39.95,,
秦皇岛乐都汇咖啡店,秦皇岛,"秦皇岛市, 乐都汇零售商区一层, 文化路139号",119.6,39.93,,
秦皇岛茂业金都店,秦皇岛,"海港区, 茂业百货第一层126单元, 中兴东大街18号",119.6,39.93,,
邢台世贸天街店,邢台市,"桥东区, 邢台世贸天街1层, 联纺路505号",114.49,37.06,Hebei,Xingtai
邯郸天鸿广场咖啡店,邯郸,"丛台区, 阳光天鸿广场1层A112号和LJ03号, 五一路77号",114.52,36.63,,
太原铜锣湾咖啡店,太原市,"迎泽区, 山西铜锣湾国际购物中心的第一层A1单元, 解放路175号",112.57,37.87,Shanxi,Taiyuan
太原万达广场店,太原市,"杏花岭区, 太原龙湖万达广场1层1037号, 新建路187号",112.56,37.88,Shanxi,Taiyuan
太原华宇国际精品咖啡店,太原市,"杏花岭区, 零售区一层116单元，二层208、209单元, 长风街116号",112.55,37.87,Shanxi,Taiyuan
太原北美新天地店,太原市,"小店区, 北美新天地1层F132单元, 长风街705号",112.56,37.82,Shanxi,Taiyuan
太原和信摩尔广场,太原市,"小店区, 零售商区一层1D02号、1D03号、1D04号、1D05号, ""米市街53号 """,112.56,37.82,Shanxi,Taiyuan
太原巴黎春天百货咖啡店,太原市,"迎泽区, 太原巴黎春天商业群楼中的第一层108单元, 亲贤北街189号",112.57,37.86,Shanxi,Taiyuan
太原百盛第一咖啡店,太原市,"小店区, 太原梅园百盛商城一层东南角, 柳巷南路99号",112.56,37.82,Shanxi,Taiyuan
太原柳巷第一咖啡店,太原市,"迎泽区, 太原茂业百货一层101单元和二层201单元, 钢铁大街64号",112.57,37.87,Shanxi,Taiyuan
包头百货大楼店,包头市,"昆都仑区, 包百大楼一楼西门, 青年路26号",109.82,40.66,Neimenggu,Baotou
包头万达广场咖啡店,包头市,"青山区, 万达广场1层173B和175号, 钢铁大街96号",109.85,40.66,Neimenggu,Baotou
包头维多利咖啡店,包头市,"昆区, 东方红CBD商业广场1层103号, 钢铁大街与市府东路交汇处往西100米",109.81,40.66,Neimenggu,Baotou
包头苏宁广场店,包头市,"昆都仑区, 包头苏宁广场地上1层107A单元, 新华东街62号",109.84,40.66,Neimenggu,Baotou
呼和浩特新华东街咖啡店,呼和浩特,"赛罕区, 呼市赛罕区新华东街62号零售商区地上一层, 中山西路7号民族商场一层",111.71,40.83,,
呼和浩特民族商场咖啡店,呼和浩特,"回民区, 中山西路1号",111.67,40.81,,
呼和浩特海亮广场店,呼和浩特,"回民区, 维多利时代城一层003号商铺, 新华东街26号",111.67,40.82,,
呼和浩特东城万达广场店,呼和浩特,"赛罕区, 万达广场一层, 解放路80号",111.74,40.84,,
大连大都会分店,大连市,"中山区, 长江路259号",121.64,38.92,Liaoning,Dalian
大连站分店,大连市,"中山区, 二层高架候车室6号-8号检票口中间位置商铺, 西岗区五四路66号",121.63,38.92,Liaoning,Dalian
大连恒隆2店,大连市,"西岗区, 高新园区黄浦路519号",121.61,38.91,Liaoning,Dalian
大连高新锦辉店,大连市,"大连市, 锦辉购物广场一层01-02单元, 人民路8号",121.53,38.86,Liaoning,Dalian
大连友谊商城店,大连市,"中山区, 迎客路168号周水子国际机场",121.65,38.92,Liaoning,Dalian
大连机场安检内店,大连市,"甘井子区, 二楼出发大厅安检内13.14号登机口, 天津街200号",121.54,38.96,Liaoning,Dalian
大连新世界店,大连市,"中山区, 新世界百货首层, 西安路139号1号大连罗斯福广场一层",121.64,38.92,Liaoning,Dalian
大连西安路罗斯福店,大连市,"沙河口区, 1105B和二层21002单元, 中华西路22号",121.59,38.91,Liaoning,Dalian
大连华南安盛店,大连市,"甘井子区, 一层H1G030单元, 中山路291号",121.59,38.99,Liaoning,Dalian
大连奥林匹克店,大连市,"西岗区, 万达商业广场A座, 五四路66号",121.61,38.91,Liaoning,Dalian
大连恒隆店,大连市,"西岗区, 黄浦路500号",121.61,38.91,Liaoning,Dalian
大连高新万达分店,大连市,"高新园区, 高新万达广场1层1026.1027号, 山东路235号",121.53,38.86,Liaoning,Dalian
大连华南亿合城店,大连市,"甘井子区, 安盛华南亿合城一层 Y10009单元, 软件园8号6-20#单元一层",121.59,38.99,Liaoning,Dalian
大连软景广场店,大连市,"沙河口区, 数码广场1号, 中山区中山路129-3号",121.54,38.88,Liaoning,Dalian
大连柏威年店,大连市,"大连市, 柏威年大连购物中心地下一层, 斯大林路677号",121.63,38.92,Liaoning,Dalian
大连金州安盛店,大连市,"金州区, 安盛购物广场, 中山区中山路129-3号",121.72,39.1,Liaoning,Dalian
大连柏威年二店,大连市,"大连市, 柏威年大连购物中心地上一层, 青泥街57号",121.63,38.92,Liaoning,Dalian
大连麦凯乐青泥店,大连市,"中山区, 麦凯乐地下一层, 青三街1号",121.64,38.92,Liaoning,Dalian
大连新玛特店,大连市,"中山区, 新玛特一层, 解放路19号",121.63,38.92,Liaoning,Dalian
大连百年城店,大连市,"中山区, 百年城购物中心内, 高尔基路687号1层6号01-58号",121.64,38.92,Liaoning,Dalian
大连和平广场店,大连市,"沙河口区, 金马路189号",121.59,38.9,Liaoning,Dalian
大连安盛店,大连市,"经济技术开发区, 安盛购物中心内, 迎客路168号",121.78,39.05,Liaoning,Dalian
大连机场安检外店,大连市,"甘井子区, 周水子国际机场二楼出发大厅安检外12号门, 香炉礁海达北街",121.54,38.96,Liaoning,Dalian
大连百年港湾店,大连市,"西岗区, 83A-4, 辽河西路117号一层 1031，1032，1033号",121.61,38.93,Liaoning,Dalian
大连开发区万达店,大连市,"经济技术开发区, 浑河南路中段56号、56-1号，56-2号",121.78,39.06,Liaoning,Dalian
抚顺万达店,抚顺市,"新抚区, 万达商业广场一层1038号铺位, 青年大街288号",123.9,41.86,Liaoning,Fushun
沈阳万象城店,沈阳市,"和平区, 沈阳万象城负一层B105, 双园路36号",123.43,41.78,Liaoning,Shenyang
沈阳赛特奥莱店,沈阳市,"东陵区, 赛特奥莱一层A2-110单元, 南京南街201号",123.62,41.84,Liaoning,Shenyang
沈阳长白大润发店,沈阳市,"和平区, 一层1023号, 南京北街",123.4,41.75,Liaoning,Shenyang
沈阳中山广场店,沈阳市,"和平区, 沈阳城市广场206号一层, 兴华南街58-20号",123.41,41.79,Liaoning,Shenyang
沈阳万达店,沈阳市,"铁西区, 万达广场一层156单元, 黄河南大街78号",123.36,41.78,Liaoning,Shenyang
沈阳乐购店,沈阳市,"皇姑区, 中华路21号",123.42,41.84,Liaoning,Shenyang
沈阳太原街百盛分店,沈阳市,"和平区, 百盛购物广场一层L1-5单元, 哈尔滨路168号",123.4,41.79,Liaoning,Shenyang
沈阳华府新天地分店,沈阳市,"和平区, 华府新天地购物中心一层, 青年大街185号",123.44,41.81,Liaoning,Shenyang
沈阳茂业金廊店,沈阳市,"沈河区, 一层L127单元, 桃仙镇桃仙国际机场",123.44,41.76,Liaoning,Shenyang
沈阳桃仙机场店,沈阳市,"东陵区, T3航站楼二层出发层国内隔离区, 北二中路6号",123.49,41.64,Liaoning,Shenyang
沈阳星摩尔店,沈阳市,"铁西区, 星摩尔零售商区一层GD-01单元, 营盘街5号",123.38,41.81,Liaoning,Shenyang
沈阳浑南兴隆奥莱店,沈阳市,"浑南新区, 兴隆大奥莱一层B1-15, 营盘西街17号",123.46,41.74,Liaoning,Shenyang
沈阳浑南万达店,沈阳市,"东陵区, 一层1037B, 太原南街2号",123.46,41.73,Liaoning,Shenyang
沈阳太原街万达店,沈阳市,"和平区, 万达广场室内步行街地面一层112号铺位, 文艺路11号甲沈阳华润中心万象城三期",123.4,41.79,Liaoning,Shenyang
沈阳文艺路店,沈阳市,"和平区, 1层LN105号, 北一中路1号",123.43,41.78,Liaoning,Shenyang
沈阳北一路万达分店,沈阳市,"铁西区, 一层1035号, 小东路5号",123.38,41.81,Liaoning,Shenyang
沈阳大悦城店,沈阳市,"大东区, 沈阳大悦城B座B101号, 小东路2号",123.47,41.8,Liaoning,Shenyang
沈阳中街新玛特店,沈阳市,"大东区, 新玛特商场, 哈尔滨路118号",123.46,41.8,Liaoning,Shenyang
沈阳华府天地店,沈阳市,"沈河区, 中街路205号0101馆一层",123.43,41.81,Liaoning,Shenyang
沈阳中街店,沈阳市,"沈河区, 塔湾街11号",123.46,41.8,Liaoning,Shenyang
沈阳中海环宇城店,沈阳市,"皇姑区, 甲一层122、123铺位, 太原北街86号",123.38,41.83,Liaoning,Shenyang
沈阳中兴店,沈阳市,"和平区, 中兴大厦一层, 建设东路158号",123.4,41.79,Liaoning,Shenyang
沈阳铁西广场店,沈阳市,"铁西区, 华润铁西万象汇185商铺, 中街路128号",123.37,41.8,Liaoning,Shenyang
沈阳中街恒隆店,沈阳市,"沈河区, 地下一层B131号, 石油大街102号",123.46,41.8,Liaoning,Shenyang
盘锦水游城店,盘锦市,"兴隆台区, 盘锦水游城一层S-L112号铺位, 双兴南路71号",122.08,41.12,Liaoning,Panjin
盘锦万达广场店,盘锦市,"兴隆台区, 盘锦万达广场一层1001铺位, 昆仑大街18号",122.08,41.1,Liaoning,Panjin
营口鲅鱼圈万隆广场店,营口市,"鲅鱼圈区, 万隆广场一层F102, 市府南路1号",122.13,40.27,Liaoning,Yingkou
营口万达店,营口市,"站前区, 万达广场地上1层1036号, 建国南路48号",122.24,40.67,Liaoning,Yingkou
鞍山乐都汇分店,鞍山市,"铁东区, 乐都汇L1F022单元, 胜利南街42号",122.98,41.11,Liaoning,Anshan
鞍山新玛特分店,鞍山市,"铁东区, 新玛特商场一层, 二道街88号",123.0,41.11,Liaoning,Anshan
鞍山百盛店,鞍山市,"铁东区, 百盛广场一楼, 重庆路1367号",122.99,41.11,Liaoning,Anshan
吉林财富广场店,吉林市,"昌邑区, 解放路6号欧亚商都地上一层",126.57,43.85,Jilin,Jilin
吉林欧亚商都店,吉林市,"昌邑区, A-21单元和地上二层A-18单元, 光明街688号",126.59,43.85,Jilin,Jilin
延吉百利城店,延吉市,"延吉市, 延吉百利城购物中心, 西安大路8号",129.51,42.91,Jilin,Yanji
长春世纪鸿源店,长春市,"朝阳区, 长春新世纪泓源广场, 亚泰大街1138号",125.32,43.89,Jilin,Changchun
长春中东新天地店,长春市,"南关区, 一层B185单元及二层B203单元, 同志街2288号",125.34,43.9,Jilin,Changchun
长春中东桂林路店,长春市,"朝阳区, 一层、二层, 红旗街616号",125.32,43.87,Jilin,Changchun
长春红旗街万达广场店,长春市,"朝阳区, 万达广场一层172,173，175号, 开运街5178号",125.3,43.87,Jilin,Changchun
长春开运街欧亚店,长春市,"朝阳区, 人民大街1881号",125.24,43.84,Jilin,Changchun
长春百货大楼店,长春市,"朝阳区, 百货大楼一层、二层, 开运街5178号",125.32,43.89,Jilin,Changchun
长春欧亚卖场店,长春市,"朝阳区, 一层渤海大街29号, 重庆路618号",125.24,43.84,Jilin,Changchun
长春亚泰富苑店,长春市,"南关区, 亚泰富苑一、二层西北角, 北人民大街以西、铁北二路以北",125.33,43.89,Jilin,Changchun
长春宽城万达店,长春市,"宽城区, 宽城万达广场一层1001号铺位, 博学路1555号2#购物广场一层",125.32,43.91,Jilin,Changchun
长春迅驰广场店,长春市,"净月开发区, B-1单元及B-2单元, 中央大街66号",125.41,43.82,Jilin,Changchun
哈尔滨松雷店,哈尔滨,"道里区, 松雷国际商厦一层, 友谊路167-217号",126.62,45.77,,
哈尔滨百盛店,哈尔滨,"道里区, 百盛一层, 学府路1号",126.62,45.78,,
哈尔滨凯德广场学府路店,哈尔滨,"南岗区, 凯德广场学府01—08号, 赣水路68号",126.61,45.72,,
哈尔滨衡山万达咖啡店,哈尔滨,"南岗区, 群力大道1176号",126.68,45.74,,
哈尔滨远大群力咖啡店,哈尔滨,"群力新区, D区1号一二层, 埃德蒙顿路38号",126.56,45.74,,
哈尔滨埃德蒙顿凯德店,哈尔滨,"道里区, 凯德广场埃德蒙顿地上一层01-05号, 中兴大道１６８号",126.59,45.73,,
哈尔滨哈西万达咖啡店,哈尔滨,"南岗区, 万达广场一层1001号, 荣市街1号",126.59,45.7,,
哈尔滨建设街咖啡店,哈尔滨,"南岗区, 三大动力路8号",126.64,45.76,,
哈尔滨乐松咖啡店,哈尔滨,"香坊区, 乐松购物广场一层, 红旗大街301号",126.65,45.72,,
哈尔滨红博购物公园店,哈尔滨,"南岗区, 地下一层公园大街上二区2-12单元, 哈尔滨市南岗区红旗大街301号",126.7,45.76,,
哈尔滨红博会展咖啡店,哈尔滨,"南岗区, 红博一层金座11-1单元, 中央大街69号",126.7,45.75,,
哈尔滨金安广场店,哈尔滨,"道里区, 金安购物广场, 石头道街118号",126.62,45.77,,
哈尔滨新一百店,哈尔滨,"道里区, 东直路118号",126.62,45.77,,
哈尔滨道外百盛店,哈尔滨,"道外区, 百盛商场一层, 东风路15号",126.68,45.79,,
大庆万达店,大庆市,"萨尔图区, 万达广场一层, 昆仑唐人中心精致楼W101单元",125.09,46.59,Heilongjiang,Daqing
大庆昆仑唐人店,大庆市,让胡路区,124.89,46.64,Heilongjiang,Daqing
City Concept Store,shanghai,"No.619,longchang Rd, Yangpu",121.54,31.27,,
Ha lei Rd Store,shanghai,"Room 101,NO.882,Halei Rd, PuDong Distict",121.6,31.2,,
Shippo Old Street Store,Shanghai,"No.102, Hengli Road, Minhang District",121.35,31.15,,
City essence,ShangHai,"NO.4750,GongHeXin Rd, JingAn District",121.45,31.32,,
Tongji United Plaza Store,Shanghai,"Unit201,2F,Unit101,1F,No.18,Zhangwu Rd, Yangpu District",121.51,31.28,,
Century Metropolis Plaza 1F Store,ShangHai,"1F,NO.1229,Century Auenue, PuDong District",121.53,31.23,,
Minxing Rd Store,shanghai,"NO.378,MinXing Rd, Yangpu District, 鲁班路615号102-103室",121.54,31.31,,
汇暻生活广场店,上海市,"黄浦区, 汇暻生活广场, 四川北路1689号110、202室",121.48,31.2,Shanghai,Shanghai
嘉杰广场店,上海市,"虹口区, 牡丹江路1569号F1层F127铺位",121.48,31.26,Shanghai,Shanghai
宝乐汇店,上海市,"上海市, 长寿路828，846号",121.49,31.4,Shanghai,Shanghai
中港汇店,上海市,"普陀区, 中港汇大厦, 荣乐西路790号1F-14",121.43,31.24,Shanghai,Shanghai
松江新理想广场店,上海市,"松江区, 新理想广场, 国际机场交通中心地铁2号线西侧廊道靠中步行道段A标段01号商铺",121.2,31.02,Shanghai,Shanghai
浦东机场交通中心店,上海市,"上海浦东, 浦东, 陕西南路37号",121.81,31.15,Shanghai,Shanghai
红房子店,上海市,"卢湾区, 红房子, 城桥镇八一路206号",121.46,31.22,Shanghai,Shanghai
崇明八一广场店,上海市,"崇明县, 八一广场一层, 祖冲之路1239弄6号10号楼1层05-159单元",121.4,31.62,Shanghai,Shanghai
长泰广场店,上海市,"浦东新区, 沪青平公路2888号B区101室",121.6,31.21,Shanghai,Shanghai
赵巷店,上海市,"青浦区, 青浦区赵巷休闲场所, 南京东路819号",121.23,31.15,Shanghai,Shanghai
南东店,上海市,"黄浦区, 百联世茂国际广场1楼, 诺亚新天地一楼",121.48,31.23,Shanghai,Shanghai
诺亚新天地店,上海市,"牡丹江路318号, 昆明路508号",121.5,31.38,Shanghai,Shanghai
北美广场店,上海市,"杨浦区, 安莉芳大厦, 东方路796号153 173单元",121.51,31.26,Shanghai,Shanghai
96广场店,上海市,"上海市浦东新区, 芳甸路1364号",121.52,31.23,Shanghai,Shanghai
花木plus乐坊店,上海市,"上海市浦东新区, 瑞金二路197号门诊大楼一楼",121.56,31.21,Shanghai,Shanghai
瑞金医院门诊大楼店,上海市,"上海市黄浦区, 夏宁路818弄70号1层",121.47,31.21,Shanghai,Shanghai
金山工业园区店,上海市,"金山区, 芳甸路197号",121.32,30.84,Shanghai,Shanghai
大拇指店,上海市,"浦东新区, 大拇指, 1号办公楼（B座）1楼102室",121.56,31.23,Shanghai,Shanghai
东方国信店,上海市,"长宁区福泉北路388号, 申长路988弄",121.36,31.23,Shanghai,Shanghai
虹桥万科中心1F店,上海市,"上海市闵行区, 1层T2-105#号单元, 通河路539、537-1号",121.31,31.2,Shanghai,Shanghai
红太阳商业广场店,上海市,"宝山区, 南京西路128号永新广场1F",121.45,31.34,Shanghai,Shanghai
黄浦永新广场店,上海市,"黄浦区, 公园东路1289弄137、138号",121.47,31.23,Shanghai,Shanghai
公园东路店,上海市,"青浦区, 富绅商业中心, 漕溪北路331号1层03",121.13,31.15,Shanghai,Shanghai
中金国际广场店,上海市,"徐汇区, 迎宾大道6000号候机楼三层南岛区1号铺",121.44,31.19,Shanghai,Shanghai
浦东机场T1出发层M岛店,上海市,"浦东新区, 浦东机场1号航站楼, 申迪北路753号111室",121.8,31.15,Shanghai,Shanghai
迪士尼团队大楼店,上海市,"上海市浦东新区, 延安东路550号",121.67,31.16,Shanghai,Shanghai
海洋大厦店,上海市,"黄浦区, 海洋大厦1F, 鹤庆路900号A4单元",121.48,31.23,Shanghai,Shanghai
老闵行生活广场店,上海市,"闵行区, 老闵行生活广场, 杨高南路428号1号楼1层A单元",121.4,31.01,Shanghai,Shanghai
由由世纪广场店,上海市,"浦东新区, 由由世纪广场, 公平路38号地下一层3-2单元",121.53,31.22,Shanghai,Shanghai
公平路店,上海市,"虹口区, 蔡伦路780号一楼",121.51,31.25,Shanghai,Shanghai
蔡伦路店,上海市,"浦东新区, 蔡伦路, 天山路889号层1E04室",121.61,31.19,Shanghai,Shanghai
百盛优客城市广场店,上海市,"长宁区, 裕通路100号",121.4,31.21,Shanghai,Shanghai
洲际中心店,上海市,"闸北区, 洲际中心, 文诚路500弄",121.45,31.24,Shanghai,Shanghai
松江塞纳左岸生活广场店,上海市,"上海市松江区, 1号L22-1, 齐河路258号1层F1F0103单元",121.22,31.03,Shanghai,Shanghai
齐河路沃尔玛店,上海市,"浦东新区, 齐河路沃尔玛, 川沙路5500号1楼大堂",121.5,31.18,Shanghai,Shanghai
川沙绿地铂骊酒店店,上海市,"上海市浦东新区, 张杨路3611弄2号212、213、214、217、218室",121.7,31.18,Shanghai,Shanghai
金桥国际店,上海市,"浦东新区, 成都北路333号104A室",121.58,31.26,Shanghai,Shanghai
招商局广场店,上海市,"静安区, 招商局广场, 武夷路777号一层L1F001-004单元",121.47,31.23,Shanghai,Shanghai
武夷路华润万家店,上海市,"长宁区, 上海国际体操中心, 通协路272号-5J、272号-5K",121.41,31.21,Shanghai,Shanghai
尚品中心1F店,上海市,"长宁区, 272号-5L、272号-5M",121.36,31.23,Shanghai,Shanghai
南桥宝龙商业广场店,上海市,"奉贤区航南公路5639号1F-036单元, 古北路1699号一层102单元",121.46,30.93,Shanghai,Shanghai
1699广场店,上海市,"上海市闵行区, 闵行区, 天目西路218号一楼A-1号",121.4,31.19,Shanghai,Shanghai
闸北太平洋店,上海市,"闸北区, 太平洋百货, 新华路519号1B室",121.46,31.25,Shanghai,Shanghai
新华店,上海市,"长宁区, 新华路, 碧波路889号E106-E107",121.42,31.2,Shanghai,Shanghai
碧波路店,上海市,"浦东新区, 龙皓路1088号金山万达1层1002铺位",121.59,31.2,Shanghai,Shanghai
金山万达店,上海市,"金山区, 金山万达广场, 纳贤路800号2号楼105室",121.34,30.75,Shanghai,Shanghai
纳贤路店,上海市,"浦东新区, 淮海中路999号",121.61,31.18,Shanghai,Shanghai
环贸广场店,上海市,"徐汇区, 环贸广场, 南泉北路588号S1-08",121.46,31.22,Shanghai,Shanghai
新大陆广场店,上海市,"浦东新区, 新大陆广场, 永德路419号109室",121.52,31.23,Shanghai,Shanghai
永德弘基广场店,上海市,"上海市闵行区, 闵行区, 江场三路238号1层",121.46,31.04,Shanghai,Shanghai
市北高新园区店,上海市,"上海市静安区, 市北高新园区, 共江路1208号1F-N1A",121.44,31.29,Shanghai,Shanghai
共江路家乐福店,上海市,"上海市宝山区, 江湾城路99号尚浦商务中心6幢1楼109a",121.44,31.33,Shanghai,Shanghai
尚浦中心店,上海市,"杨浦区, 尚浦商务中心, 同心路723号11幢102室",121.51,31.32,Shanghai,Shanghai
虹口运动loft店,上海市,"虹口区, 虹口运动loft, 中山北路3018号",121.47,31.27,Shanghai,Shanghai
长城大厦店,上海市,"普陀区, 长城大厦123单元, 浦建路118号",121.42,31.24,Shanghai,Shanghai
浦建路店,上海市,"上海市浦东新区, 浦东新区, 凇沪路8号",121.52,31.21,Shanghai,Shanghai
又一城店,上海市,"杨浦区, 百联又一城, 祁连山南路619号",121.52,31.3,Shanghai,Shanghai
金沙广场店,上海市,"普陀区, 金沙广场, 中山北路3300号",121.37,31.24,Shanghai,Shanghai
月星环球港店,上海市,"普陀区, 月星环球港B1148-B1149, 隆昌路586号",121.41,31.24,Shanghai,Shanghai
复旦软件园店,上海市,"杨浦区, 七巧国, 南京西路1601号",121.54,31.28,Shanghai,Shanghai
越洋广场2店,上海市,"静安区, 越洋广场301&301-1室, 枫泾镇北大街256号",121.45,31.22,Shanghai,Shanghai
金山枫泾古镇店,上海市,"上海市金山区, 延安东路588号",121.02,30.89,Shanghai,Shanghai
东海店,上海市,"黄浦区, 东海商业中心, 零陵路889号",121.48,31.23,Shanghai,Shanghai
飞洲国际广场店,上海市,"徐汇区, 飞洲国际广场, 虹桥火车站出发层2F-北1，3F-C4",121.44,31.18,Shanghai,Shanghai
虹桥火车站出发区店,上海市,"长宁区, 虹桥火车站, 恒丰路299号",121.32,31.19,Shanghai,Shanghai
隆宇太阳城店,上海市,"闸北区, “隆宇国际商务广场”中101-07号商铺, 申长路900号2号楼一层103单元",121.46,31.24,Shanghai,Shanghai
虹桥天地一店,上海市,"闵行区, 虹桥天地广场, 申迪东路88号D5单元",121.31,31.2,Shanghai,Shanghai
上海village店,上海市,"上海市浦东新区, 盈港东路158号D-L104",121.68,31.16,Shanghai,Shanghai
国家会展中心1F店,上海市,"上海市青浦区, 南京西路1376号",121.3,31.19,Shanghai,Shanghai
波特曼店,上海市,"静安区, 上海商城一楼, 桂林路402号76幢1F 103室",121.45,31.23,Shanghai,Shanghai
桂林路店,上海市,"徐汇区, 诚达创意园, 虹井路288号乐虹坊一楼103单元",121.42,31.17,Shanghai,Shanghai
乐虹坊店,上海市,"闵行区, 乐虹坊, 康新公路4365号1楼",121.37,31.18,Shanghai,Shanghai
浦东质子重离子医院店,上海市,"浦东新区, 肇嘉浜路789号1F",121.62,31.12,Shanghai,Shanghai
均瑶店,上海市,"徐汇区, 均瑶国际广场, 思南路50号",121.45,31.2,Shanghai,Shanghai
思南公馆店,上海市,"上海市黄浦区, 四川北路1661号",121.47,31.22,Shanghai,Shanghai
四川北路店,上海市,"虹口区, 凯鸿广场, 罗芬路1088号",121.48,31.26,Shanghai,Shanghai
美兰湖店,上海市,"宝山区, 世纪联华1F 7894F01001单元, 公园路700号",121.35,31.4,Shanghai,Shanghai
桥梓湾店,上海市,"青浦区, 东方商厦一楼, 吴中路1169号-1",121.11,31.15,Shanghai,Shanghai
吴中路店,上海市,"闵行区, 吴中路, 丰翔路3168号第一层113单元",121.39,31.18,Shanghai,Shanghai
南翔太茂店,上海市,上海市嘉定区,121.33,31.3,Shanghai,Shanghai
万嘉广场店,上海市,"浦东新区东靖路1881号, 浦东南路855号1D",121.61,31.29,Shanghai,Shanghai
世界广场店,上海市,"浦东新区, 世界广场, 田林路140号",121.51,31.23,Shanghai,Shanghai
越界店,上海市,"徐汇区, 越界商务楼, 锦延路219号",121.41,31.17,Shanghai,Shanghai
锦延路店,上海市,"浦东新区, 近上海科技馆, 国内禁区D5号店铺",121.54,31.22,Shanghai,Shanghai
浦东机场T2国内C84号登机口店,上海市,"上海浦东国际机场T2, 武进路289号一层108室",121.81,31.15,Shanghai,Shanghai
海泰时代店,上海市,"上海市虹口区, 沪闵路7388号",121.49,31.25,Shanghai,Shanghai
南方商城店,上海市,"闵行区, 百联南方商城1楼, 潍坊西路92号",121.4,31.13,Shanghai,Shanghai
潍坊西路店,上海市,"浦东新区, 虹桥路2270",121.52,31.22,Shanghai,Shanghai
虹桥万豪店,上海市,"长宁区, 万豪大酒店A段101-1, 城中路138号",121.38,31.19,Shanghai,Shanghai
嘉定罗宾森店,上海市,"嘉定镇, 罗宾森购物广场L1-1、L2-1商铺, 浦东国际机场T1航站楼国内出发禁区",121.25,31.38,Shanghai,Shanghai
浦东机场T1国内11号登机口店,上海市,"浦东新区, 漕溪北路595号",121.8,31.15,Shanghai,Shanghai
上影博物馆店,上海市,"徐汇区, 上海电影博物馆, 江宁路388号1_2层",121.44,31.19,Shanghai,Shanghai
静安紫苑店,上海市,"静安区, 紫苑, 武威路1118号115/116室",121.45,31.23,Shanghai,Shanghai
白丽广场店,上海市,"普陀区, 兴义路8号",121.35,31.28,Shanghai,Shanghai
万都店,上海市,"长宁区, 万都中心大厦一层S102、S106商铺, 古羊路753、755号",121.41,31.21,Shanghai,Shanghai
古羊路店,上海市,"长宁区, 漕宝路3366号L1层151B单元",121.4,31.19,Shanghai,Shanghai
七宝万科广场1F店,上海市,"上海市闵行区, 浦东国际机场T2航站楼国内出发禁区",121.35,31.15,Shanghai,Shanghai
浦东机场T2国内C95号登机口店,上海市,"浦东新区, 迎宾大道8000号二号候机楼到达公众商业区域餐饮项目",121.81,31.15,Shanghai,Shanghai
浦东机场T2到达店,上海市,"浦东新区, 上海浦东机场, 科苑路399号10号楼",121.81,31.15,Shanghai,Shanghai
张江创新园店,上海市,"浦东新区, 1层109单元, 长清路1200弄37号1楼2101室",121.59,31.21,Shanghai,Shanghai
森宏生活广场店,上海市,"上海市浦东新区, 新金桥路2222号",121.49,31.15,Shanghai,Shanghai
华为新金桥路店,上海市,"浦东新区, 华为公司, 政立路477号",121.63,31.26,Shanghai,Shanghai
政立路店,上海市,"杨浦区, 创智科技中心, 文诚路1480号",121.51,31.31,Shanghai,Shanghai
松江泰晤士小镇店,上海市,"上海市松江区, 121-124室, 滨江大道富都段",121.2,31.03,Shanghai,Shanghai
滨江店,上海市,"浦东新区, 滨江大道, 天虹路320号、天宝路280弄1号",121.5,31.24,Shanghai,Shanghai
瑞虹天地店,上海市,"虹口区, 瑞虹天地, 国际旅游度假区",121.5,31.26,Shanghai,Shanghai
迪士尼小镇店,上海市,"上海市浦东新区, 申迪西路255弄602单元, 东宝兴路777号",121.66,31.14,Shanghai,Shanghai
东宝兴路店,上海市,"虹口区, 世纪联华1层1017F01002单元, 轨道交通二号线静安寺车站五号出口2-130商铺",121.47,31.26,Shanghai,Shanghai
静安寺地铁站店,上海市,"静安区, 张杨路501号2F",121.45,31.22,Shanghai,Shanghai
八佰伴2F店,上海市,"上海市浦东新区, 车站南路330弄2号、6号",121.52,31.23,Shanghai,Shanghai
凉城世纪联华店,上海市,"上海市虹口区, 虹口区, 邯郸路600号一楼",121.48,31.29,Shanghai,Shanghai
五角场店,上海市,"杨浦区, 五角场, 杨南路2211号第一层",121.51,31.3,Shanghai,Shanghai
宝山宝龙广场店,上海市,"上海市宝山区, M1-1F-060、061、067单元, 陆家嘴西路168号1F",121.36,31.39,Shanghai,Shanghai
正大二店,上海市,"浦东新区, 正大广场, 淞沪路252-256号A1-24",121.5,31.24,Shanghai,Shanghai
创智店,上海市,"杨浦区, 创智天地, 安远路553号",121.51,31.31,Shanghai,Shanghai
静安门大厦店,上海市,"静安区, 静安门大厦, 豫园路100号（和丰楼）东侧",121.44,31.24,Shanghai,Shanghai
豫园2店,上海市,"黄浦区, 豫园, 长宁路999号1F",121.49,31.23,Shanghai,Shanghai
中山公园店,上海市,"长宁区, 中山公园, 肇家浜路1111号219单元",121.42,31.22,Shanghai,Shanghai
美罗城店,上海市,"徐汇区, 美罗城, 张杨北路801号",121.44,31.19,Shanghai,Shanghai
文峰广场店,上海市,"浦东新区, 文峰广场, 新元南路555弄1-60号",121.59,31.27,Shanghai,Shanghai
临港豪生酒店店,上海市,"浦东新区, 临港豪生酒店(浦东), 杨高南路759号",121.82,30.87,Shanghai,Shanghai
陆家嘴世纪金融广场店,上海市,"上海浦东新区, 1层03A单元, 江月路1850弄1-6号",121.53,31.21,Shanghai,Shanghai
浦江城市生活广场店,上海市,"上海市闵行区, 水城南路85号",121.5,31.08,Shanghai,Shanghai
美丽华花园店,上海市,"长宁区, 美丽华花园, 宝安公路3386号131室",121.39,31.2,Shanghai,Shanghai
嘉定大融城店,上海市,"上海市嘉定区, 凌空SOHO广场2号楼2-106室",121.28,31.33,Shanghai,Shanghai
凌空广场店,上海市,"长宁区金钟路968号, 瑞金二路101－107号",121.35,31.22,Shanghai,Shanghai
瑞金路店,上海市,"卢湾区, 瑞金二路, 世纪大道1号广场1号铺位",121.47,31.22,Shanghai,Shanghai
东方明珠店,上海市,"上海市浦东新区, 铜川路58弄21-22号",121.5,31.24,Shanghai,Shanghai
品尊国际广场店,上海市,"普陀区, 品尊国际广场, 浦江镇新骏环路188号8幢102-2室",121.42,31.26,Shanghai,Shanghai
漕河泾浦江科技园F区店,上海市,"闵行区, 华夏东路2255号15幢一层1F03",121.52,31.09,Shanghai,Shanghai
川沙金汇广场店,上海市,"上海市浦东新区, 宝山路202号",121.7,31.2,Shanghai,Shanghai
宝山路店,上海市,"闸北区, 近地铁4号线宝山路站, 淀山湖大道152弄41号-7室",121.48,31.25,Shanghai,Shanghai
青浦吾悦广场店,上海市,"青浦区, 吾悦广场, 长宁路88号长宁King88一层商铺1-17、1-18室",121.09,31.14,Shanghai,Shanghai
金廷88店,上海市,"上海市长宁区, 南芦公路1755弄7号楼1-2层",121.43,31.23,Shanghai,Shanghai
鸿音广场店,上海市,"浦东新区, 龙航路1508号1层101室",121.82,30.91,Shanghai,Shanghai
金山医院店,上海市,上海市金山区,121.33,30.76,Shanghai,Shanghai
十尚坊店,上海市,"闵行区龙茗路1025号814单元, 四平路188号113、116室",121.39,31.14,Shanghai,Shanghai
四平路店,上海市,"虹口区, 新风路268弄2号1层 101/102室和2层1-2（03）A室",121.49,31.26,Shanghai,Shanghai
朱家角尚都里店,上海市,"青浦区, 朱家角镇, 虹桥路1438号",121.06,31.11,Shanghai,Shanghai
玛瑙路店,上海市,"长宁区, 高岛屋, 虹桥路1665号A-104、A-105单元",121.4,31.2,Shanghai,Shanghai
星空广场店,上海市,"长宁区, 星空生活广场",121.39,31.2,Shanghai,Shanghai
万象城办公楼店,上海市,"闵行吴中路1799号大堂层203单元, 真光路1288号",121.37,31.17,Shanghai,Shanghai
真光路店,上海市,"普陀区, 百联购物广场, 水城南路20号",121.38,31.25,Shanghai,Shanghai
古北店,上海市,"长宁区, 古北, 淮海中路1325号",121.39,31.19,Shanghai,Shanghai
爱美高大厦店,上海市,"徐汇区, 爱美高大厦1F-103室, 候机楼T1三层国际出发禁区",121.45,31.21,Shanghai,Shanghai
浦东机场T1国际16号登机口店,上海市,"上海浦东机场迎宾大道6000号, 近16号登机口B6商铺, 金科路3057号1F(L1-1A)",121.8,31.15,Shanghai,Shanghai
汇智广场店,上海市,"浦东新区, 汇智广场, 番禺路381号",121.6,31.2,Shanghai,Shanghai
幸福里店,上海市,"上海市长宁区, 8号楼1层111室, 西藏北路198号",121.43,31.2,Shanghai,Shanghai
大悦城北楼8F店,上海市,"上海市静安区, 御桥路1949号1层106单元",121.47,31.24,Shanghai,Shanghai
海上传奇广场店,上海市,"浦东新区, 地杰国际城, 世纪大道100号101",121.57,31.16,Shanghai,Shanghai
环球金融店,上海市,"浦东新区, 环球金融, 世博大道1368号",121.51,31.24,Shanghai,Shanghai
世博源店,上海市,"浦东新区, L1层3L130室, 浦东南路1138号181-184",121.49,31.18,Shanghai,Shanghai
上海湾店,上海市,"浦东新区, 上海湾, 汶水东路351号1幢101室、102室",121.51,31.23,Shanghai,Shanghai
大柏树店,上海市,"虹口区, 1876老站创意园, 中江路889号1F",121.48,31.29,Shanghai,Shanghai
中江路店,上海市,"上海市普陀区, 漕宝路78号1001室",121.39,31.24,Shanghai,Shanghai
光大会展店,上海市,"上海市徐汇区, 牡丹江路1738号",121.43,31.17,Shanghai,Shanghai
宝钢商场店,上海市,"宝山区, 延安西路1166号",121.48,31.4,Shanghai,Shanghai
碧瑶店,上海市,"长宁区, 碧瑶行政公寓",121.43,31.21,Shanghai,Shanghai
武威东路店,上海市,"枫庭丽苑武威东路小区出入口, 东方路710号",121.41,31.28,Shanghai,Shanghai
汤臣店,上海市,"浦东新区, 汤臣金融中心, 大华路518号",121.52,31.23,Shanghai,Shanghai
大华乐购店,上海市,"宝山区, 乐购大华店第一层的S1、S2单元",121.41,31.27,Shanghai,Shanghai
8号桥店,上海市,"建国中路8-10号, 申滨路473号一层L1-09单元",121.47,31.21,Shanghai,Shanghai
新华联购物中心店,上海市,"上海市闵行区, 世纪大道1217号B1层G59-B01-1-005\006",121.31,31.2,Shanghai,Shanghai
百联世纪购物中心B1店,上海市,"上海浦东新区, 浦东新区, 广元西路98号3-4室",121.53,31.23,Shanghai,Shanghai
名仕苑店,上海市,"徐汇区, 保乐路60弄5#118单元",121.43,31.2,Shanghai,Shanghai
华漕旭辉店,上海市,"闵行区, 绿地华漕E天地, 锦绣路2580号",121.29,31.21,Shanghai,Shanghai
浦东星河湾店,上海市,"浦东新区, 星河湾商业街1号 101铺位, 华志路771-789号一层102a单元",121.54,31.19,Shanghai,Shanghai
青浦新尚生活广场店,上海市,"上海市青浦区, 城北路358号1层15单元",121.23,31.23,Shanghai,Shanghai
嘉定日月光店,上海市,"嘉定区城北路358号1层15单元, 汉口路266号",121.24,31.39,Shanghai,Shanghai
申大厦店,上海市,"黄浦区, 申大厦102单元, 红宝石路500号1F-106",121.48,31.24,Shanghai,Shanghai
东银中心店,上海市,"长宁区, 东银中心, 淮海中路283号",121.4,31.2,Shanghai,Shanghai
香港广场店,上海市,"黄浦区, 香港广场北楼1-106",121.47,31.22,Shanghai,Shanghai
达安广场店,上海市,"静安区延安中路823号, 武宁路101号F1-04室",121.45,31.22,Shanghai,Shanghai
我格广场店,上海市,"普陀区, 河南南路489号",121.42,31.24,Shanghai,Shanghai
香港名都店,上海市,"黄浦区, L138和L140单元, 梅家浜路1500弄3号B室",121.49,31.22,Shanghai,Shanghai
松江三湘财富广场店,上海市,"上海市松江区, 南京西路1618号1层S103室",121.23,31.05,Shanghai,Shanghai
久光百货店,上海市,"静安区, 墨玉南路1055号",121.45,31.22,Shanghai,Shanghai
嘉亭荟店,上海市,"嘉定区, 嘉亭荟城市生活广场108室, 茶陵北路20号A1室",121.16,31.29,Shanghai,Shanghai
茶陵北路店,上海市,"上海市徐汇区, 上南路4467号",121.47,31.2,Shanghai,Shanghai
金谊广场店,上海市,"浦东新区, 金谊广场1层-1室, 宜山路1009号",121.51,31.14,Shanghai,Shanghai
漕河泾店,上海市,"闵行区, 创新大厦1F, 陆家嘴西路168号",121.4,31.17,Shanghai,Shanghai
正大3店,上海市,"浦东新区, 正大广场B2-05单元, 福泉北路518号9座D102室",121.5,31.24,Shanghai,Shanghai
尚品中心B1店,上海市,"上海市长宁区, 虹梅路3188－1号",121.36,31.23,Shanghai,Shanghai
虹梅路店,上海市,"上海市闵行区, 海波路616号1F-318室",121.39,31.19,Shanghai,Shanghai
嘉定Max未来店,上海市,"嘉定区, 天山西路1068号",121.34,31.27,Shanghai,Shanghai
联强国际店,上海市,"长宁区, 联强国际二期1C单元, 广中西路777弄65号102室",121.35,31.22,Shanghai,Shanghai
多媒体谷店,上海市,"闸北区, 多媒体谷产业园, 延安中路1218号",121.44,31.28,Shanghai,Shanghai
静安嘉里中心店,上海市,"静安区, 静安嘉里中心商场SB2-06室, 望月路885号",121.45,31.22,Shanghai,Shanghai
望月路店,上海市,"上海市徐汇区, 徐汇区, 牡丹江路1238号-B区-106室",121.46,31.12,Shanghai,Shanghai
宝山安信店,上海市,"宝山区, 宝山安信, 张杨路1550号",121.49,31.39,Shanghai,Shanghai
陆家嘴公馆店,上海市,"浦东新区, 陆家嘴公馆, 辛耕路129号",121.54,31.23,Shanghai,Shanghai
永新店,上海市,"徐汇区, 永新坊, 江场二路77、79号",121.44,31.19,Shanghai,Shanghai
江场二路店,上海市,"闸北区, 上海莱赛现代生活港, 高桥保税区加枫路24号",121.44,31.3,Shanghai,Shanghai
外高桥店,上海市,"浦东新区, 外高桥, 阿克苏路1099号1F-409单元",121.61,31.31,Shanghai,Shanghai
嘉定宝龙商业广场店,上海市,"上海市嘉定区, 嘉定区, 秣陵路303号50幢N2单元",121.26,31.35,Shanghai,Shanghai
上海火车站北广场店,上海市,"闸北区, 万荣路777弄2号101室",121.46,31.25,Shanghai,Shanghai
大宁中心广场店,上海市,"上海市静安区, 世纪大道88号",121.44,31.28,Shanghai,Shanghai
金茂大厦店,上海市,"浦东新区, 裙房２楼2C-08、2C-10铺位, 江场路1288号NL151单元",121.51,31.24,Shanghai,Shanghai
协信星光广场北区店,上海市,"上海市静安区, 海中路1008号",121.46,31.3,Shanghai,Shanghai
襄阳公园店,上海市,"徐汇区, 大渡河路196号204单元",121.46,31.22,Shanghai,Shanghai
长风景畔广场2店,上海市,"普陀区, 长风景畔广场, 芳甸路198—206、208—232、268—286号（双）、258弄13—37号",121.4,31.22,Shanghai,Shanghai
联洋广场店,上海市,"浦东新区, 联洋广场, 环城东路681-707(单号)C-1-11",121.56,31.23,Shanghai,Shanghai
南桥新都汇店,上海市,"奉贤区, 梅川路1297号",121.46,30.94,Shanghai,Shanghai
梅川路店,上海市,"普陀区, 梅川路, 豫园路100号",121.38,31.24,Shanghai,Shanghai
豫园店,上海市,"黄浦区, 豫园",121.49,31.23,Shanghai,Shanghai
丽婴房大厦店,上海市,"闵行区七莘路1855号1楼101单元, 宛平南路100号",121.36,31.14,Shanghai,Shanghai
永丰国际广场店,上海市,"上海市徐汇区, 聚丰园路91号",121.44,31.2,Shanghai,Shanghai
聚丰园路店,上海市,"宝山区, 1号楼116、117室, 崂山路526号一层大堂区域",121.39,31.32,Shanghai,Shanghai
江苏大厦店,上海市,"浦东新区, 紫金山大酒店（江苏大厦）, 南京西路399号1楼",121.52,31.23,Shanghai,Shanghai
明天广场店,上海市,"黄浦区, 明天广场, 沪南路2420号",121.47,31.23,Shanghai,Shanghai
百联东郊店,上海市,"浦东新区, 百联, 宝杨路1号客运大楼1F",121.56,31.15,Shanghai,Shanghai
吴淞口国际邮轮港店,上海市,"宝山区, 上海吴淞口国际邮轮港, 昆明路739号一楼101单元",121.51,31.4,Shanghai,Shanghai
文通大厦店,上海市,"杨浦区, 文通大厦, 和云台路800号131、132、133铺位",121.52,31.26,Shanghai,Shanghai
亿丰时代广场店,上海市,"板泉路1273号、1275号、1271号-1, 浦东新区, 西藏南路1130号",121.51,31.16,Shanghai,Shanghai
黄浦新苑店,上海市,"黄浦区, 黄浦新苑, 东大名路988号102商铺",121.49,31.21,Shanghai,Shanghai
绿地北外滩中心店,上海市,"虹口区, 申长路799号1层SHHQTJ-B-1F-23、24号商铺",121.51,31.25,Shanghai,Shanghai
龙湖虹桥天街1F店,上海市,"上海市闵行区, 关山路73、75号",121.31,31.19,Shanghai,Shanghai
东方蓝海广场店,上海市,"上海市杨浦区, 金沙江路1685号-4区",121.52,31.29,Shanghai,Shanghai
118广场店,上海市,"普陀区, 南京西路688号L106B室",121.38,31.23,Shanghai,Shanghai
恒基688广场店,上海市,"静安区, 恒基688广场, 四平路2500号",121.46,31.23,Shanghai,Shanghai
杨浦东方商厦店,上海市,"杨浦区, 第 L1 层B19-F01-1-030 室, 淮海中路300号一楼106室",121.52,31.3,Shanghai,Shanghai
上海K11购物艺术中心店,上海市,"上海市黄浦区, 峨山路91弄98号",121.47,31.22,Shanghai,Shanghai
陆家嘴软件园店,上海市,"浦东新区, 陆家嘴软件园1号楼1楼, 淮海中路937号",121.53,31.22,Shanghai,Shanghai
美臣店,上海市,"卢湾区, 美臣大楼一楼, 南京东路635号",121.46,31.22,Shanghai,Shanghai
永安店,上海市,"黄浦区, 永安百货一楼, 天山路342号缤谷广场一层",121.48,31.24,Shanghai,Shanghai
缤谷广场店,上海市,"长宁区, 花园石桥路33号",121.39,31.21,Shanghai,Shanghai
花旗店,上海市,"浦东新区, 花旗集团大厦1楼, 白银路288弄20棟19号107室",121.5,31.23,Shanghai,Shanghai
嘉定台北风情街店,上海市,"嘉定区, 陆家嘴环路1233号101",121.26,31.35,Shanghai,Shanghai
汇亚大厦店,上海市,"浦东新区, 汇亚大厦, 定西路1026号",121.5,31.24,Shanghai,Shanghai
昭化路店,上海市,"长宁区, 纪蕴路38号A-68单元",121.42,31.21,Shanghai,Shanghai
长江西路店,上海市,"宝山区, 延安西路562号1楼",121.44,31.33,Shanghai,Shanghai
延安西路店,上海市,"上海市长宁区, 菊盛路",121.44,31.22,Shanghai,Shanghai
菊盛路店,上海市,"宝山区, 936号、938号、940号-1单元, 平福路188号3幢第一层101单元",121.37,31.36,Shanghai,Shanghai
平福路店,上海市,"上海市徐汇区, 桂平路391号",121.45,31.14,Shanghai,Shanghai
漕河泾2店,上海市,"徐汇区, 漕河泾, 淮海东路68号101单元",121.4,31.16,Shanghai,Shanghai
淮海东路店,上海市,"黄浦区, 淮海东路, 吴淞路258号1楼102室",121.48,31.23,Shanghai,Shanghai
耀江广场店,上海市,"虹口区, 耀江广场, 浦东南路588号",121.49,31.25,Shanghai,Shanghai
浦发大厦店,上海市,"浦东区, 浦发大厦, 新松江路925弄",121.51,31.24,Shanghai,Shanghai
松江开元店,上海市,"松江区, 地中海商业广场1层1-000号, 申达一路1号",121.22,31.04,Shanghai,Shanghai
虹桥西航站二店,上海市,"长宁区, 虹桥机场T2航站楼12.15米层B5-3-S1, 银春路2152号1楼2-105室",121.33,31.19,Shanghai,Shanghai
新壹坊店,上海市,"上海市闵行区, 闵行区, 陆家嘴西路168号3F",121.39,31.03,Shanghai,Shanghai
正大店,上海市,"浦东新区, 正大广场, 南京东路819号",121.5,31.24,Shanghai,Shanghai
南东二店,上海市,"黄浦区, 百联世茂国际广场1层102号商铺, 澄浏中路3090号1层006室",121.48,31.23,Shanghai,Shanghai
嘉定百联店,上海市,"上海市嘉定区, 长宁路1193号3号办公楼1层01-01室",121.28,31.39,Shanghai,Shanghai
长宁来福士T3店,上海市,"长宁区, 世博大道1200号",121.41,31.22,Shanghai,Shanghai
耀华路店,上海市,"浦东新区, 文化中心一楼西门 L111商铺, 迎宾一路800号T1航站楼出发公众区B2-20店铺",121.49,31.19,Shanghai,Shanghai
虹桥机场T1出发店,上海市,"长宁区, 虹桥机场一号航站楼, 福山路388号101A单元",121.35,31.19,Shanghai,Shanghai
宏嘉大厦店,上海市,"浦东新区, 宏嘉大厦, 浦东新区	上南路161号",121.53,31.22,Shanghai,Shanghai
中华艺术宫店,上海市,"浦东新区, 1层序厅, 淮海中路835号1-3F",121.49,31.18,Shanghai,Shanghai
人民坊店,上海市,"黄浦区, 人民坊, 凌空SOHO16号楼一层商铺16-101",121.46,31.22,Shanghai,Shanghai
凌空广场携程店,上海市,"宁区金钟路968号, 1018号B2F002商铺",121.35,31.22,Shanghai,Shanghai
龙之梦1店,上海市,"长宁区, 龙之梦, 漕宝路3459号1C2-03",121.42,31.22,Shanghai,Shanghai
汇宝广场店,上海市,"闵行区, 汇宝广场, 老太平弄100号",121.35,31.16,Shanghai,Shanghai
金外滩花园店,上海市,"黄浦区, 仙霞路333号1层S105单元",121.5,31.22,Shanghai,Shanghai
东方维京大厦店,上海市,"长宁区, 东方维京大厦, 南京西路1818号",121.4,31.21,Shanghai,Shanghai
1788广场店,上海市,"上海市静安区, 夏碧路261号1楼",121.44,31.22,Shanghai,Shanghai
夏碧路店,上海市,"浦东新区, 3777F01042单元, 华山路1954号包兆龙图书馆一层",121.59,31.34,Shanghai,Shanghai
上海交通大学店,上海市,"上海市徐汇区, 徐汇区, 延安西路2299号",121.43,31.2,Shanghai,Shanghai
世贸商城店,上海市,"长宁区, 世贸商城",121.4,31.2,Shanghai,Shanghai
松江文汇路店,上海市,"松江大学城文汇路商业街, 新松江路925弄开元地中海商业广场",121.22,31.05,Shanghai,Shanghai
松江开元二店,上海市,"松江区, 一层1168室1169室1176室, 沪亭北路666-668号",121.22,31.04,Shanghai,Shanghai
松江沪亭北路店,上海市,"松江区, 九城湖滨国际公寓, 南京西路1168号",121.32,31.15,Shanghai,Shanghai
中信店,上海市,"静安区, 中信泰富广场, 候机楼T2禁区D6号店铺",121.46,31.23,Shanghai,Shanghai
浦东机场T2国内C50,上海市,"浦东新区启航路900号, 汤臣国贸大厦",121.81,31.15,Shanghai,Shanghai
汤臣国贸大厦店,上海市,"浦东新区, 基隆路1号, 湖滨路150号L1-E05、L2-E06单元",121.59,31.35,Shanghai,Shanghai
湖滨道店,上海市,"黄浦区, 企业天地二期, 虹桥火车站到达区B1-19",121.48,31.22,Shanghai,Shanghai
虹桥火车站到达店,上海市,"长宁区, 火车站到达区B1-19, 淮海中路2-8号",121.32,31.19,Shanghai,Shanghai
兰生电影院店,上海市,"黄浦区, 兰生电影院, 芳甸路1088号",121.48,31.23,Shanghai,Shanghai
紫竹大厦店,上海市,"浦东新区, 城中北路79号副楼1楼、2楼",121.56,31.21,Shanghai,Shanghai
青浦城中北路店,上海市,"青浦区, 金陵东路500号",121.11,31.15,Shanghai,Shanghai
亚龙国际广场店,上海市,"黄浦区, 亚龙国际广场1f-102A, 福山路312号B1层07单元",121.48,31.23,Shanghai,Shanghai
世纪大都会B1店,上海市,"上海市浦东新区, 浦东新区, 南桥镇百齐路588号",121.53,31.23,Shanghai,Shanghai
奉贤南桥百联店,上海市,"奉贤区, 百联南桥购物中心一楼, 于田路7号2号楼1F-1单元",121.48,30.92,Shanghai,Shanghai
大众汽车总部店,上海市,"嘉定区, 上海大众技术管理中心, 淮海西路555号1楼103单元淮海西路555号1楼103单元",121.19,31.29,Shanghai,Shanghai
汇京国际广场店,上海市,"上海市徐汇区, 金高路1757号101-A室",121.42,31.2,Shanghai,Shanghai
金桥佳邻坊店,上海市,"上海市浦东新区, 秀浦路2555号",121.61,31.27,Shanghai,Shanghai
康桥漕河泾店,上海市,"上海市浦东新区, 8幢1楼104室, 昌化路68号",121.61,31.13,Shanghai,Shanghai
远中风华店,上海市,"静安区, 远中风华, 南京西路1266号",121.46,31.23,Shanghai,Shanghai
恒隆一店,上海市,"静安区, 恒隆广场1号楼1层, 汾阳路138号1楼03单元",121.45,31.23,Shanghai,Shanghai
汾阳路店,上海市,"卢湾区, 轻科大厦, 控江路1628号L113单元",121.45,31.21,Shanghai,Shanghai
紫荆广场店,上海市,"杨浦区, 长寿路137号1楼02室",121.52,31.28,Shanghai,Shanghai
财富时代店,上海市,"普陀区, 财富时代, 西藏中路268号来福士广场2楼04",121.44,31.24,Shanghai,Shanghai
来福士广场店,上海市,"上海市黄浦区, 05单元",121.48,31.23,Shanghai,Shanghai
协信星光广场南区店,上海市,"闸北区寿阳路99弄24号S101A室, 上南路1212-2号",121.46,31.3,Shanghai,Shanghai
三钢里店,上海市,"上海市浦东新区, 金鼎路2218号121单元",121.5,31.17,Shanghai,Shanghai
乐坊广场店,上海市,"嘉定区, 乐坊广场, 南京西路1601号越洋广场1楼1I室",121.37,31.26,Shanghai,Shanghai
越洋广场3店,上海市,"静安区, 越洋广场, 10幢10F,10G室",121.45,31.22,Shanghai,Shanghai
星汇广场店,上海市,"杨浦区国安路758弄, 四川北路2258号",121.5,31.32,Shanghai,Shanghai
甜爱路店,上海市,"虹口区, 甜爱路",121.48,31.27,Shanghai,Shanghai
高桥红坊店,上海市,"浦东新区张杨北路5770,5758号, 国权北路1688弄63号",121.57,31.35,Shanghai,Shanghai
湾谷科技园店,上海市,"杨浦区, 河南中路88号",121.5,31.34,Shanghai,Shanghai
外滩中心店,上海市,"黄浦区, 外滩中心, 威海路433、439号",121.49,31.23,Shanghai,Shanghai
威海路店,上海市,"静安区, 威海路, 安城路278号1层101单元",121.46,31.23,Shanghai,Shanghai
嘉定万科安亭新镇店,上海市,"上海市嘉定区, 武康路420号",121.17,31.27,Shanghai,Shanghai
武康路店,上海市,"徐汇区, 1F, 世纪大道1568、1588号102A单元",121.44,31.2,Shanghai,Shanghai
中建大厦店,上海市,"浦东新区, 吴江路128号",121.53,31.22,Shanghai,Shanghai
吴江路店,上海市,"静安区, 吴江路, 中山西路1065号104室",121.46,31.23,Shanghai,Shanghai
中山广场店,上海市,"长宁区, 中山广场, 共和新路5000 弄5号105、106、107室",121.42,31.2,Shanghai,Shanghai
共康路店,上海市,"宝山区, 绿地风尚天地广场, 天钥桥路580号",121.45,31.32,Shanghai,Shanghai
星游城店,上海市,"徐汇区, 星游城1F-13单元+2F-13单元, 临平路1号1层10&11单元",121.44,31.19,Shanghai,Shanghai
瑞虹店,上海市,"虹口区, 瑞虹新城, 松汇中路568号B座",121.5,31.26,Shanghai,Shanghai
松江乐颂坊店,上海市,"松江区, 乐颂坊, 晨晖路1000号1号楼116-A室",121.23,31.0,Shanghai,Shanghai
浦东软件园店,上海市,"浦东新区, 浦东软件园, 天山路919号",121.6,31.2,Shanghai,Shanghai
虹桥天都店,上海市,"长宁区, 虹桥天都101号商铺, 陆家嘴中心区世纪大道55号",121.4,31.21,Shanghai,Shanghai
东方浮庭店,上海市,"浦东新区, （临）“东方浮庭”2F-4室, 申迪西路 255 弄 218 号1楼",121.5,31.24,Shanghai,Shanghai
迪士尼PAB写字楼店,上海市,"浦东新区, 上中西路280号",121.67,31.16,Shanghai,Shanghai
壹街坊店,上海市,"徐汇区, 世纪大道1589号",121.43,31.13,Shanghai,Shanghai
长泰金融店,上海市,"浦东新区, 长泰国际金融大厦1楼07单元, 定西路1328号",121.53,31.22,Shanghai,Shanghai
定西路店,上海市,"长宁区, 巴黎春天百货1F, 巨峰路1058弄2号",121.42,31.22,Shanghai,Shanghai
晨达广场店,上海市,"浦东新区, 晨达广场, 张杨路3918号1楼03室，2楼03室",121.61,31.28,Shanghai,Shanghai
久金购物中心店,上海市,"上海市浦东新区, 卫清西路188号B101室",121.58,31.26,Shanghai,Shanghai
金山百联店,上海市,"上海市金山区, 上海南站",121.35,30.73,Shanghai,Shanghai
上海南站店,上海市,"徐汇区, 上海南站地下商场南馆的第一层第B区南1-B25号店铺, 枫林路380号102室",121.43,31.15,Shanghai,Shanghai
枫林国际大厦店,上海市,"徐汇区, 钦州北路238-240号",121.46,31.19,Shanghai,Shanghai
钦州北路店,上海市,"徐汇区, 田尚坊, 世纪大道8号",121.42,31.18,Shanghai,Shanghai
国金中心店,上海市,"浦东新区, 上海国金中心D座商场裙房B2层LG2-29室, 淮海中路999号LG2层236室",121.5,31.24,Shanghai,Shanghai
环贸广场LG2店,上海市,"上海市徐汇区, 徐汇区, 天山路345号",121.46,31.22,Shanghai,Shanghai
缤谷广场二期3F店,上海市,"上海市长宁区, 缤谷文化休闲广场二期三楼 310B 单元, 四川中路213号102室",121.39,31.21,Shanghai,Shanghai
久事大厦店,上海市,"上海市黄浦区, 南奉公路7500号101-102室",121.49,31.24,Shanghai,Shanghai
奉贤苏宁生活广场店,上海市,"上海市奉贤区, 漕宝路3299弄19号一层",121.49,30.92,Shanghai,Shanghai
七宝宝龙城南入口店,上海市,"上海市闵行区, S4a-1F-003b单元",121.36,31.16,Shanghai,Shanghai
苏宁天御店,上海市,"上海市普陀区丹巴路99号16-1室, 古美路1528号B楼地下一层D-2号",121.38,31.22,Shanghai,Shanghai
古美路2店,上海市,"徐汇区, 漕河泾总部园SOHO区, 宜山路900号",121.4,31.17,Shanghai,Shanghai
科产大厦店,上海市,"徐汇区, 科产大厦A座1F, 陆家嘴环路1000号",121.4,31.17,Shanghai,Shanghai
森茂店,上海市,"浦东新区, 森茂, 衡山路890弄3号",121.51,31.24,Shanghai,Shanghai
衡山坊店,上海市,"徐汇区, 衡山坊, 天目西路437、439号",121.44,31.2,Shanghai,Shanghai
恒汇大厦店,上海市,"闸北区, 恒汇大厦",121.45,31.25,Shanghai,Shanghai
古北时尚店,上海市,"徐汇区吴中路52号104室, 19幢楼一层101室",121.42,31.19,Shanghai,Shanghai
金领之都店,上海市,"浦东新区金海路1000号, 69幢一层R1单元",121.62,31.26,Shanghai,Shanghai
上海火车站南广场VIP店,上海市,"静安区秣陵路303号, 莘砖公路328号32栋楼创新广场第1层",121.46,31.25,Shanghai,Shanghai
松江创新生活广场店,上海市,"松江区, 徐家汇路618号",121.32,31.09,Shanghai,Shanghai
日月光店,上海市,"黄浦区, 日月光广场一层1F-A08单元, 长阳路1687号",121.47,31.21,Shanghai,Shanghai
长阳谷店,上海市,"杨浦区, 漕宝路1688号108单元",121.53,31.27,Shanghai,Shanghai
诺宝中心店,上海市,"闵行区, 国宾路58号3楼",121.37,31.16,Shanghai,Shanghai
五角场万达影城店,上海市,"杨浦区, 上海五角场万达商业广场万达影城, 田林东路75号1层105单元",121.51,31.3,Shanghai,Shanghai
汇阳广场店,上海市,"徐汇区, 汇阳广场, 斜徐路593号",121.43,31.17,Shanghai,Shanghai
大同店,上海市,"徐汇区, 斜徐路, 真北路818号B2层06\22单元",121.47,31.21,Shanghai,Shanghai
近铁城市广场店,上海市,"普陀区, 近铁城市广场, 都市路3759号126室",121.38,31.23,Shanghai,Shanghai
龙盛广场店,上海市,"闵行区, 中山南二路1089号1层101室",121.4,31.09,Shanghai,Shanghai
徐汇苑店,上海市,"徐汇区, 徐汇苑, 樱花路80弄1号",121.44,31.18,Shanghai,Shanghai
富荟商业广场店,上海市,"上海市浦东新区, 陕西北路278号一层A1-3商铺",121.55,31.2,Shanghai,Shanghai
金鹰店,上海市,"上海市静安区, 静安区, 研发楼1楼101单元",121.45,31.23,Shanghai,Shanghai
南汇工业园,上海市,"沪南公路8666弄16号, 碧云路633号",121.69,31.03,Shanghai,Shanghai
金桥店,上海市,"浦东新区, 碧云国际社区, 陈行路2388号1幢1层101室",121.58,31.24,Shanghai,Shanghai
浦江科技广场店,上海市,"闵行区, 浦江园内, 龙华中路598号6号楼103室",121.51,31.1,Shanghai,Shanghai
正大乐城6幢店,上海市,"徐汇区, 一二八纪念路988弄1号1层119号铺位",121.46,31.19,Shanghai,Shanghai
宝山万达店,上海市,"宝山区, 万达广场, 广富林路658号1031-1032号单元",121.45,31.32,Shanghai,Shanghai
松江万达广场店,上海市,"松江区, 万达广场, 九江路595号一层",121.24,31.06,Shanghai,Shanghai
古象大酒店,上海市,"黄浦区, 古象大酒店, 古美路569号1F",121.48,31.23,Shanghai,Shanghai
古美文创街店,上海市,"闵行区, 文化创意街, 申长路688号地下一层18室",121.4,31.15,Shanghai,Shanghai
虹桥天地二店,上海市,"闵行区, 虹桥天地, 莘松路1266号1-21、1-22室",121.32,31.19,Shanghai,Shanghai
亚繁生活时尚广场店,上海市,"上海市松江区, 金沙江西路1051弄1-100号1100单元",121.35,31.1,Shanghai,Shanghai
江桥万达店,上海市,"嘉定区, 万达广场, 徐家汇路193-199号",121.32,31.24,Shanghai,Shanghai
永业公寓店,上海市,"黄浦区, 永业公寓, 国康路38号3幢",121.48,31.21,Shanghai,Shanghai
国康路店,上海市,"上海市杨浦区, 陆翔路111弄119号",121.51,31.29,Shanghai,Shanghai
顾村公园店,上海市,"宝山区, 古美路1528号7幢1层01商业101D室",121.37,31.35,Shanghai,Shanghai
古美路店,上海市,"徐汇区, 古美路, 安远路108号1F-01室",121.4,31.16,Shanghai,Shanghai
平高国际广场店,上海市,"上海市普陀区, 银翔路819弄1号04单元",121.45,31.24,Shanghai,Shanghai
中暨大厦店,上海市,"嘉定区, 中暨大厦, 芷江西路518号",121.32,31.29,Shanghai,Shanghai
五月花生活广场店,上海市,"闸北区, 一层101单元及二层201、239单元, 台路179号B2LG2583单元",121.46,31.26,Shanghai,Shanghai
金虹桥国际中心B2店,上海市,上海市长宁区,121.4,31.21,Shanghai,Shanghai
雁荡路店,上海市,"雁荡路99号, 周家嘴路1089号",121.47,31.22,Shanghai,Shanghai
合生财富广场店,上海市,"上海市虹口区, 定安路55号T2楼101A号",121.51,31.26,Shanghai,Shanghai
徐汇万科中心店,上海市,"上海市徐汇区, 徐汇区",121.43,31.16,Shanghai,Shanghai
场北路店,上海市,"宝山区纪蕰路320弄2号一层101室, 曲阜路180号",121.44,31.34,Shanghai,Shanghai
大悦城店,上海市,"闸北区, 大悦城, 南中路80号1层1F06",121.47,31.24,Shanghai,Shanghai
奉贤金叶商厦店,上海市,"上海市奉贤区, 奉贤区, 长寿路1118号",121.46,30.91,Shanghai,Shanghai
芳汇广场店,上海市,"普陀区, 芳汇广场F117号商铺, 长阳路1750号SHYP2 -108A室",121.43,31.23,Shanghai,Shanghai
长阳路欧尚店,上海市,"上海市杨浦区, 东安路599号",121.54,31.27,Shanghai,Shanghai
正大乐城店,上海市,"徐汇区, 正大乐城1-104, 上丰路1702号101室",121.46,31.19,Shanghai,Shanghai
唐镇恒生店,上海市,"浦东新区, 唐镇恒生广场, 世纪大道211号",121.68,31.24,Shanghai,Shanghai
信息大厦店,上海市,"浦东新区, 信息大厦, 殷行路1388弄",121.51,31.24,Shanghai,Shanghai
悠方店,上海市,"上海市杨浦区, 1号102, 淮海中路138号",121.51,31.33,Shanghai,Shanghai
上海广场店,上海市,"上海市黄浦区, 商场一楼106室, 愚园路8号L1层11室、L2层09A室",121.48,31.23,Shanghai,Shanghai
静安晶品店,上海市,"静安区, 静安晶品, 七莘路3655号",121.45,31.22,Shanghai,Shanghai
七莘路店,上海市,"闵行区, 凯德七宝购物广场, 太仓路181弄18号楼",121.34,31.17,Shanghai,Shanghai
新天地店,上海市,"卢湾区, 新天地, 淮海西路280号101室",121.47,31.22,Shanghai,Shanghai
淮海花园店,上海市,"长宁区, 年家浜路238号1楼101单元",121.43,31.2,Shanghai,Shanghai
周浦绿地缤纷广场店,上海市,"上海市浦东新区, 中山北路3300号L1059-L1060室",121.58,31.12,Shanghai,Shanghai
月星环球港1F店,上海市,"上海市普陀区, 普陀区, 国和路701号5105室",121.41,31.23,Shanghai,Shanghai
中原城市广场店,上海市,"杨浦区, 中原城市广场, 南京西路1601号",121.52,31.32,Shanghai,Shanghai
越洋广场店,上海市,"静安区, 越洋广场商场B210室, 海西路676号1层01室",121.45,31.22,Shanghai,Shanghai
新淮海坊店,上海市,"长宁区, 新淮海坊, 春申路3333号1楼149室",121.42,31.2,Shanghai,Shanghai
宝燕商城店,上海市,"上海市闵行区, 中山东二路531号B11室",121.4,31.1,Shanghai,Shanghai
十六铺店,上海市,"黄浦区, 卓耀路58弄127号",121.5,31.23,Shanghai,Shanghai
佛罗伦萨小镇店,上海市,"浦东新区, 第2层206、207室, 杨树浦路2688号",121.77,31.2,Shanghai,Shanghai
时尚中心店,上海市,"杨浦区, 时尚中心, 长寿路175号，179号L110单元",121.56,31.27,Shanghai,Shanghai
巴黎春天长寿路店,上海市,"普陀区, 长寿路巴黎春天, 西藏中路579－581号",121.44,31.24,Shanghai,Shanghai
新金桥店,上海市,"黄浦区, 新金桥, 漕宝路3299弄15号一层",121.47,31.24,Shanghai,Shanghai
七宝宝龙城店,上海市,"上海市闵行区, S1-1F-017单元和二层S1-2F-015单元, 城东路384号1楼MSGC2单元",121.35,31.16,Shanghai,Shanghai
惠南世纪联华店,上海市,"浦东新区, 惠南世纪联华, 九峰路118号1层101室02单元",121.76,31.05,Shanghai,Shanghai
松江平高广场店,上海市,上海市松江区,121.23,31.02,Shanghai,Shanghai
朵云轩店,上海市,"徐汇区天钥桥路1188号, 大连路688号宝地广场",121.45,31.17,Shanghai,Shanghai
宝地广场店,上海市,"杨浦区, A幢102单元  , 长乐路989号",121.51,31.26,Shanghai,Shanghai
世纪商贸店,上海市,"徐汇区, 世纪商贸",121.45,31.22,Shanghai,Shanghai
陆家嘴国际华城店,上海市,"浦东新区张杨路1553号, 天山西路567号神州智慧天地裙房1层R106号",121.54,31.23,Shanghai,Shanghai
神州智慧天地店,上海市,"长宁区, 神州智慧天地, 南京西路762号1楼D座",121.36,31.22,Shanghai,Shanghai
汇银大厦店,上海市,"静安区, 汇银大厦, 真华路928号一层101室",121.46,31.23,Shanghai,Shanghai
真华路店,上海市,"宝山区, 巴黎春天, 虞姬墩路505号",121.41,31.27,Shanghai,Shanghai
江桥老街店,上海市,"嘉定区, 4幢101、102、109铺位, 虹桥路1号168铺位",121.34,31.26,Shanghai,Shanghai
港汇广场店,上海市,"徐汇区, 港汇广场, 宜山路455号1楼183.185室",121.44,31.19,Shanghai,Shanghai
光启城店,上海市,"上海市徐汇区, 南京东路800号B14-F01-1-015单元",121.43,31.18,Shanghai,Shanghai
六合路店,上海市,"黄浦区, 东方商厦, 南京东路233号",121.48,31.24,Shanghai,Shanghai
老介福店,上海市,"黄浦区, 老介福, 肇嘉浜路212号",121.49,31.24,Shanghai,Shanghai
明珠店,上海市,"黄浦区, 明珠大酒店大堂, 华山路1568号1层102室",121.46,31.2,Shanghai,Shanghai
华山国际店,上海市,"长宁区, 华山国际, 申达一路1号虹桥机场T2航站楼到达公众区0L-1号商铺",121.43,31.21,Shanghai,Shanghai
虹桥机场T2到达店,上海市,"长宁区, 虹桥机场二号航站楼, 合川路2679号",121.33,31.19,Shanghai,Shanghai
虹桥国际商务广场店,上海市,"闵行区, B座101室, 申北路8号",121.38,31.17,Shanghai,Shanghai
申北路店,上海市,"闵行区, 春申文化创意园, 宜山路675-1单元",121.39,31.09,Shanghai,Shanghai
宜山路店,上海市,"上海市徐汇区, 天钥桥路30号",121.42,31.18,Shanghai,Shanghai
美罗大厦店,上海市,"徐汇区, 美罗大厦, 佳木斯路488号1层101室",121.44,31.19,Shanghai,Shanghai
佳木斯路店,上海市,"上海市杨浦区, 长岛路1160-1号",121.54,31.29,Shanghai,Shanghai
长岛路店,上海市,"浦东新区, 翡翠商都, 肇嘉浜路500号",121.59,31.26,Shanghai,Shanghai
好望角店,上海市,"徐汇区, 好望角酒店, 天山路762号1层15号商铺",121.45,31.2,Shanghai,Shanghai
天山巴黎春天店,上海市,"长宁区, 巴黎春天天山路店, 万源路930-932-934号",121.4,31.21,Shanghai,Shanghai
万源城店,上海市,"闵行区, 万源城乐斯生活馆, 茅台路179号商场L1楼 L113号商铺",121.39,31.15,Shanghai,Shanghai
金虹桥国际中心店,上海市,"长宁区, 金虹桥国际中心, 嘉松北路6130号",121.4,31.21,Shanghai,Shanghai
嘉实生活广场店,上海市,"嘉定区, 沪闵路6088号1层01-02号",121.22,31.29,Shanghai,Shanghai
莘庄龙之梦2店,上海市,"闵行区, 华秋路58弄21号一层、22号一层",121.38,31.11,Shanghai,Shanghai
朗香嘉年华店,上海市,"上海市宝山区, 遵义路122弄6号2-B101单元",121.38,31.32,Shanghai,Shanghai
虹桥南丰城二店,上海市,"长宁区, 虹桥南丰城二期",121.41,31.21,Shanghai,Shanghai
上海通用汽车店,上海市,"浦东新区申江路1500号, 浦东南路1078号1楼09A室",121.62,31.28,Shanghai,Shanghai
中融广场店,上海市,"浦东新区, 申达一路1号",121.52,31.23,Shanghai,Shanghai
虹桥西航站店,上海市,"长宁区, 虹桥机场T2候机楼C3-M2-S28, 中潭路71号",121.33,31.19,Shanghai,Shanghai
中远两湾城店,上海市,"普陀区, 中远两湾城, 莲花南路1500号",121.44,31.25,Shanghai,Shanghai
新都会店,上海市,"闵行区, 梅陇镇新都会15-B单元, 黄浦路99号111室",121.41,31.1,Shanghai,Shanghai
上海滩国际大厦店,上海市,"虹口区, 浦东大道720号",121.49,31.24,Shanghai,Shanghai
航运金融大厦店,上海市,"浦东新区, 国际航运金融中心大厦大堂, 共和新路1898号",121.52,31.24,Shanghai,Shanghai
大宁店,上海市,"闸北区, 大宁国际广场5幢1层114－117室, 都市路5001号",121.45,31.27,Shanghai,Shanghai
莘庄仲盛店,上海市,"闵行区, 仲盛世界城, 张杨路655号",121.39,31.11,Shanghai,Shanghai
张杨路店,上海市,"浦东新区, 永安金店101、201铺位, 甘河路181号",121.52,31.23,Shanghai,Shanghai
甘河路店,上海市,"上海市虹口区, 曹杨路555号",121.49,31.29,Shanghai,Shanghai
汇融天地店,上海市,"普陀区, 汇融天地, 西藏北路558号-588号",121.42,31.24,Shanghai,Shanghai
铭德大酒店店,上海市,"上海市静安区, 东方路1217号1楼100单元",121.47,31.25,Shanghai,Shanghai
陆家嘴软件园二店,上海市,"浦东新区, 陆家嘴软件园, 南京西路2－68号3F",121.53,31.22,Shanghai,Shanghai
新世界店,上海市,"黄浦区, 新世界, 天山西路138号1楼35室",121.47,31.23,Shanghai,Shanghai
北新泾店,上海市,"长宁区, 馥邦购物中心, 碧波路635号104 1F24-23B室",121.37,31.22,Shanghai,Shanghai
上海传奇店,上海市,"浦东新区, 上海传奇, 水产路2499号111室",121.59,31.2,Shanghai,Shanghai
北翼生活广场店,上海市,"上海市宝山区, 灵石路695号3号楼1楼大堂",121.44,31.37,Shanghai,Shanghai
珠江创意中心店,上海市,"闸北区, 珠江创意中心, 西藏南路218号",121.45,31.28,Shanghai,Shanghai
永银大厦店,上海市,"黄浦区, 永银大厦1F, 蒙自路169号",121.48,31.22,Shanghai,Shanghai
丽园路店,上海市,"卢湾区, 丽园路口, 虹桥路1号101铺位",121.48,31.21,Shanghai,Shanghai
港汇2店,上海市,"徐汇区, 塔城路295号",121.44,31.2,Shanghai,Shanghai
嘉定疁城国际店,上海市,"嘉定区, 疁城国际, 金港路299号1幢13、16室",121.26,31.38,Shanghai,Shanghai
禹州广场店,上海市,"浦东新区, 禹州金融广场, 民生路1199号1号楼105A",121.61,31.26,Shanghai,Shanghai
证大五道口店,上海市,"浦东新区, 证大五道口广场, 蒙自路757号1楼106单元",121.55,31.23,Shanghai,Shanghai
歌斐中心店,上海市,"上海市黄浦区, 南京东路299号",121.48,31.2,Shanghai,Shanghai
宏伊广场店,上海市,"黄浦区, 2楼S-215单元, 漕溪路1111号",121.48,31.24,Shanghai,Shanghai
上海体育馆店,上海市,"徐汇区, 上海体育馆1楼1号扶梯, 张扬北路3181号",121.44,31.18,Shanghai,Shanghai
阳光城店,上海市,"浦东新区, 阳光天地, 翔殷路1099号地下一层12号",121.59,31.31,Shanghai,Shanghai
合生汇店,上海市,"上海市杨浦区, 迎宾大道6000号",121.52,31.3,Shanghai,Shanghai
浦东机场T1国际27号登机口店,上海市,"浦东新区浦, 一号候机楼国际出发禁区商业区域餐饮项目, 仙霞路99 号",121.81,31.15,Shanghai,Shanghai
尚嘉中心店,上海市,"长宁区, 尚嘉中心(商场)地下第2层B1-B11, 安波路419号",121.41,31.21,Shanghai,Shanghai
安波路店,上海市,"上海市杨浦区, 福建中路353号-359号1-2层1A02单元",121.53,31.3,Shanghai,Shanghai
福建中路店,上海市,"黄浦区, 福建中路, 人民大道221号B1层236-238号单元",121.48,31.24,Shanghai,Shanghai
迪美广场店,上海市,"上海市黄浦区, 张杨路500号",121.47,31.23,Shanghai,Shanghai
时代店,上海市,"浦东新区, 华润时代广场, 陆家嘴环路166号102室",121.52,31.23,Shanghai,Shanghai
未来资产大厦店,上海市,"浦东新区, 未来资产大厦, 南京西路189号",121.5,31.24,Shanghai,Shanghai
人民公园店,上海市,"黄浦区, 人民公园, 浦东国际机场T2国内禁区D4号店铺",121.47,31.23,Shanghai,Shanghai
浦东机场T2国内C67号登机口店,上海市,"上海市浦东新区, 政德东路53号",121.81,31.15,Shanghai,Shanghai
Z18广场店,上海市,"杨浦区, Z18广场, 西藏中路268",121.52,31.31,Shanghai,Shanghai
来福士2店,上海市,"黄浦区, 来福士广场办公楼一层大堂L1-02, 宝翔路801号118单元",121.48,31.23,Shanghai,Shanghai
南翔五彩城店,上海市,"嘉定区, 江浦路627号24幢101室",121.32,31.31,Shanghai,Shanghai
E朋汇店,上海市,"上海市杨浦区, 西江湾路388号(A)01层56号",121.53,31.26,Shanghai,Shanghai
虹口龙之梦2店,上海市,"虹口区, 虹口龙之梦, 佳通路31弄3号",121.48,31.27,Shanghai,Shanghai
南翔祥腾广场店,上海市,"嘉定区, 南翔祥腾广场, 宁国路218号L1层1A-024室",121.32,31.3,Shanghai,Shanghai
杨浦百联滨江购物中心店,上海市,"杨浦区, 杨浦百联滨江购物中心, 国定路319号F135单元",121.54,31.26,Shanghai,Shanghai
3号湾店,上海市,"杨浦区, 3号湾, 沪闵路6088号",121.51,31.3,Shanghai,Shanghai
莘庄龙之梦店,上海市,"闵行区, 莘庄凯德龙之梦1楼01-27号, 仙霞路299号",121.38,31.11,Shanghai,Shanghai
远东国际店,上海市,"长宁区, 远东国际大厦, 1340、1341、1364、",121.4,31.21,Shanghai,Shanghai
北上海生活广场店,上海市,"宝山区蕴川路1555号1330、1331, 1365、1388、1389铺位, 新华路160号",121.43,31.37,Shanghai,Shanghai
上海影城店,上海市,"长宁区, 上海影城底层001号商铺, 天山西路568号1幢105-106",121.43,31.2,Shanghai,Shanghai
统一企业大厦店,上海市,"长宁区, 统一企业大厦, 常德路800号",121.36,31.22,Shanghai,Shanghai
800秀店,上海市,"静安区, 800秀, 徐家汇路608号1F A-1",121.44,31.23,Shanghai,Shanghai
日月光办公楼店,上海市,"上海市黄浦区, 钦江路102号",121.46,31.21,Shanghai,Shanghai
钦江路店,上海市,"徐汇区, 钦江路, 殷高西路333号3-152、3-153单元",121.41,31.18,Shanghai,Shanghai
殷高西路店,上海市,"宝山区, 淮海中路381号",121.47,31.32,Shanghai,Shanghai
中环店,上海市,"黄浦区, 中环广场108-112室, 北艾路1770、1772号",121.47,31.22,Shanghai,Shanghai
北艾路店,上海市,"上海市浦东新区, 南车站路564号",121.53,31.18,Shanghai,Shanghai
南车站路店,上海市,"黄浦区, 世纪大道800号",121.49,31.2,Shanghai,Shanghai
南洋商业银行大厦店,上海市,"浦东新区, 南洋商业银行大厦, 新闸路1250号10号楼一层5室-10室",121.51,31.23,Shanghai,Shanghai
新闸路店,上海市,"静安区, 源创创意园, 复兴中路393号C103室",121.45,31.23,Shanghai,Shanghai
复兴广场店,上海市,"黄浦区, 复兴广场, 国耀路198号，200号",121.47,31.22,Shanghai,Shanghai
招商局上海中心店,上海市,"上海市浦东新区, 浦东新区, 西藏北路18号105单元",121.49,31.18,Shanghai,Shanghai
四行天地店,上海市,"上海市静安区, 四行天地, 银城中路68号",121.47,31.24,Shanghai,Shanghai
时代金融店,上海市,"浦东新区, 时代金融大厦2楼, 西江湾路388号 (A)01层10/55号",121.51,31.24,Shanghai,Shanghai
虹口龙之梦店,上海市,"虹口区, 虹口龙之梦, 江苏路458号1层116室",121.48,31.27,Shanghai,Shanghai
江苏路店,上海市,"长宁区, 舜元弘基天地, 国权路73号",121.43,31.22,Shanghai,Shanghai
绿色米兰广场店,上海市,"杨浦区, 绿色米兰广场, 城河路230号3-101单元",121.52,31.29,Shanghai,Shanghai
易家中心店,上海市,"金山区, 易家中心, 淮海中路999号",121.33,30.73,Shanghai,Shanghai
环贸广场2店,上海市,"徐汇区, 环贸广场L507室, 世纪大道1600号",121.46,31.22,Shanghai,Shanghai
浦项店,上海市,"浦东新区, 浦项, 东大名路358号1楼",121.53,31.22,Shanghai,Shanghai
国际港务大厦店,上海市,"虹口区, 国际港务大厦, 江苏路369号",121.5,31.25,Shanghai,Shanghai
兆丰店,上海市,"长宁区, 兆丰世贸大厦, 殷高西路10弄2号101、102-1室",121.43,31.22,Shanghai,Shanghai
殷高西路地铁站店,上海市,"上海市宝山区, 中山南路479弄5号楼101室",121.49,31.32,Shanghai,Shanghai
老码头店,上海市,"黄浦区, 老码头, 南京西路1266号",121.51,31.22,Shanghai,Shanghai
恒隆二店,上海市,"静安区, 恒隆广场二期大堂, 遵义路100号1-L124和1-LM17单元",121.45,31.23,Shanghai,Shanghai
虹桥南丰城一店,上海市,"长宁区, 虹桥南丰城, 南京西路388号",121.41,31.21,Shanghai,Shanghai
仙乐斯店,上海市,"黄浦区, 南京东路300号L114商铺",121.47,31.23,Shanghai,Shanghai
名人大厦店,上海市,"黄浦区, 名人大厦, 淞虹路920号",121.48,31.24,Shanghai,Shanghai
福缘湾九华店,上海市,"上海市长宁区, 福缘湾商场1层1座1101单元, 瑞金二路197号综合大楼一楼",121.36,31.21,Shanghai,Shanghai
瑞金医院综合大楼店,上海市,"上海市黄浦区, 中山东一路367号",121.47,31.21,Shanghai,Shanghai
外滩店,上海市,"黄浦区, 外滩, 大华三路81号一层A5室",121.49,31.24,Shanghai,Shanghai
大华三路店,上海市,"宝山区, 美隆生活广场, 祖冲之路2290弄",121.42,31.28,Shanghai,Shanghai
展想大厦店,上海市,"浦东新区, 展想大厦, 文定路200号1楼1A09ab室",121.63,31.21,Shanghai,Shanghai
蒲汇塘路店,上海市,"徐汇区, 盛源大地家居城, 中山西路1602号1层02室",121.43,31.19,Shanghai,Shanghai
宏汇国际广场店,上海市,"徐汇区, 宏汇国际广场, 年家浜路518号",121.42,31.19,Shanghai,Shanghai
周浦万达店,上海市,"周浦镇, 周浦万达广场157商铺, 瑞虹路188号1层115单元",121.57,31.11,Shanghai,Shanghai
月亮湾店,上海市,"上海市虹口区, 四川北路1350商场一层110-112室",121.5,31.26,Shanghai,Shanghai
申虹广场店,上海市,"虹口区, 申虹广场, 东风路9号、11号",121.48,31.25,Shanghai,Shanghai
金山五福商业广场店,上海市,"金山区, 金山区五福广场, 长宁路1018号1F1073号商铺",121.17,30.89,Shanghai,Shanghai
龙之梦2店,上海市,"长宁区, 龙之梦, 沙泾路10号1-103单元",121.42,31.22,Shanghai,Shanghai
1933老场坊店,上海市,"虹口区, 漕宝路1574号",121.49,31.25,Shanghai,Shanghai
漕宝路店,上海市,"闵行区, 漕宝路, 西藏中路289号",121.38,31.16,Shanghai,Shanghai
西藏路店,上海市,"黄浦区, 松东路219号1F",121.47,31.23,Shanghai,Shanghai
松江颐思殿广场店,上海市,"松江区, 颐思殿广场, 南京西路1515号",121.26,31.02,Shanghai,Shanghai
静安嘉里中心2店,上海市,"静安区, 静安嘉里中心商场E1-03、E1-06K室, 畹町路118号-122号",121.45,31.22,Shanghai,Shanghai
畹町路店,上海市,"闵行区, 畹町路, 柳州路399号甲302室",121.4,31.11,Shanghai,Shanghai
柳州路店,上海市,"徐汇区, 沪南公路9900号",121.43,31.17,Shanghai,Shanghai
惠南禹洲商业广场,上海市,"上海市浦东新区, 惠南禹洲商业广场1楼9876单元, 局门路436号1号楼1102单元",121.74,31.04,Shanghai,Shanghai
8号桥2店,上海市,"黄浦区, 8号桥II期, 世纪大道2002号KJ008 009商铺",121.48,31.2,Shanghai,Shanghai
上海科技馆站店,上海市,"浦东新区, 地铁2号线科技馆站3号出口, 福山路500号",121.54,31.22,Shanghai,Shanghai
城建大厦店,上海市,"浦东新区, 城建国际中心, 海桐路338号",121.53,31.22,Shanghai,Shanghai
海桐路店,上海市,"浦东新区, 花木世纪联华, 南丹东路8号第一层101室",121.55,31.21,Shanghai,Shanghai
斜土路店,上海市,"徐汇区, 株洲路329号1-2层",121.45,31.19,Shanghai,Shanghai
株洲路店,上海市,"上海市虹口区, 长寿路1007号、1009号和999弄",121.47,31.28,Shanghai,Shanghai
达安花园店,上海市,"上海市静安区, 4号底层A室部分区域, 碧云路1156号&1160号",121.43,31.23,Shanghai,Shanghai
碧云路店,上海市,"浦东新区, 碧云路, 仙霞西路88号",121.59,31.24,Shanghai,Shanghai
西郊友谊店,上海市,"长宁区, 百联西郊购物中心, 东方路1367号",121.37,31.21,Shanghai,Shanghai
富都广场店,上海市,"上海市浦东新区, 古美路1515号19号楼102B室",121.53,31.21,Shanghai,Shanghai
凤凰园店,上海市,"徐汇区, 凤凰园, 成山路1993号1F",121.4,31.16,Shanghai,Shanghai
成山路店,上海市,"浦东新区, 巴黎春天, 虹桥路1号",121.53,31.18,Shanghai,Shanghai
港汇3店,上海市,"徐汇区, 港汇广场办公楼一座大堂, 天钥桥路323号",121.44,31.19,Shanghai,Shanghai
嘉汇店,上海市,"徐汇区, 美城天地, 大渡河路168弄136号1层101A室",121.44,31.19,Shanghai,Shanghai
长风景畔广场店,上海市,"普陀区, 长风景畔广场, 逸仙路519号09单元",121.4,31.22,Shanghai,Shanghai
三湘世纪花城店,上海市,"上海市杨浦区, 利津路1275、1277号1F",121.49,31.3,Shanghai,Shanghai
利津路店,上海市,"浦东新区, 民生路1286号102、103、105单元",121.59,31.28,Shanghai,Shanghai
汇商大厦店,上海市,"浦东新区, 金丰路447号",121.55,31.22,Shanghai,Shanghai
金丰路店,上海市,"闵行区, 金丰路, 花木路1378号",121.28,31.2,Shanghai,Shanghai
浦东嘉里城店,上海市,"浦东新区, 浦东嘉里城商场一层L110单元, 新金桥路1088号B100室",121.56,31.21,Shanghai,Shanghai
中惠广场店,上海市,"浦东新区, 中惠广场, 福州路465号2楼",121.61,31.25,Shanghai,Shanghai
上海书城店,上海市,"黄浦区, 东侧商铺, 港隆时代广场一号楼102-105室",121.48,31.23,Shanghai,Shanghai
宁波港隆广场店,宁波市,"高新区沧海路1号, 金高路1882号第一层105单元",121.6,29.89,Zhejiang,Ningbo
金桥太茂店,浦东新区,上海市浦东新区,121.61,31.27,,
Changshu Fangta Street-GF,Changshu,Fangta Street and HeDong Street,120.75,31.64,,
CZ Wujin Kaia Lomo Plaza Store-GF,Changzhou,"Huayuan St & Yongsheng Road, Wujin District",119.95,31.69,,
Nanjing Sun Palace Store-GF,Nanjing,"No.3 yangguang Rd, Xuanwu",118.81,32.06,,
NT Haimen Zhongnan Plaza Store-GF,Nantong,"Zhangjian Avenue&Nanhai Road, Haimen City",121.17,31.88,,
NT Rudong wenfeng Dept Store-GF,Nantong,"No.19 North Qingyuan Rd, Rudong",121.18,32.31,,
Haimen New Wenfeng Dept.Store-GF,Nantong,"Changjiang Rd & Renmin Rd, Haimen",121.19,31.89,,
Nantong Harmony city - 1F and 2F,Nantong,"Qingnian Road and South Gongnong Road, Chongchuan District",120.88,32.01,,
Zhangjiagang Guomao hotel-GF,Suzhou,"No.42 Renmin Road, Zhangjiagang",120.55,31.88,,
SZ HuanQiu188 Plaza Store-GF,Suzhou,"No.88 Suhui Road, Industrial Park",120.67,31.31,,
Kunshan MiDunCheng Store-GF,Suzhou,"Middle Changjiang Rd&Hengshan Rd, Kunshan, 雨花区雨花东路158号217、220-222铺位",120.98,31.35,,
南京紫荆广场店,南京市,"江苏省南京市, 中山门大街699号",118.79,31.99,Jiangsu,Nanjing
南京花园城店,南京市,"栖霞区, 花园城, 建邺区楠溪江东街83号一层104铺位",118.89,32.05,Jiangsu,Nanjing
南京缤润汇购物中心店,南京市,"江苏省南京市, 圣汤大道99号7(1)-1-01单元和7(1)-2-01单元",118.73,31.99,Jiangsu,Nanjing
南京百联奥特莱斯店,南京市,"江宁区, 南京百联奥特莱斯广场, 箍筒巷135号",119.05,32.03,Jiangsu,Nanjing
南京老门东店,南京市,"秦淮区, 广州路300号",118.79,32.01,Jiangsu,Nanjing
江苏省人民医院店,南京市,"鼓楼区, 江苏省人民医院, 建邺区云锦路169号一层01商铺",118.77,32.05,Jiangsu,Nanjing
南京乐基广场店,南京市,"江苏省南京市, 山西路1号",118.74,32.03,Jiangsu,Nanjing
南京苏宁银河店,南京市,"鼓楼区, 苏宁银河, 中山南路344号1F-006铺位",118.77,32.07,Jiangsu,Nanjing
南京张府园店,南京市,秦淮区,118.78,32.03,Jiangsu,Nanjing
南京六合泓源广场店,南京市,"六合区长江路10号101和027铺位, 江宁区双龙大道1698号F133铺位",118.84,32.34,Jiangsu,Nanjing
南京景枫广场1F店,南京市,"江苏省南京市, 湖南路115号",118.82,31.93,Jiangsu,Nanjing
南京狮子桥店,南京市,"鼓楼区, 狮子桥, 江东中路98号",118.78,32.07,Jiangsu,Nanjing
南京建邺万达店,南京市,"建邺区, 南京建邺万达广场1楼, 淳中路10号1-001铺位",118.74,32.03,Jiangsu,Nanjing
南京高淳富克斯店,南京市,"高淳区, 南京富克斯流行广场, 江东中路98号万达百货1层",118.87,31.32,Jiangsu,Nanjing
南京建邺万达百货店,南京市,"南京市建邺区, 建邺区, 竹山路68号",118.74,32.03,Jiangsu,Nanjing
南京江宁万达广场店,南京市,"江宁区, 太平南路1号",118.84,31.95,Jiangsu,Nanjing
南京新世纪店,南京市,"白下区, 新世纪广场一层126商铺, 东方金融大厦一层",118.8,32.04,Jiangsu,Nanjing
南京富邦华一银行店,南京市,秦淮区洪武路29号,118.79,32.04,Jiangsu,Nanjing
南京仁恒江湾城店,南京市,"建邺区白龙江西街62号122室, 淳溪镇宝塔路61号",118.71,32.0,Jiangsu,Nanjing
南京高淳八佰伴店,南京市,"南京市高淳区, L1001-1003商铺, 双龙大道1688号一层1F-01铺位",118.88,31.32,Jiangsu,Nanjing
南京江宁金鹰店,南京市,"江宁区, 江宁金鹰天地广场, 秣周东路12号一层B36",118.82,31.93,Jiangsu,Nanjing
南京砂之船店,南京市,"江宁区, 砂之船艺术商业广场, 一层D-G轴与5-7轴之间",118.83,31.87,Jiangsu,Nanjing
南京华泰万丽酒店店,南京市,"南京市建邺区奥体大街139号, 大桥北路58号",118.73,32.0,Jiangsu,Nanjing
南京新一城店,南京市,"浦口区, 新一城, 浦珠北路126号",118.72,32.14,Jiangsu,Nanjing
南京澳林广场店,南京市,"浦口区, 澳林广场, 中山路321号",118.7,32.11,Jiangsu,Nanjing
南京鼓楼医院店,南京市,"鼓楼区, 鼓楼医院南扩新院区门诊大楼一楼, 汉中路27号友谊广场一层A-03铺位",118.78,32.06,Jiangsu,Nanjing
南京友谊广场店,南京市,"秦淮区, 游客接待中心101号铺位",118.78,32.04,Jiangsu,Nanjing
南京牛首山店,南京市,"江宁区, 鼓楼区丁家桥87号中大医院教学医疗综合大楼一楼",118.75,31.91,Jiangsu,Nanjing
南京中大医院店,南京市,"江苏省南京市, 建康路1号",118.78,32.07,Jiangsu,Nanjing
南京水游城店,南京市,"白下区, 水游城F1-T06商铺, 江宁区格致路99号",118.79,32.02,Jiangsu,Nanjing
南京江宁文鼎广场店,南京市,"江苏省南京市, 3-105、3-106及3-114铺位, 湖南路1号",118.9,31.91,Jiangsu,Nanjing
南京凤凰书城店,南京市,"鼓楼区, 凤凰国际书城一层B铺位, 中山南路122号",118.78,32.07,Jiangsu,Nanjing
南京大洋百货店,南京市,"白下区, 南京大洋百货, 华电路1号万谷•慧生活广场一层101单元",118.78,32.04,Jiangsu,Nanjing
南京万谷慧生活广场店,南京市,"栖霞区, 万谷·慧生活广场, 汉中路101号",118.81,32.1,Jiangsu,Nanjing
南京金鹰三期店,南京市,"秦淮区, 双龙大道1222号B108和B208单元",118.78,32.04,Jiangsu,Nanjing
南京瑞都广场店,南京市,"江宁区, 德基广场",118.82,31.95,Jiangsu,Nanjing
南京德基店,南京市,"中山路18号B1-130铺位, 汉中路2号",118.79,32.04,Jiangsu,Nanjing
南京金陵店,南京市,"鼓楼区, 金陵百货1楼, 北京东路4号",118.78,32.04,Jiangsu,Nanjing
南京江苏电视台店,南京市,"玄武区, “江苏广电城大厦”裙楼区一层, 南站候车站",118.79,32.06,Jiangsu,Nanjing
南京南站到达区店,南京市,"雨花台区, 南站候车站HC-精品3, 健康路3号",118.8,31.97,Jiangsu,Nanjing
南京水平方店,南京市,"秦淮区, L1-01铺位, 江东中路329号金奥国际中心商场一层132、133号铺位",118.79,32.02,Jiangsu,Nanjing
南京金奥国际中心店,南京市,"建邺区, 金奥国际中心商场, 中山南路49号一楼",118.73,32.0,Jiangsu,Nanjing
南京苏宁商茂店,南京市,"白下区, 苏宁商茂, 禄口镇禄口机场T2航站楼",118.78,32.04,Jiangsu,Nanjing
南京禄口机场T2航站楼国内出发店,南京市,"江宁区, 中央路201号第一层110店铺",118.87,31.77,Jiangsu,Nanjing
南京金茂汇店,南京市,"鼓楼区, 南京国际广场, 玉兰路98号",118.78,32.07,Jiangsu,Nanjing
南京南站出发夹层店,南京市,"雨花区, 南京南站出发夹层, 贡院西街188号",118.8,31.97,Jiangsu,Nanjing
南京大世界店,南京市,"秦淮区, 南京大世界, 禄口镇禄口机场交通中心",118.79,32.02,Jiangsu,Nanjing
南京禄口机场交通中心店,南京市,"江宁区, 应天大街618号",118.87,31.77,Jiangsu,Nanjing
南京虹悦城店,南京市,"雨花区, 虹悦城, 凤熙路8号",118.77,32.01,Jiangsu,Nanjing
南京中海环宇城店,南京市,"鼓楼区, 葛关路380-1号",118.75,32.05,Jiangsu,Nanjing
南京大厂紫晶环球生活广场店,南京市,"六合区, 环球生活广场, 鼓楼区集庆门大街268号 ",118.76,32.23,Jiangsu,Nanjing
南京苏宁慧谷中心店,南京市,"江苏省南京市, 汉中路143号F01-05铺位",118.73,32.03,Jiangsu,Nanjing
南京汉中环亚广场店,南京市,"秦淮区, 太平北路52号3单元",118.78,32.04,Jiangsu,Nanjing
南京1912店,南京市,"玄武区, 南京1912, 浦珠南路26号",118.8,32.04,Jiangsu,Nanjing
南京慕斯荟店,南京市,"江苏省南京市浦口区, 101及202铺位, 中山南路1号2楼",118.65,32.07,Jiangsu,Nanjing
南京新百店,南京市,"白下区, 南京新百, 江宁区双龙大道1698号B146铺位",118.78,32.04,Jiangsu,Nanjing
南京景枫广场B1店,南京市,"江苏省南京市, 北京东路1号1楼2楼G-01铺位",118.82,31.93,Jiangsu,Nanjing
南京凯瑟琳广场店,南京市,"玄武区, 凯瑟琳广场, 玄武区龙蟠路1号南京商厦一层西门",118.79,32.06,Jiangsu,Nanjing
南京商厦店,南京市,"江苏省南京市, 中山南路79号",118.79,32.09,Jiangsu,Nanjing
南京中央商场店,南京市,"白下区, 江东中路236号",118.78,32.04,Jiangsu,Nanjing
南京华灯坊店,南京市,"建邺区, 珠江路389号",118.72,32.0,Jiangsu,Nanjing
南京珍珠饭店店,南京市,"玄武区, 东方珍珠饭店, 中山门大街301号",118.8,32.05,Jiangsu,Nanjing
南京森林摩尔店,南京市,"玄武区, 2号楼第一层107商铺, 秦淮路11号1楼",118.87,32.04,Jiangsu,Nanjing
南京江宁欧尚店,南京市,"江宁区, 欧尚, 双龙大道1351号",118.82,31.95,Jiangsu,Nanjing
南京同曦万尚城店,南京市,"江宁经济技术开发区, 万尚城1楼, 状元境9号",118.82,31.94,Jiangsu,Nanjing
南京状元楼店,南京市,"秦淮区, 草场门大街99号",118.79,32.02,Jiangsu,Nanjing
南京新城市广场店,南京市,"鼓楼区, 新城市大厦, 江东中路",118.74,32.06,Jiangsu,Nanjing
南京雨润国际广场店,南京市,"建邺区, 237号, 中山路18号1期七楼",118.73,32.01,Jiangsu,Nanjing
南京德基广场2店,南京市,"玄武区, 德基广场, 清江苏宁广场104&202铺位",118.79,32.04,Jiangsu,Nanjing
南京清江苏宁广场店,南京市,"建邺区江东北路88号, 中山北路6号",118.74,32.05,Jiangsu,Nanjing
南京绿地广场店,南京市,"鼓楼区, 淮海路68号苏宁电器大厦",118.78,32.06,Jiangsu,Nanjing
南京苏宁淮海路店,南京市,"秦淮区, 江宁区双龙大道1539号J1-F1-25A铺位",118.79,32.04,Jiangsu,Nanjing
南京21世纪太阳城店,南京市,"江苏省南京市, 中山西路1号",118.82,31.93,Jiangsu,Nanjing
南通如皋金茂国际店,南通市,"如皋市, 金茂国际财富广场1-001&1-003-A单元, 崇川区人民中路106号",120.55,32.39,Jiangsu,Nantong
南通人民路金鹰店,南通市,"江苏省南通市, 南通农场999号苏通大桥东服务区D7-D9号",120.87,32.02,Jiangsu,Nantong
G15高速苏通大桥服务区东区店,南通市,"江苏省南通市, 崇川区桃园路10号中南百货L1-001、002号商铺",120.99,31.87,Jiangsu,Nantong
南通中南百货店,南通市,"江苏省南通市, 人民中路400号",120.9,31.97,Jiangsu,Nantong
启东东方维也纳店,南通市,"启东市, 东方维也纳, 工农路100号星光耀广场2号楼B101铺位",121.67,31.8,Jiangsu,Nantong
南通星光耀店,南通市,"崇川区, 南通星光耀广场, 工农路57号南通金鹰圆融购物中心1F1、1F2铺位",120.89,31.97,Jiangsu,Nantong
南通金鹰圆融店,南通市,"崇川区, 南通金鹰圆融购物中心, 江海中路606号",120.88,32.01,Jiangsu,Nantong
启东环球大厦店,南通市,"启东, 启东环球大厦, 新东路101号世茂广场一层1010单元",121.66,31.81,Jiangsu,Nantong
南通世茂广场店,南通市,"开发区, 人民中路47号",120.95,31.92,Jiangsu,Nantong
南通八佰伴店,南通市,"崇川区, 南通八佰伴1楼1-1铺位",120.87,32.02,Jiangsu,Nantong
海安文峰大世界店,南通市,"海安县海安镇宁海南路2号, 港闸区北大街2号南通华强广场1F，F01-04号",120.47,32.54,Jiangsu,Nantong
南通华强广场店,南通市,"江苏省南通市, 桃园路12号",120.86,32.04,Jiangsu,Nantong
南通中南城店,南通市,"崇川区, 南通中南城, 虹桥路1号A区一层1001单元，二层2001单元",120.89,31.97,Jiangsu,Nantong
南通文峰城市广场店,南通市,"崇川区, 南通文峰城市广场, 万科金域广场1层108单元",120.88,32.0,Jiangsu,Nantong
南通万科广场店,南通市,港闸区北大街108号,120.86,32.05,Jiangsu,Nantong
南通万达广场店,南通市,"港闸区长平路9号1层1033号, 南大街3-5号",120.83,32.04,Jiangsu,Nantong
南通文峰大世界店,南通市,"崇川区, 文峰大世界, 建设路76号",120.87,32.02,Jiangsu,Nantong
南通通州文峰大世界店,南通市,"通州区, 南通农场999号苏通大桥西服务区D7-D9号",121.07,32.09,Jiangsu,Nantong
G15高速苏通大桥服务区西区店,南通市,"江苏省南通市, 如城镇中山路418号",120.99,31.87,Jiangsu,Nantong
南通如皋文峰大世界店,南通市,"如皋市, 一层的1-1,二层的2-1单元, 开发区星湖大道1101号2幢118室02单元",120.56,32.39,Jiangsu,Nantong
南通星湖101广场店,南通市,"江苏省南通市, 江兴西路469号一层1027A商铺",120.94,31.92,Jiangsu,Nantong
吴江正翔广场店,吴江市,"松陵镇, 吴江正翔广场",120.64,31.17,,
太仓海运堤店,太仓市,"城厢镇南郊海运堤路86-4号, 人民路95号",121.12,31.44,,
太仓华旭财富中心店,太仓市,"城厢镇, 太仓华旭财富中心, 上海东路188号",121.11,31.45,,
太仓万达广场店,太仓市,"城厢镇, 万达广场1层1023铺位, 北大街文化街区A5栋105~106铺位",121.14,31.46,,
姜堰北大街店,姜堰市,"姜堰市, 北大街, 陶都路",120.15,32.51,,
宜兴高铁站店,宜兴市,"宜兴, 宜兴高铁站1F YX-01",119.81,31.31,,
宜兴和信广场店,宜兴市,"人民中路228号和信广场1楼, 东虹路550",119.82,31.37,,
宜兴万达店,宜兴市,"宜城街道, 万达广场一层1079号铺位, 西湖路6号",119.85,31.36,,
宿迁宝龙城市广场店,宿迁市,"宿城区, 宝龙城市广场, 水韵城1楼37-01商铺",118.29,33.95,Jiangsu,Suqian
宿迁水韵城店,宿迁市,"宿城区西湖路66号, 沭阳县台州南路68号乐之地商业广场B1-63、B2-33单元",118.29,33.95,Jiangsu,Suqian
宿迁沭阳乐之地店,宿迁市,"江苏省宿迁市, 宿城区幸福中路88号",118.8,34.1,Jiangsu,Suqian
宿迁苏宁广场店,宿迁市,"江苏省宿迁市, 苏宁广场 1层 112号商铺, 武宜中路188号1F-120号",118.3,33.95,Jiangsu,Suqian
常州吾悦店,常州市,"武进区, 吾悦广场, 延陵西路123号",119.94,31.73,Jiangsu,Changzhou
常州吾悦国际店,常州市,"钟楼区, 吾悦国际B1-2层6-105、S205, 汉江路299号",119.95,31.78,Jiangsu,Changzhou
常州新北公园店,常州市,"新北区, 新北公园, 新北区通江路588号月星环球港1层 L1059商铺",119.98,31.83,Jiangsu,Changzhou
常州月星环球港南区店,常州市,"江苏省常州市, 花园街301号",119.98,31.84,Jiangsu,Changzhou
常州武进万达广场店,常州市,"武进区, 莱蒙都会商业街1-131/132/102/103商铺",119.95,31.73,Jiangsu,Changzhou
常州莱蒙都会2店,常州市,"钟楼区, 莱蒙都会商业街, 定安中路2号",119.95,31.78,Jiangsu,Changzhou
常州富克斯店,常州市,"武进区, 常州富克斯流行广场1F",119.96,31.72,Jiangsu,Changzhou
常州武进常发店,常州市,"武进区延政中路5号101室, 延陵西路121号一楼",119.95,31.7,Jiangsu,Changzhou
常州泰富店,常州市,"天宁区, 常州泰富, 通江中路108号L1-16、L2-7",119.96,31.78,Jiangsu,Changzhou
常州丰臣国际广场店,常州市,"新北区, 新北百盛, 局前街180号",119.97,31.82,Jiangsu,Changzhou
常州正方京城店,常州市,"钟楼区, 正方京城, 金坛区南环二路吾悦广场1F1050号商铺",119.96,31.78,Jiangsu,Changzhou
常州金坛吾悦广场店,常州市,"江苏省常州市, 花园街33号",119.59,31.73,Jiangsu,Changzhou
常州又一城店,常州市,"武进区, 又一城, 莱蒙都会商业街8-147商铺",119.95,31.71,Jiangsu,Changzhou
常州莱蒙都会1店,常州市,"钟楼区, 河海东路60号7号楼1F-1单元",119.95,31.78,Jiangsu,Changzhou
常州迪诺水镇店,常州市,"新北区, 常州迪诺水镇, 通江中路88号一层L1001商铺",120.0,31.82,Jiangsu,Changzhou
常州万达店,常州市,"新北区, 万达广场, 新北区荣盛锦绣华府",119.97,31.82,Jiangsu,Changzhou
常州曼哈顿广场店,常州市,"江苏省常州市, 6幢一层108、109、116-119商铺, 武进区武宜北路星河城市花园五区",119.97,31.83,Jiangsu,Changzhou
常州星河国际店,常州市,"江苏省常州市, 9幢1楼L1C-032号铺位, 万都广场一层二层1-1商铺",119.94,31.72,Jiangsu,Changzhou
常州万都广场店,常州市,"天宁区和平中路388号, 延陵西路8号",119.96,31.76,Jiangsu,Changzhou
常州万博百货店,常州市,"天宁区, 万博百货, 邹区时代广场101号商铺",119.96,31.78,Jiangsu,Changzhou
常州邹区时代广场店,常州市,"钟楼区邹区镇东方路188号, 月星环球港1层1019商铺",119.85,31.79,Jiangsu,Changzhou
常州月星环球港1店,常州市,"新北区通江路588号, 天目路12号",119.98,31.84,Jiangsu,Changzhou
溧阳上河城店,常州市,"溧阳市, 上河城1层A101-A102单位, 兰陵北路999号L1-043、044商铺",119.48,31.42,Jiangsu,Changzhou
常州九洲新世界店,常州市,"天宁区, 常州九洲新世界, 钟楼区梧桐路宝龙城市广场五幢043、111商铺",119.95,31.77,Jiangsu,Changzhou
常州宝龙城市广场店,常州市,"江苏省常州市, 101-1号1-101商铺",119.89,31.79,Jiangsu,Changzhou
常州新北常发广场店,常州市,"常州新北区太湖东路, 方塔东街9号楼1-1",119.98,31.81,Jiangsu,Changzhou
常熟华地店,常熟市,"虞山镇, 华地百货, 方塔街106号",120.76,31.64,,
常熟恒隆店,常熟市,"虞山镇, 恒隆中心1F22商铺",120.74,31.64,,
常熟虞景文华店,常熟市,"北门大街虞景文华商业广场19幢-1, 19-1",120.74,31.65,,
常熟美城广场店,常熟市,"海虞北路35号, 海虞南路88号",120.75,31.67,,
常熟西蒙印象城店,常熟市,"工业园区, 常熟格瑞印象城购物中心1040室, 1楼1001单元星巴克",120.76,31.65,,
常熟捞品城店,常熟市,"白雪路7号捞品城, 购物公园克拉克水岸A107~108铺位",120.75,31.63,,
张家港购物公园店,张家港,沙洲西路368号,120.52,31.87,,
张家港曼巴特广场店,张家港市,"杨舍镇河西路88号一层1404号铺位, 睢宁县元府东路17号中景豪庭1号楼1-106单元",120.55,31.86,,
徐州睢宁曼哈顿商业广场店,徐州市,"江苏省徐州市, 淮海西路270号A009单元",117.96,33.9,Jiangsu,Xuzhou
徐州金鹰人民广场店,徐州市,"泉山区, 金鹰人民广场, 和信广场1F L127单元",117.16,34.26,Jiangsu,Xuzhou
徐州和信广场,徐州市,"鼓楼区复兴北路27号, 邳州市东湖街道",117.2,34.27,Jiangsu,Xuzhou
徐州邳州新苏中心店,徐州市,"江苏省徐州市, 银杏大道1号一层F1004单元, 铜山区北京北路19号徐州铜山万达广场",117.98,34.33,Jiangsu,Xuzhou
徐州铜山万达店,徐州市,"江苏省徐州市, 和平大道58号",117.19,34.19,Jiangsu,Xuzhou
徐州云龙万达广场店,徐州市,"云龙区, 万达广场1F1001铺, 中山北路2号",117.24,34.25,Jiangsu,Xuzhou
徐州金鹰店,徐州市,"鼓楼区, 徐州金鹰购物中心1F, 扬中雨润中央国际广场",117.19,34.27,Jiangsu,Xuzhou
镇江扬中雨润中央店,扬中市,"扬中市三茅镇江洲西路8号, 文昌中路492号",119.83,32.24,,
扬州珍园店,扬州市,"广陵区, 扬子江北路101号",119.44,32.39,Jiangsu,Yangzhou
扬州凯德广场店,扬州市,"邗江区, 广陵区文昌中路555号",119.42,32.4,Jiangsu,Yangzhou
扬州华懋购物中心B区店,扬州市,"江苏省扬州市, 华懋购物中心B区一层F163, 广陵区文昌中路555号",119.43,32.39,Jiangsu,Yangzhou
扬州华懋购物中心A区店,扬州市,"江苏省扬州市, 华懋购物中心A区一层F111, 文昌中路396号一层",119.43,32.39,Jiangsu,Yangzhou
扬州茂业百货店,扬州市,"广陵区, F.01.031.00050铺位, 邗江区维扬路27号扬州宝龙金轮广",119.45,32.4,Jiangsu,Yangzhou
扬州宝龙金轮广场店,扬州市,"江苏省扬州市, 大虹桥路18号",119.42,32.36,Jiangsu,Yangzhou
扬州瘦西湖文化广场店,扬州市,"广陵区, 扬州瘦西湖文化广场, 邗江中路306号一层&二层",119.43,32.4,Jiangsu,Yangzhou
扬州乐宾百货店,扬州市,"邗江区, 扬州市邗江区乐宾百货, 汶河南路120号",119.4,32.37,Jiangsu,Yangzhou
扬州金鹰店,扬州市,"广陵区, 金鹰, 邗江中路358号",119.43,32.39,Jiangsu,Yangzhou
扬州三盛广场店,扬州市,"邗江区, 京华城路168号1楼1005铺位",119.4,32.38,Jiangsu,Yangzhou
扬州京华城店,扬州市,"开发区, 京华城, 引江路29号",119.38,32.38,Jiangsu,Yangzhou
扬州江都银象城店,扬州市,"江都区, 银象城",119.56,32.42,Jiangsu,Yangzhou
无锡京东广场店,无锡市,崇安区广南路1号,120.34,31.59,Jiangsu,Wuxi
无锡博大广场店,无锡市,"滨湖区博大假日广场1号1049号, 中山路343号A栋B1层北翼商铺7-9号",120.28,31.49,Jiangsu,Wuxi
无锡大东方店,无锡市,"崇安区, 大东方百货, 行创六路7号-2一层商铺",120.3,31.58,Jiangsu,Wuxi
无锡欧陆店,无锡市,"新区, 欧陆, 南长街201号",120.38,31.53,Jiangsu,Wuxi
无锡南长街店,无锡市,"南长区, 南长街, 宜兴八佰伴购物中心一楼F1021商铺",120.31,31.56,Jiangsu,Wuxi
无锡宜兴八佰伴店,无锡市,"解放东路228号, 金融1街1号",119.84,31.36,Jiangsu,Wuxi
无锡昌兴大厦店,无锡市,"江苏省无锡市滨湖区, 昌兴国际金融大厦一楼, 人民西路25号1楼1Y04商铺、2楼2Y04商铺",120.31,31.49,Jiangsu,Wuxi
无锡百脑汇店,无锡市,"南长区, 无锡百脑汇, 立信大道168号",120.29,31.57,Jiangsu,Wuxi
无锡海岸城店,无锡市,"滨湖区, 海岸城购物中心115-116铺位, 团结中路3号",120.3,31.49,Jiangsu,Wuxi
无锡英特宜家购物中心店,无锡市,"锡山经济开发区, 隐秀路800号",120.39,31.58,Jiangsu,Wuxi
无锡城开国际中心店,无锡市,"滨湖区, 中山路328号一楼",120.26,31.54,Jiangsu,Wuxi
无锡T12店,无锡市,"崇安区, T12时尚购物中心, 苏南硕放机场T2航站楼出发层",120.3,31.58,Jiangsu,Wuxi
无锡硕放机场T2出发店,无锡市,"新区, 湖滨街15号-11",120.43,31.5,Jiangsu,Wuxi
无锡湖滨商业街店,无锡市,"滨湖区, 靠近蠡太路, 盛岸西路331号百乐广场一层",120.28,31.53,Jiangsu,Wuxi
无锡百乐广场店,无锡市,"惠山区, 百乐广场, 江阴华地百货大统华超市1F",120.24,31.61,Jiangsu,Wuxi
无锡江阴大统华店,无锡市,"江阴市人民中路18号, 清扬路128号L1-30单元",120.28,31.9,Jiangsu,Wuxi
无锡茂业购物中心店,无锡市,"南长区, 茂业购物中心, 金石路88号万象城",120.31,31.55,Jiangsu,Wuxi
无锡万象城店,无锡市,"滨湖区, 万象城, 梁溪路35号",120.28,31.51,Jiangsu,Wuxi
无锡万达店,无锡市,"滨湖区, 万达广场, 江阴市人民中路85号江阴华联商厦一楼东北侧",120.27,31.56,Jiangsu,Wuxi
无锡江阴华联店,无锡市,"江苏省无锡市, 人民中路127号无锡三阳百盛B2F",120.27,31.91,Jiangsu,Wuxi
无锡三阳百盛店,无锡市,"崇安区, 无锡三阳百盛, 北塘区中山路618号",120.3,31.58,Jiangsu,Wuxi
无锡茂业亿百店,无锡市,"江苏省无锡市, 无锡茂业亿百购物中心一楼109商铺, 中山路188号",120.3,31.58,Jiangsu,Wuxi
无锡东方商厦店,无锡市,"崇安区, 东方商厦一楼, 红星路 229-7号",120.3,31.57,Jiangsu,Wuxi
无锡阳光广场店,无锡市,"南长区, 阳光广场, 锡勤路18-28号B1-107",120.29,31.55,Jiangsu,Wuxi
无锡百联奥特莱斯店,无锡市,"无锡新区, 百联奥特莱斯, 中山路222号无锡锦江大酒店一楼二楼",120.46,31.52,Jiangsu,Wuxi
无锡锦江店,无锡市,"崇安区, 无锡锦江大酒店, 湖滨路11号运河外滩贰号一层",120.3,31.57,Jiangsu,Wuxi
无锡万科运河外滩店,无锡市,"滨湖区, 宜兴市阳泉中路588号",120.28,31.55,Jiangsu,Wuxi
无锡宜兴城北大统华店,无锡市,"江苏省无锡市, 城北大统华购物中心1楼1001商铺, 宜兴市太滆西路17号新苏南商厦1楼",119.82,31.38,Jiangsu,Wuxi
无锡宜兴新苏南商厦店,无锡市,"江苏省无锡市, 人民中路139号",119.82,31.37,Jiangsu,Wuxi
无锡恒隆广场店,无锡市,"崇安区, 恒隆广场地下一层, 解放东路1000号",120.3,31.57,Jiangsu,Wuxi
无锡保利店,无锡市,"崇安区, 保利广场1F, 震泽路18号",120.31,31.58,Jiangsu,Wuxi
无锡震泽路店,无锡市,"无锡新区, 无锡软件园双子座B座一楼, 车站路1号",120.37,31.49,Jiangsu,Wuxi
无锡高铁站店,无锡市,"崇安区, 无锡正大乐城1层 01a 铺位",120.31,31.59,Jiangsu,Wuxi
无锡正大乐城店,无锡市,"惠山区华惠路绿地世纪城600号, 无锡正大乐城1层 01a 铺位, 旺庄路188号",120.32,31.66,Jiangsu,Wuxi
无锡新区百盛店,无锡市,"新区, 宝龙城市广场新区百盛一层, 广瑞路399号华润万家购物中心一层",120.35,31.54,Jiangsu,Wuxi
无锡华润欢乐颂店,无锡市,"崇安区, 万顺路51号华润万家超市1楼",120.31,31.59,Jiangsu,Wuxi
无锡华润太湖店,无锡市,"滨湖区, 无锡华润万家超市, 吴韵路321号",120.28,31.5,Jiangsu,Wuxi
无锡惠山万达店,无锡市,"惠山区, 万达广场, 长江路16号一层8102室",120.3,31.68,Jiangsu,Wuxi
无锡软件园店,无锡市,"新区, 无锡软件园, 人民中路111号苏宁广场113-114",120.36,31.54,Jiangsu,Wuxi
无锡苏宁广场店,无锡市,"崇安区, 苏宁广场, 周市镇春晖路望族商城9号楼1F023单元",120.3,31.58,Jiangsu,Wuxi
苏州昆山春晖路店,昆山市,"江苏省苏州昆山市, 黑龙江北路88号B1座",120.98,31.4,,
昆山中央公园店,昆山市,"昆山, 中央公园, 柏庐南路999号商业街商铺1号",120.98,31.38,,
吉田国际店,昆山市,"开发区, 吉田国际, 前进东路223号",120.96,31.35,,
昆山世茂广场店,昆山市,"开发区, 前进西路",121.06,31.38,,
昆山百盛店,昆山市,"玉山镇, 世贸广场昆山时尚百盛L1-25铺位, 花安路183号",120.95,31.38,,
昆山花桥商务城店,昆山市,"花桥镇, 1层2#1~2#4铺位, 人民南路1188号123、125、126单元",121.15,31.29,,
苏州昆山昆城广场店,昆山市,"江苏省昆山市, 前进西路1850号",120.95,31.36,,
昆山文化艺术中心店,昆山市,"昆山, 文化艺术中心1号景观建筑, 昆山三角塔",120.91,31.38,,
昆山三角塔店,昆山市,"人民南路96-2号, 昆山金鹰国际购物中心",120.96,31.37,,
昆山金鹰店,昆山市,"珠江中路199号, 一层1-01铺位, 玉燕楼",120.97,31.38,,
周庄双桥店,昆山市,"周庄镇北市街34号, 周庄镇, 震川西路18号，21、23单元",120.85,31.11,,
苏州昆山巴黎春天店,昆山市,"江苏省昆山市, 萧林东路5018号中楠都汇广场2号楼",120.96,31.38,,
苏州昆山中楠都汇广场店,昆山市,"江苏省昆山市, 1层7、17、57号铺位, 人民路99号",120.98,31.4,,
昆山人民路店,昆山市,"昆山, 昆山宾馆二号楼1F, 伟业路18号A座109-111单元",120.96,31.38,,
昆山现代广场店,昆山市,"开发区, 昆山现代广场, 秦淮区健康路2号南京茂业天地广场一层N108铺位",120.97,31.35,,
南京茂业天地广场店,江苏省,"江苏省南京市, 工业园区旺墩路268号1A-M09室",118.79,32.02,,
苏州久光百货店,江苏省,"江苏省苏州市, 人民西路281号",120.71,31.32,,
江阴万达店,江阴市,"惠山区, 万达广场1层129号铺位, 澄江中路87，89号",120.25,31.9,,
江阴新一城店,江阴市,"澄江区, 新一城1层01-08*09单元",120.3,31.92,,
江阴青果路店,江阴市,"青果路14号, 海陵区人民南路",120.27,31.9,,
泰州柳园文商街区店,泰州市,"江苏省泰州市, 打渔湾1幢C区6号楼, 东进东路18号",119.92,32.48,Jiangsu,Taizhou
泰州金鹰店,泰州市,"海陵区, 泰州金鹰一层A8铺位, 济川东路232号",119.92,32.5,Jiangsu,Taizhou
泰州万达广场店,泰州市,"海陵区, 万达广场室内商业街1060A号铺位, 药城大道1号",119.92,32.47,Jiangsu,Taizhou
泰州中国医药城店,泰州市,"医药高新区, 东方小镇欧洲街B-1组团的a-8~b-4单元, 海陵北路299号",119.9,32.39,Jiangsu,Taizhou
泰州一百店,泰州市,"海陵区, 泰州一百1层103单元, 茂业百货1层",119.92,32.49,Jiangsu,Taizhou
泰州茂业百货店,泰州市,"海陵区南通路386号, 泰州兴化东方商厦",119.93,32.5,Jiangsu,Taizhou
泰州兴化东方商厦店,泰州市,"兴化英武中路109号东方商厦1层, 解放中路369号B6单元",119.84,32.93,Jiangsu,Taizhou
海门大东方百货店,海门市,"海门镇, 大东方百货, 苏宁广场107、108商铺",121.18,31.9,,
淮安盱眙苏宁广场店,淮安市,"盱城镇金源北路12号, 盱眙苏宁广场, 淮海东路130号",118.52,33.0,Jiangsu,Huaian
淮安金鹰店,淮安市,"清河区, 金鹰国际, 翔宇中路169号1-07 ~ 1-08号铺位",119.03,33.6,Jiangsu,Huaian
淮安万达店,淮安市,"清河区, 万达广场, 溧阳高铁站LY-01",119.05,33.6,Jiangsu,Huaian
溧阳高铁站店,溧阳市,"罗庄路, 解放南路268号一层A1单元",119.5,31.39,,
盐城金鹰聚龙湖店,盐城市,"盐都区, 建军西路1号",120.16,33.34,Jiangsu,Yancheng
盐城新世界百货店,盐城市,"亭湖区, 新世界百货1层31号铺位, 解放南路278号中南城1020、2015单元",120.12,33.38,Jiangsu,Yancheng
盐城中南城店,盐城市,"盐都区, 宝龙广场1层",120.18,33.32,Jiangsu,Yancheng
盐城宝龙广场店,盐城市,"亭湖区人民路9号, 东台德润购物广场",120.15,33.36,Jiangsu,Yancheng
盐城东台德润广场店,盐城市,"海陵北路9号108商铺, 迎宾南路28号",120.32,32.86,Jiangsu,Yancheng
盐城五洲国际店,盐城市,"亭湖区, 五洲国际, 218号4幢101A单元",120.14,33.38,Jiangsu,Yancheng
苏州鲜橙广场,苏州市,"苏州市工业园区星湖街, 105、106单元",120.73,31.26,Jiangsu,Suzhou
苏州望湖大厦店,苏州市,"工业园区嘉瑞巷18号, 石路18号 1F 1001单元",120.72,31.32,Jiangsu,Suzhou
苏州石路店,苏州市,"金阊区, 国际商城批发中心",120.6,31.31,Jiangsu,Suzhou
苏州曼哈顿广场店,苏州市,"工业园区唯华路5号-5号楼101室, 长江路9号第一层6单元",120.69,31.36,Jiangsu,Suzhou
苏州长江壹号店,苏州市,"吴中区, 常熟星光天地购物中心",120.55,31.26,Jiangsu,Suzhou
苏州常熟星光天地店,苏州市,"闽江东路9号星光天地购物中心1楼06单元, 宝带西路1177号6号楼第一层6-1-1 号商铺",120.77,31.67,Jiangsu,Suzhou
苏州世茂广场店,苏州市,"姑苏区, 苏州世茂生活广场, 姑苏区南环东路758号",120.6,31.26,Jiangsu,Suzhou
苏州汇邻广场店,苏州市,"江苏省苏州市, 4A-F107-3、4A-F107-1室, 工业园区东沙湖路100号",120.64,31.28,Jiangsu,Suzhou
苏州东沙湖邻里中心店,苏州市,"江苏省苏州市, 1幢135室、1幢136室、1幢157室, 中山南路1088号一楼",120.76,31.33,Jiangsu,Suzhou
吴江万宝广场店,苏州市,"吴江区, 万宝财富商业广场, 工业园区苏州大道东265号101、102、103单元",120.64,31.12,Jiangsu,Suzhou
苏州现代传媒广场店,苏州市,"江苏省苏州市, 张家港吾悦广场",120.73,31.32,Jiangsu,Suzhou
苏州张家港吾悦广场店,苏州市,"金港大道338号吾悦广场一楼123室, 李公堤路一期1区B2号",120.54,31.84,Jiangsu,Suzhou
苏州李公堤店,苏州市,"工业园区, 中新大道西229号",120.69,31.3,Jiangsu,Suzhou
苏州万科美好店,苏州市,"苏州市工业园区, 工业园区企鸿路18号1-123单元",120.65,31.31,Jiangsu,Suzhou
苏州双湖邻里店,苏州市,"江苏省苏州市, 翠园路时代广场N6区",120.67,31.28,Jiangsu,Suzhou
苏州时代广场店,苏州市,"工业园区, D栋1楼104, 工业园区雪堂街8号110室一楼",120.71,31.32,Jiangsu,Suzhou
苏州文萃广场店,苏州市,"江苏省苏州市, 东吴北路111号",120.75,31.27,Jiangsu,Suzhou
苏州朗庭乐享汇店,苏州市,"吴中区, 吴江区汾湖镇城司路街",120.63,31.27,Jiangsu,Suzhou
苏州汾湖嘉乐城店,苏州市,"江苏省苏州市, 809号一层的101单元, 姑苏区阊胥路345号101室",120.85,31.03,Jiangsu,Suzhou
苏州茉莉花假日店,苏州市,"江苏省苏州市, 苏华路8号",120.6,31.31,Jiangsu,Suzhou
苏州高峰会店,苏州市,"工业园区, 中银惠龙大厦101-A, 姑苏区十全街625号107室",120.67,31.32,Jiangsu,Suzhou
苏州十全街店,苏州市,"江苏省苏州市, 平江路20号",120.63,31.3,Jiangsu,Suzhou
苏州平江路店,苏州市,姑苏区,120.63,31.31,Jiangsu,Suzhou
苏州观前街1号店,苏州市,"观前街1-53号, 河西路8-10号",120.63,31.31,Jiangsu,Suzhou
张家港谷渎港店,苏州市,"张家港杨舍镇, 谷渎港, 越溪苏震桃路188号",120.55,31.86,Jiangsu,Suzhou
苏州永旺梦乐城吴中店,苏州市,"吴中区, 永旺梦乐城, 中新大道西88号1幢102室",120.61,31.19,Jiangsu,Suzhou
苏州苏信店,苏州市,"江苏省苏州市, 1001号铺位",120.67,31.31,Jiangsu,Suzhou
苏州吴中万达广场店,苏州市,吴中区石湖西路188号,120.61,31.25,Jiangsu,Suzhou
苏州慕斯广场店,苏州市,"姑苏区阊胥路388号#101铺位, 人民路3188号1层18幢商铺92铺位号",120.61,31.3,Jiangsu,Suzhou
苏州平江万达广场店,苏州市,"姑苏区, 苏州平江万达广场, 现代大道1699号",120.62,31.34,Jiangsu,Suzhou
苏州西蒙店,苏州市,"工业园区, 苏州印象城购物中心1025B号商铺, 盛泽镇西二环路1999号",120.66,31.32,Jiangsu,Suzhou
苏州吴江盛泽购物公园店,苏州市,"吴江区, 盛泽镇购物公园, 西华林街88号",120.62,30.9,Jiangsu,Suzhou
苏州邻瑞广场店,苏州市,"工业园区, 邻瑞广场, 人民路1331号",120.72,31.3,Jiangsu,Suzhou
苏州大洋店,苏州市,"姑苏区, 大洋百货, 吴中区甪直镇鸣市路18号万嘉生活广场1层132单元",120.62,31.31,Jiangsu,Suzhou
苏州甪直万嘉生活广场店,苏州市,"江苏省苏州市, 1-30单元",120.87,31.27,Jiangsu,Suzhou
苏州长发商厦店,苏州市,"姑苏区临顿路101-141号, 开平路与秋枫路交界处",120.63,31.31,Jiangsu,Suzhou
苏州吴江吾悦广场店,苏州市,"吴江区, 吴江吾悦广场, 金山南路3号101室",120.63,31.14,Jiangsu,Suzhou
苏州永真店,苏州市,"吴中区, 苏州永真商场, 旺墩路188号",120.52,31.26,Jiangsu,Suzhou
苏州建屋店,苏州市,"工业园区, 建屋大厦1楼大堂, 高新区玉山路40号玉山广场1层的101单元、102单元",120.72,31.32,Jiangsu,Suzhou
苏州玉山广场店,苏州市,"江苏省苏州市, 星港街158号",120.56,31.29,Jiangsu,Suzhou
苏州金鸡湖店,苏州市,"工业园区, 湖滨新天地103-1商铺, 相城区齐门北大街228号",120.68,31.32,Jiangsu,Suzhou
苏州相城欧尚店,苏州市,"江苏省苏州市, 苏州相城欧尚1F1001单元, 广济南路18号一层",120.62,31.35,Jiangsu,Suzhou
苏州艾美广场店,苏州市,"姑苏区, 艾美广场, 高新区太湖大道999号",120.6,31.3,Jiangsu,Suzhou
苏州高新文体中心店,苏州市,"江苏省苏州市, 九方城一楼1-025室",120.42,31.34,Jiangsu,Suzhou
苏州昆山九方城店,苏州市,"昆山市萧林中路666号, 工业园区旺墩路135号1层114、115单元",120.96,31.4,Jiangsu,Suzhou
苏州恒宇广场店,苏州市,"江苏省苏州市, 苏雅路388号B1014室",120.73,31.32,Jiangsu,Suzhou
苏州天虹百货店,苏州市,"工业园区, 苏州天虹商场, 相城区黄埭镇方桥路28号",120.66,31.32,Jiangsu,Suzhou
苏州黄埭中翔生活广场店,苏州市,"江苏省苏州市, 苏州黄埭中翔生活广场1层方046、1103单元, 金山南路288号苏州国际影视娱乐城4#楼",120.56,31.42,Jiangsu,Suzhou
苏州国际影视娱乐城店,苏州市,"吴中区, 苏州国际影视娱乐城, L110b单元",120.52,31.28,Jiangsu,Suzhou
苏州诚品店,苏州市,"工业园区月廊街8号, 东长路88号",120.71,31.32,Jiangsu,Suzhou
苏州产业园店,苏州市,"工业园区, 旺墩路269号",120.78,31.31,Jiangsu,Suzhou
苏州圆融星座店,苏州市,"工业园区, 圆融星座广场, 钟南街238号",120.72,31.32,Jiangsu,Suzhou
苏州永旺园区店,苏州市,"工业园区, 唯亭阳澄环路969号",120.76,31.32,Jiangsu,Suzhou
苏州village店,苏州市,"工业园区, 奕欧来苏州精品购物村M4单元, 姑苏区苏站路27号",120.76,31.38,Jiangsu,Suzhou
苏州火车站到达层店,苏州市,"江苏省苏州市, 狮山路100号A区GF01室",120.61,31.33,Jiangsu,Suzhou
苏州锦华苑店,苏州市,"高新区, 锦华苑商业中心, 金鸡湖路205号",120.56,31.3,Jiangsu,Suzhou
苏州欧尚店,苏州市,"吴中区, 欧尚, 邵磨针巷18号",120.66,31.31,Jiangsu,Suzhou
苏州邵磨针巷店,苏州市,"姑苏区, 相城区南天成路111号",120.62,31.31,Jiangsu,Suzhou
苏州南天成路店,苏州市,"江苏省苏州市, 圆融新生活广场1层的1240单元, 吴北路98号154-1铺位",120.64,31.42,Jiangsu,Suzhou
苏州吴中新苏店,苏州市,"吴中区东, 月亮湾路10号115-1单元",120.63,31.27,Jiangsu,Suzhou
苏州慧湖大厦店,苏州市,"工业园区, 苏州慧湖大厦, 松涛街1088号20楼第一层",120.72,31.26,Jiangsu,Suzhou
苏州斜塘老街店,苏州市,"工业园区, 1-1单元, 工业园区九华路65号第1层118单元",120.74,31.3,Jiangsu,Suzhou
苏州景城邻里中心店,苏州市,江苏省苏州市,120.72,31.33,Jiangsu,Suzhou
苏州永旺梦乐城新区店,苏州市,"苏州高新区城际路19号1层186B#, 观枫街1号",120.53,31.37,Jiangsu,Suzhou
苏州科文中心店,苏州市,"工业园区, 苏州科技文化艺术中心103商铺, 第一、二层 F1-29 、F2-26单元",120.7,31.32,Jiangsu,Suzhou
苏州大运城店,苏州市,"吴中区中山东路88号, 苏华路158号",120.53,31.26,Jiangsu,Suzhou
苏州凤凰广场店,苏州市,"工业园区, 道前街26号",120.67,31.32,Jiangsu,Suzhou
苏州市立医院店,苏州市,"姑苏区, 苏州市立医院本部, 三香路333号一楼",120.62,31.3,Jiangsu,Suzhou
苏州胥城大厦店,苏州市,"姑苏区, 胥城大厦, 人民路1322-1326号",120.6,31.3,Jiangsu,Suzhou
苏州人民路店,苏州市,"平江区, 近美罗商城, 星海街199号",120.62,31.31,Jiangsu,Suzhou
苏州星海店,苏州市,"苏州市工业园区, B1层B106-B108, 太仓市城厢镇上海东路77号2幢101室",120.67,31.32,Jiangsu,Suzhou
苏州太仓五洋广场店,苏州市,"江苏省苏州市, 东南平台东面",121.13,31.45,Jiangsu,Suzhou
苏州站出发层店,苏州市,"铁路苏州站南站房二楼候车厅, 后戴街9号",120.61,31.33,Jiangsu,Suzhou
苏州时尚舞台店,苏州市,"工业园区, 时尚舞台商城A区1112B, 津梁街172号",120.82,31.34,Jiangsu,Suzhou
苏州欢乐颂店,苏州市,"工业园区, 苏州欢乐颂, 步行街89号1F",120.74,31.31,Jiangsu,Suzhou
苏州张家港凯丽百货店,苏州市,"张家港市沙洲中路, 人民路4555号苏州繁花中心一层1001-4单元",120.54,31.86,Jiangsu,Suzhou
苏州繁花中心店,苏州市,"相城区, 长江路556号",120.61,31.36,Jiangsu,Suzhou
苏州港龙城市广场店,苏州市,"高新区, 长江路436号",120.55,31.31,Jiangsu,Suzhou
苏州绿宝广场店,苏州市,"高新区, 绿宝广场1F, 高新区竹园路209号",120.55,31.3,Jiangsu,Suzhou
苏州竹园路店,苏州市,"江苏省苏州市, 苏州创业园1号楼一层C单元, 101室、102-1室",120.54,31.28,Jiangsu,Suzhou
苏州星湖街店,苏州市,"工业园区星湖街1205号, 长江路211号1F 1I-01 单元",120.72,31.29,Jiangsu,Suzhou
苏州泉屋店,苏州市,"虎丘区, 泉屋, 宝带东路399号",120.55,31.28,Jiangsu,Suzhou
苏州中润店,苏州市,"吴中区, 丽丰广场1F, 高新区塔园路201号苏州名门易生活广场",120.63,31.27,Jiangsu,Suzhou
苏州狮山名门店,苏州市,"江苏省苏州市, 1层1063、1064、1067、1068单元, 吴中区金山南路288号",120.55,31.3,Jiangsu,Suzhou
苏州金逸影视中心店,苏州市,"江苏省苏州市, 苏州金逸影视中心1层104-105商铺, 山塘街北浩弄5号",120.52,31.28,Jiangsu,Suzhou
苏州山塘街店,苏州市,"金阊区, 山塘街, 嘉元路1060号的第一层的A003、A004、嘉09、嘉10单元",120.6,31.32,Jiangsu,Suzhou
苏州中翔时尚广场店,苏州市,"相城区, 狮山路58号105室",120.62,31.37,Jiangsu,Suzhou
苏州汇豪店,苏州市,"高新区, 汇豪国际, 高新区金山东路78号",120.57,31.29,Jiangsu,Suzhou
苏州狮山石路国际店,苏州市,"江苏省苏州市, 狮山石路国际生活广场1层EF109-1单元, 科发路101号",120.55,31.3,Jiangsu,Suzhou
苏州致远大厦店,苏州市,"高新区, 致远大厦, 通灌北路58号苏宁广场一层",120.42,31.34,Jiangsu,Suzhou
连云港苏宁广场店,连云港,"新浦区, 中山西路111号嘉瑞宝广场一层",119.19,34.6,,
连云港嘉瑞宝广场店,连云港市,"连云区, 嘉瑞宝广场, 民主中路85号",119.37,34.74,Jiangsu,Lianyungang
连云港民主路店,连云港市,"新浦区, 凌州东路7号 万达广场1069商铺",119.18,34.6,Jiangsu,Lianyungang
连云港万达广场店,连云港市,"连云港市海州区, 靠近城河路",119.22,34.62,Jiangsu,Lianyungang
丹阳华地百货店,镇江市,"新民中路2号, 京口区东吴路29号",119.57,31.99,Jiangsu,Zhenjiang
镇江北固湾店,镇江市,"江苏省镇江市, 京口区中山东路301号604铺位",119.47,32.22,Jiangsu,Zhenjiang
镇江苏宁广场6F店,镇江市,"江苏省镇江市, 黄山西路19号",119.45,32.2,Jiangsu,Zhenjiang
镇江万达店,镇江市,"润州区, 万达广场, 谷阳中大道75号L1-001单元",119.44,32.2,Jiangsu,Zhenjiang
镇江宝龙广场店,镇江市,"丹徒区, 镇江宝龙广场, 桑园路1号660铺位",119.45,32.13,Jiangsu,Zhenjiang
南京东郊奥特莱斯店,镇江市,"句容市郭庄镇空港新区, 中山东路254号",119.01,31.81,Jiangsu,Zhenjiang
镇江商业城店,镇江市,"京口区, 镇江商业购物广场, 金陵西路88号1F-011铺位",119.45,32.21,Jiangsu,Zhenjiang
镇江丹阳吾悦广场店,镇江市,"丹阳市开发区, 新民东路99号10#-102铺位",119.61,32.0,Jiangsu,Zhenjiang
丹阳金鹰天地店,镇江市,"丹阳市, 金鹰天地广场",119.58,31.99,Jiangsu,Zhenjiang
泰州靖江泰和国际城店,靖江市,车站路77号泰和国际城C1-01铺位,120.26,32.01,,
泰州靖江文峰大世界店,靖江市,"人民北路1号文峰大世界1层1-2单元, 通湖路333号",120.27,32.02,,
扬州高邮世贸广场店,高邮市,"江苏省扬州高邮市, 世贸广场一层A005/A006/A1015铺位",119.46,32.79,,
Hangzhou Kerry Central NO.1 Store,Hangzhou,"intersection Yanan Road and Qingchun Roa, xiacheng",120.16,30.26,,
Hangzhou Dahua Xixifengqing-1F2F,Hangzhou,"West Wenyi Rd&Yongfu Rd, Yu Hang District",120.04,30.28,,
Hangzhou Tianyang D32 - GF,hangzhou,"xiao he road, gong shu",120.14,30.31,,
Hangzhou Lanzuantiancheng - GF,hangzhou,"pin shui road, gongshu",120.12,30.31,,
Ningbo Bali Sunday - GF,hangzhou,"NO.555 qian hu south road, yin zhou",121.57,29.83,,
JX Jiashan Pacific Square Store-GF,Jiaxing,"Jiashan Century Avenue Rd intersection, Jiashan",120.93,30.82,,
JX TX Dongxing Living Mall Store-GF,Jiaxing,"North Qingfeng Road North Huancheng Road, Tongxiang",120.55,30.65,,
Jinhua  Center hospital - GF,jin hua,"NO.351 Mingyue street, wu cheng",119.66,29.11,,
Jinhua Wuyi Hushan Plaza-GF,Jinhua,"Yu Yuan Street&Venus Lane, Wuyi",119.81,28.89,,
NB Ninghai Taiyue City-GF,Ningbo,"Middle Xingning road and outer ring road, Ninghai County",121.43,29.3,,
NB Yuyao Eton Store-GF,Ningbo,"South Xin Ximen Rd&West Siming Rd, Yu Yao",121.15,30.03,,
NB Xiangshan Pacific Square-GF,Ningbo,"Eagle Road Danfeng Road, Xiangshan County",121.9,29.48,,
WZ World Trade Fashion Center- GF,Wenzhou,"Da Nan RD&East Maanchi Rd, Lucheng District",120.66,28.01,,
ZS Dinghai Kaihong Plaza-1F2F,Zhoushan,"Chang Zhou Avenue Dongying Road, Dinghai District",122.12,30.02,,
上虞老大通店,上虞市,"人民中路193号, 市民大道689号1F32",120.88,30.02,,
上虞大通购物中心店,上虞市,"上虞区, 大通购物中心",120.87,30.03,,
东阳一百店,东阳市,人民路106号,120.24,29.27,,
丽水金汇广场店,丽水市,"莲都区解放街198号一层1号101室, 花园路36号，万地广场一楼",119.92,28.45,Zhejiang,Lishui
丽水万地广场店,丽水市,"莲都区, 万地广场",119.92,28.46,Zhejiang,Lishui
临海耀达百货店,临海市,"靖江中路122号, 临海银泰城",121.14,28.85,,
临海银泰城店,临海市,"东方大道1号, 工人北路2号",121.14,28.86,,
义乌颐和店,义乌市,"义乌, 颐和大酒店一楼, 工人西路15号",120.08,29.31,,
义乌银泰伊美店,义乌市,"婺城区, 泰百货义乌伊美店一楼, 乐清南虹广场",120.07,29.31,,
乐清南虹广场店,乐清市,伯乐东路666号,120.98,28.11,,
余姚五彩城店,余姚市,"城东路888号1F-117, 嘉泰新时代购物中心",121.18,30.07,,
金华兰溪嘉泰店,兰溪市,"丹溪大道157号, 市府大道289号",119.45,29.21,,
台州耀达百货店,台州市,"椒江区, 台州市耀达商城, 天和路88号",121.43,28.65,Zhejiang,Taizhou
台州意得店,台州市,"椒江区, 椒江区解放南路251,255号",121.41,28.65,Zhejiang,Taizhou
台州椒江锦江百货店,台州市,"浙江省台州市, 黄岩书城A-001商铺",121.44,28.67,Zhejiang,Taizhou
台州黄岩书城店,台州市,"黄岩区西城街道引泉路188号, 椒江区开发大道799号一层1001铺位",121.26,28.63,Zhejiang,Taizhou
台州经开万达店,台州市,"浙江省台州市, 天台太平洋购物中心",121.42,28.64,Zhejiang,Taizhou
台州天台太平洋店,台州市,"天台县赤城路399号, 东森购物中心B101单元及B206单元",121.03,29.14,Zhejiang,Taizhou
台州东森店,台州市,"东森购物中心, 椒江区中心大道3899号",121.37,28.59,Zhejiang,Taizhou
台州椒江银泰城店,台州市,"浙江省台州市, 银泰城1楼141单元, 腾达路699号",121.4,28.62,Zhejiang,Taizhou
台州世贸中心店,台州市,"路桥区, 银座街508号中盛百货A座一层1A01号商铺",121.37,28.59,Zhejiang,Taizhou
台州中盛城市广场店,台州市,"台州市路桥区, 路桥区, 临海市大洋街道桥东村(台州服务区东区101号）",121.38,28.58,Zhejiang,Taizhou
台州服务区东区店,台州市,"浙江省台州市, 海宁市海宁大道302号一层101单元",121.23,28.88,Zhejiang,Taizhou
嘉兴海宁皮都锦江大酒店店,嘉兴,"浙江省嘉兴, 秀洲区中山西路1911号147室",120.67,30.5,,
嘉兴中关村店,嘉兴市,"浙江省嘉兴市, 嘉善县谈公北路18号一层一单元",120.69,30.76,Zhejiang,Jiaxing
嘉兴嘉善东方大厦店,嘉兴市,"浙江省嘉兴市, 洪兴西路1732号",120.93,30.84,Zhejiang,Jiaxing
嘉兴江南摩尔店,嘉兴市,"秀洲区, 江南摩尔, 王店镇建农村（沪杭高速嘉兴服务区北区）",120.71,30.76,Zhejiang,Jiaxing
G60高速嘉兴服务区北区店,嘉兴市,"秀洲区, 广益路1108号",120.67,30.62,Zhejiang,Jiaxing
嘉兴万达广场店,嘉兴市,"南湖区, 嘉兴万达广场, 新桥北路231号",120.8,30.74,Zhejiang,Jiaxing
嘉兴海盐嘉凯城店,嘉兴市,"浙江省嘉兴市海盐县, 一层1067号商铺, 公园路22号",120.95,30.54,Zhejiang,Jiaxing
桐乡新卉店,嘉兴市,"桐乡市, 中山东路666号S1F-23、24",120.55,30.63,Zhejiang,Jiaxing
嘉兴旭辉广场店,嘉兴市,"南湖区, 嘉兴旭辉广场",120.75,30.76,Zhejiang,Jiaxing
海宁银泰城店,嘉兴市,"海昌南路365号, 西塘镇璞悦园",120.69,30.5,Zhejiang,Jiaxing
嘉善西塘水街店,嘉兴市,"西塘镇环镇北路55号璞悦园12幢A16号商铺, 王店镇建农村（沪杭高速嘉兴服务区南区）",120.89,30.95,Zhejiang,Jiaxing
G60高速嘉兴服务区南区店,嘉兴市,"秀洲区, 嘉善区西塘镇南苑路",120.68,30.62,Zhejiang,Jiaxing
嘉兴嘉善西塘南门店,嘉兴市,"浙江省嘉兴市, 258号6幢101室, 南湖区越秀南路968号一层L1010商铺",120.89,30.94,Zhejiang,Jiaxing
嘉兴八佰伴店,嘉兴市,"浙江省嘉兴市, 海宁正翔商业广场1层1021商铺",120.73,30.76,Zhejiang,Jiaxing
嘉兴海宁正翔店,嘉兴市,"联合路97号, 海宁正翔商业广场",120.68,30.52,Zhejiang,Jiaxing
嘉善恒利广场店,嘉善市,"嘉善县中山西路118号, 太平洋百货广场",120.92,30.84,,
奉化太平洋百货店,奉化市,"南山路174号S1F-9商铺, 南山路150号",121.41,29.67,,
奉化银泰店,奉化市,"上城区, 银泰百货, 宁波书城文化广场1幢1、2、 3、 4号1-1-3",121.41,29.66,,
宁波书城店,宁波市,"江东区, 钱湖北路399号",121.57,29.88,Zhejiang,Ningbo
宁波钱湖天地店,宁波市,"鄞州区, 钱湖天地一楼, 中兴路268号一层1-84#室",121.57,29.83,Zhejiang,Ningbo
宁波江东天伦店,宁波市,"江东区, 宁波天伦时代广场, 海曙区开明街324号",121.59,29.87,Zhejiang,Ningbo
宁波天一开明街店,宁波市,"浙江省宁波市, Ib106、Ib204、205室, 泰安中路466号S104",121.55,29.87,Zhejiang,Ningbo
宁波汇港大厦店,宁波市,"鄞州区, 汇港大厦, 鄞县大道东段1288号南苑环球酒店大堂西入口南侧商铺",121.55,29.8,Zhejiang,Ningbo
宁波南苑环球酒店店,宁波市,"鄞州区, 宁波南苑环球酒店, 中山东路188号",121.55,29.82,Zhejiang,Ningbo
宁波天一广场店,宁波市,"海曙区, 天一广场VB区, 四明中路999号",121.56,29.87,Zhejiang,Ningbo
宁波银泰万达店,宁波市,"鄞州区, 万达广场银泰百货1F, 扬帆路999弄48号",121.55,29.83,Zhejiang,Ningbo
宁波研发园店,宁波市,"高新区, 宁波研发园B区7号楼1楼, 和义路100号F101室",121.64,29.89,Zhejiang,Ningbo
宁波和义1844店,宁波市,"海曙区, 宁波和义1844, 天童南路1088号1F-115室",121.55,29.88,Zhejiang,Ningbo
宁波银泰环球城1店,宁波市,"鄞州区, 宁波银泰环球城, 大庆南路99号",121.55,29.8,Zhejiang,Ningbo
宁波来福士店,宁波市,"江北区, 来福士L102, 宁海县正学东路1号1层31号铺",121.56,29.88,Zhejiang,Ningbo
宁波宁海西子国际店,宁波市,"浙江省宁波市, 富邦街62号3单元",121.44,29.3,Zhejiang,Ningbo
宁波北仑富邦店,宁波市,"北仑区, 北仑富邦商业广场",121.84,29.9,Zhejiang,Ningbo
宁波亿彩购物中心店,宁波市,"海曙区日新街105号1F-17商铺, 中山东路1999号2号楼",121.56,29.87,Zhejiang,Ningbo
宁波文化广场店,宁波市,"江东区, 文化广场, 镇明路568号A栋1-1室",121.62,29.86,Zhejiang,Ningbo
宁波海曙镇明路店,宁波市,"海曙区, 宁波月湖星汇金座, 中山东路1083号1A-07室",121.55,29.87,Zhejiang,Ningbo
宁波江东银泰店,宁波市,"江东区, 世纪东方商业广场, 鄞州区泰康中路455号",121.44,29.3,Zhejiang,Ningbo
宁波旅游大厦店,宁波市,"浙江省宁波市, 江北大道188号1F",121.55,29.81,Zhejiang,Ningbo
宁波江北万达店,宁波市,"江北区, 宁波江北万达, 首南街道街",121.53,29.91,Zhejiang,Ningbo
宁波南部商务区2店,宁波市,"鄞州区, 天智巷75弄2号, 彩虹北路42号",121.55,29.81,Zhejiang,Ningbo
宁波波特曼店,宁波市,"江东区, 波特曼, 中河路399号",121.57,29.87,Zhejiang,Ningbo
宁波北仑银泰城店,宁波市,"北仑区, 中山东路137号",121.83,29.9,Zhejiang,Ningbo
宁波新世界汇美店,宁波市,"海曙区, 新世界",121.55,29.87,Zhejiang,Ningbo
宁波月湖金贸大厦店,宁波市,"海曙区柳汀街225号店1-09、2-05室, 钱湖北路288号",121.54,29.87,Zhejiang,Ningbo
宁波印象城店,宁波市,"鄞州区, 宁波印象城",121.57,29.83,Zhejiang,Ningbo
宁波学府一号店,宁波市,"鄞州区钱湖南路636号109室, 宁波月湖盛园",121.56,29.81,Zhejiang,Ningbo
宁波月湖盛园店,宁波市,"盛园巷17号, 1F/2F, 江南路1106号",121.55,29.86,Zhejiang,Ningbo
宁波皇冠大厦店,宁波市,"高新区, 皇冠大厦一楼, 中山东路285号",121.62,29.89,Zhejiang,Ningbo
宁波金光百货店,宁波市,"江东区, 天童南路1088号4F-419室",121.56,29.87,Zhejiang,Ningbo
宁波银泰环球城2店,宁波市,"鄞州区, 宁波银泰环球城, 海曙区丽园南路1036号1-20A室",121.54,29.8,Zhejiang,Ningbo
宁波海曙恒一广场店,宁波市,"浙江省宁波市, 药行街152号1楼",121.51,29.85,Zhejiang,Ningbo
宁波天一2店,宁波市,"海曙区, 酷购商城, 中山中路1号",121.55,29.87,Zhejiang,Ningbo
宁海太平洋国购店,宁波市,"宁海县, 宁海太平洋国购, 长兴东路368号江北恒一广场1F 1-17",121.43,29.3,Zhejiang,Ningbo
宁波江北恒一广场店,宁波市,"浙江省宁波市江北区, 海曙区江厦街23号1A-5单元",121.5,29.93,Zhejiang,Ningbo
宁波东门银泰店,宁波市,"浙江省宁波市, 新碶长江路465-469号",121.56,29.87,Zhejiang,Ningbo
宁波北仑长江国际店,宁波市,"北仑区, 宁波北仑长江国际, 四明中路999号",121.85,29.91,Zhejiang,Ningbo
宁波鄞州万达店,宁波市,"鄞州区, 室内步行街一层1A-41-1号, 桑田路299号FF-02室",121.54,29.83,Zhejiang,Ningbo
宁波江东桑田路店,宁波市,"江东区, 华润万家生活超市, 府桥街37号",121.59,29.87,Zhejiang,Ningbo
宁波鼓楼店,宁波市,"海曙区, 鼓楼1F, 江北外马路123号",121.55,29.87,Zhejiang,Ningbo
宁波老外滩店,宁波市,"江北区, 宁波老外滩, 中官西路777号科创大厦101室",121.56,29.88,Zhejiang,Ningbo
宁波镇海大学科技园店,宁波市,"镇海区, 宁波国家大学科技园, 日丽中路南部商务区水街6号楼6102及6202单元",121.61,29.91,Zhejiang,Ningbo
宁波水街店,宁波市,"鄞州区, 水街, 中山东路1083号",121.55,29.81,Zhejiang,Ningbo
宁波世纪东方广场店,宁波市,"江东区, 世纪东方广场一楼F1016号商铺, 和义路76号1041A",121.59,29.86,Zhejiang,Ningbo
宁波和义大道店,宁波市,"海曙区, 和义大道",121.56,29.87,Zhejiang,Ningbo
宁波鄞州天旋巷店,宁波市,"鄞州区四明中路688号F1-07室, 健康路157号",121.55,29.83,Zhejiang,Ningbo
余姚舜大店,宁波市,"余姚市, 舜大, 江东区江东北路街",121.16,30.05,Zhejiang,Ningbo
宁波和丰创意广场店,宁波市,"浙江省宁波市, 425号004幢1-1单元",121.57,29.88,Zhejiang,Ningbo
宁波天一国购店,宁波市,"海曙区中山东路166号一楼020-1号位, 宁波象山国际风情街",121.55,29.87,Zhejiang,Ningbo
宁波象山风情街店,宁波市,"象山县丹河东路905-1号, 新星路111号",121.9,29.46,Zhejiang,Ningbo
宁波高鑫广场店,宁波市,"海曙区, 江东区徐戎路（临）39号4号楼101室",121.53,29.9,Zhejiang,Ningbo
宁波集盒店,宁波市,"浙江省宁波市, 四明西路855号",121.57,29.87,Zhejiang,Ningbo
余姚万达店,宁波市,"余姚市, 万达广场, 北岸财富中心120号",121.13,30.03,Zhejiang,Ningbo
宁波北岸财富中心店,宁波市,"江北区, 南塘河街260号",121.55,29.89,Zhejiang,Ningbo
宁波南塘老街店,宁波市,"海曙区, 泰康东路199号宁波诺丁汉大学5号教学楼118室",121.54,29.85,Zhejiang,Ningbo
宁波诺丁汉大学店,宁波市,"鄞州区, 宁波诺丁汉大学, 镇海区庄市大道1088号F120铺",121.56,29.8,Zhejiang,Ningbo
宁波镇海万科1902店,宁波市,"浙江省宁波市, 鄞州区钱湖南路1号浙江大学宁波理工学院",121.63,29.93,Zhejiang,Ningbo
浙大宁波理工学院店,宁波市,"浙江省宁波市, 图书馆1楼1室, 华润万家",121.58,29.81,Zhejiang,Ningbo
慈溪新城大道北路店,慈溪市,"新城大道北路269-325号1F-05A, 青少年宫南路99号",121.27,30.17,,
慈溪银泰店,慈溪市,"浒山街道, 银泰",121.25,30.17,,
慈溪绿城慈园店,慈溪市,浒山路256~262号,121.26,30.17,,
慈溪嘉丽环球中心店,慈溪市,"水门路3号, 慈溪滨湖天地购物中心",121.24,30.17,,
慈溪保利广场店,慈溪市,"三北西大街1151、1553号A1-20a, 五常大道1号",121.21,30.18,,
杭州西溪印象城店,杭州市,"余杭区, 杭州西溪印象城, 环城北路230号",120.05,30.25,Zhejiang,Hangzhou
杭州大厦C座店,杭州市,"下城区, 杭州大厦C座2F, 滨江区阡陌路459号聚光中心A座101室",120.16,30.27,Zhejiang,Hangzhou
杭州聚光科技店,杭州市,"浙江省杭州市, 台州路2号运河上街商业中心151铺位",120.22,30.21,Zhejiang,Hangzhou
杭州运河上街店,杭州市,"拱墅区, 北干街道市心中路618号",120.14,30.32,Zhejiang,Hangzhou
萧山宝盛宾馆店店,杭州市,"杭州市萧山区, 萧山区, 杭行路666号拱墅万达广场一层1001号铺位",120.27,30.18,Zhejiang,Hangzhou
杭州拱墅万达店,杭州市,"拱墅区, 拱墅万达广场, 城星路59号东杭大厦一层2号商铺",120.12,30.33,Zhejiang,Hangzhou
杭州东杭大厦店,杭州市,"江干区, 杭州东杭大厦, 飞云江路19号",120.21,30.24,Zhejiang,Hangzhou
杭州赞成太和广场店,杭州市,"上城区, 太和广场, 教工路26号",120.18,30.22,Zhejiang,Hangzhou
杭州EAC店,杭州市,"西湖区, 世贸丽晶城欧美中心2号楼G区107,108室, 杭大路15号1-2F",120.14,30.27,Zhejiang,Hangzhou
杭州嘉华店,杭州市,"西湖区, 杭州嘉华, 江南大道228号",120.14,30.27,Zhejiang,Hangzhou
杭州星光大道店,杭州市,"滨江区, 星光国际广场1-101＆1-201, 解放东路29号迪凯银座104室",120.21,30.21,Zhejiang,Hangzhou
杭州迪凯银座店,杭州市,"杭州市江干区, 灵隐路36-2号",120.21,30.24,Zhejiang,Hangzhou
杭州灵隐路店,杭州市,"西湖区, 灵隐路, 金沙大道560号龙湖金沙天街1F-054和2F-052A",120.11,30.24,Zhejiang,Hangzhou
杭州下沙龙湖店,杭州市,"经济技术开发区, 杭州下沙龙湖金沙天街, 西兴街道滨康路228号3幢A座101室-102室",120.33,30.31,Zhejiang,Hangzhou
杭州万福中心店,杭州市,"滨江区, 杭州万福中心, 市民中心H座地下一层3、4、5号商铺",120.21,30.18,Zhejiang,Hangzhou
杭州市民中心店,杭州市,"江干区, 上城区钱江路407号",120.21,30.25,Zhejiang,Hangzhou
杭州望江府店,杭州市,"浙江省杭州市, 藕花洲大街303号莱蒙商业广场1-1商铺",120.19,30.23,Zhejiang,Hangzhou
杭州临平莱蒙商业广场店,杭州市,"余杭区, 莱蒙商业广场, 江汉路1785号",120.3,30.42,Zhejiang,Hangzhou
杭州滨江网新店,杭州市,"滨江区, 网新.双城大厦4号楼1层4-101, 江干区新风路619号",120.2,30.21,Zhejiang,Hangzhou
杭州城东汇和城店,杭州市,"浙江省杭州市, 汇和城第一层1050号商铺和第二层2060号商铺, 三墩镇厚仁路339-341号",120.21,30.29,Zhejiang,Hangzhou
杭州303生活广场店,杭州市,"西湖区, 杭州303生活广场, 延安路292号工联大厦一至二层",120.08,30.33,Zhejiang,Hangzhou
杭州工联大厦店,杭州市,"上城区, 杭州工联大厦, 学院路77号黄龙国际中心H楼101室",120.16,30.25,Zhejiang,Hangzhou
杭州新芯智谷GHI店,杭州市,"西湖区, 杭州黄龙国际中心, 蕙兰雅路388号3幢129、130室",120.13,30.28,Zhejiang,Hangzhou
杭州丁兰广场店,杭州市,"江干区, 丁兰广场, 博卡路16号杭州博货国际购物广场",120.23,30.35,Zhejiang,Hangzhou
杭州博货国际购物广场店,杭州市,"余杭区, 博美商城16-1-106商铺, 上城区延安路278号第一层A108号商铺",120.29,30.34,Zhejiang,Hangzhou
杭州湖滨银泰C区店,杭州市,"浙江省杭州市, 解百新世纪第GF层",120.16,30.25,Zhejiang,Hangzhou
杭州解百新世纪店,杭州市,"上城区解放路249号, 及第1F层的002/101号商铺, 余杭塘路515号矩阵国际中心1号写字楼大堂内1-01部位",120.17,30.25,Zhejiang,Hangzhou
杭州矩阵国际店,杭州市,"拱墅区, 杭州矩阵国际, 万华广场1-016号铺位",120.11,30.29,Zhejiang,Hangzhou
杭州临安万华广场店,杭州市,"临安市钱王街855号, 上城区中山南路77号第1-18、1-20号铺位",119.71,30.22,Zhejiang,Hangzhou
杭州利星1157店,杭州市,浙江省杭州市,120.17,30.23,Zhejiang,Hangzhou
杭州萧山宝龙店,杭州市,"萧山区金鸡路1057、1059、1061号, 2号大街999号天和达城一至二层",120.25,30.2,Zhejiang,Hangzhou
杭州下沙和达城店,杭州市,"经济技术开发区, 下沙和达城, 4号大街505-1号",120.35,30.31,Zhejiang,Hangzhou
杭州下沙上品店,杭州市,"经济技术开发区, 上品商业, 桐庐县迎春南路666号",120.35,30.31,Zhejiang,Hangzhou
杭州桐庐利时广场店,杭州市,"浙江省杭州市, 桐庐利时广场1楼109室, 良渚街道古墩路1888号永旺梦乐城",119.69,29.8,Zhejiang,Hangzhou
杭州永旺梦乐城店,杭州市,"余杭区, 1F-171号商铺, 北山街82号",120.06,30.36,Zhejiang,Hangzhou
杭州曲院风荷店,杭州市,"西湖区, 曲院风荷竹素园商业网点, 富春路701号",120.13,30.25,Zhejiang,Hangzhou
杭州万象城店,杭州市,"江干区, 杭州万象城B1层B151号商铺, 朝晖路205号深蓝广场108商铺",120.22,30.25,Zhejiang,Hangzhou
杭州深蓝广场店,杭州市,"下城区, 杭州深蓝广场, 天城路1号",120.17,30.28,Zhejiang,Hangzhou
杭州东站到达区店,杭州市,"江干区, 火车东站地下一层HD-B1-01星巴克, 湖滨路1号",120.21,30.29,Zhejiang,Hangzhou
杭州湖滨路店,杭州市,"上城区, 湖滨路, 华联时代大厦A幢103-1室",120.16,30.25,Zhejiang,Hangzhou
杭州UDC店,杭州市,"江干区, UDC时代大厦, 西湖区转塘街道双流689号",120.22,30.25,Zhejiang,Hangzhou
杭州转塘金街美地店,杭州市,"浙江省杭州市, 金街美地商业中心一号楼101室, 建德市新安江街道盛德国际广场4幢4",120.08,30.15,Zhejiang,Hangzhou
杭州建德太平洋购物中心店,杭州市,"浙江省杭州市, 1030号、4,1031号、4,1032号、4,1033号、4,1034号商铺, 富春路701号B1层B1S08号商铺",119.28,29.47,Zhejiang,Hangzhou
杭州万象城二店,杭州市,"江干区, 杭州万象城, 新塘路108号天虹购物中心的B座楼一层131号商铺",120.21,30.25,Zhejiang,Hangzhou
杭州天虹店,杭州市,"江干区, 天虹商场, 滨江区江南大道618号",120.21,30.26,Zhejiang,Hangzhou
杭州东冠大厦店,杭州市,"浙江省杭州市, 祥园路99号",120.2,30.2,Zhejiang,Hangzhou
杭州北部软件园店,杭州市,"杭州市拱墅区, 101、103商铺, 天目山路274号",120.12,30.34,Zhejiang,Hangzhou
杭州黄龙时代广场店,杭州市,"西湖区, 海创园1F",120.13,30.27,Zhejiang,Hangzhou
杭州海创园店,杭州市,"文一西路998号, 滨安路1190号3幢",120.02,30.28,Zhejiang,Hangzhou
杭州智汇中心店,杭州市,"滨江区, 平海路124号",120.18,30.19,Zhejiang,Hangzhou
杭州凯悦店,杭州市,"上城区, 利星名品广场, 良渚文化村食街",120.16,30.25,Zhejiang,Hangzhou
杭州良渚文化村店,杭州市,"杭州市余杭区, 2-01、2-08号单元, 北山街9号",120.03,30.36,Zhejiang,Hangzhou
杭州断桥店,杭州市,"西湖区, 蒋经国故居副楼, 古墩路588号",120.15,30.26,Zhejiang,Hangzhou
杭州古墩印象城,杭州市,"余杭区, 杭州古墩印象城一楼, 西溪天堂国际旅游综合体20号-10",120.1,30.29,Zhejiang,Hangzhou
杭州西溪天堂店,杭州市,"西湖区, 城星路125号",120.09,30.27,Zhejiang,Hangzhou
杭州滨江城市之星店,杭州市,"江干区, 杭州滨江城市之星, 西湖区紫霞街155号",120.2,30.24,Zhejiang,Hangzhou
杭州西溪诚品店,杭州市,"浙江省杭州市, 西溪诚品1号楼103-01号商铺, 环城北路258号",120.07,30.29,Zhejiang,Hangzhou
杭州大厦D座店,杭州市,"下城区, 杭州大厦, 金城路333号",120.16,30.27,Zhejiang,Hangzhou
萧山城市生活广场店,杭州市,"萧山区, 城市生活广场店, 机场路119-131号第一层A-15号商铺",120.25,30.18,Zhejiang,Hangzhou
杭州天城国际店,杭州市,"杭州市江干区, 江干区, 杭州火车东站3F-HD-55号",120.19,30.29,Zhejiang,Hangzhou
杭州东站出发夹层店,杭州市,"江干区天城路1号, 火车东站东广场",120.21,30.29,Zhejiang,Hangzhou
杭州火车东站东广场店,杭州市,"杭州市江干区, 地下一层C01号商铺, 海达南路397号一层1A-01号单元",120.21,30.29,Zhejiang,Hangzhou
杭州下沙银泰城店,杭州市,"经济技术开发区, 北山街87号-5",120.33,30.3,Zhejiang,Hangzhou
杭州北山路店,杭州市,"西湖区, 秀水广场A-1营业房",120.13,30.25,Zhejiang,Hangzhou
杭州千岛湖秀水广场店,杭州市,"淳安县千岛湖镇阳光路89号, 萧山国际机场T3航站楼出发层禁区内",119.04,29.62,Zhejiang,Hangzhou
萧山机场出发禁区店,杭州市,"萧山区, 萧山国际机场T3, 湖墅南路90号",120.44,30.24,Zhejiang,Hangzhou
杭州苏宁生活广场店,杭州市,"拱墅区, 杭州苏宁生活广场, 上塘路158号省人民医院1号楼一层",120.16,30.28,Zhejiang,Hangzhou
杭州浙江省人民医院店,杭州市,"下城区, 浙江省人民医院, 桐庐县江南镇小潘村",120.17,30.29,Zhejiang,Hangzhou
G25高速桐庐服务区南区店,杭州市,"浙江省杭州市, （桐庐服务区南区N02商铺）, 景昙路9号西子国际中心一层第1018号商铺",119.8,29.84,Zhejiang,Hangzhou
杭州501城市广场1F店,杭州市,"杭州市江干区, 江干区, 体育场路178号",120.2,30.26,Zhejiang,Hangzhou
杭州浙江日报社店,杭州市,"下城区, 浙江日报社一楼, 丰潭路380号",120.17,30.27,Zhejiang,Hangzhou
杭州银泰城西二店,杭州市,"西湖区, 银泰城1F016~2F018, 湖墅南路240号1F",120.11,30.3,Zhejiang,Hangzhou
杭州宜家道店,杭州市,"拱墅区, 红石板商铺, 东新路822号中大银泰城一层L108单元",120.15,30.28,Zhejiang,Hangzhou
杭州中大银泰城店,杭州市,"下城区, 中大银泰城, 丰潭路380号",120.18,30.33,Zhejiang,Hangzhou
杭州银泰城西一店,杭州市,"西湖区, 银泰城1F066~068, 文一路296号",120.11,30.3,Zhejiang,Hangzhou
杭州文一汇和城店,杭州市,"西湖区, 杭州文一汇和城, 朝晖路108号102室商铺",120.12,30.29,Zhejiang,Hangzhou
杭州和平饭店店,杭州市,"下城区, 和平饭店, 西湖区杭大路1号黄龙世纪广场",120.18,30.28,Zhejiang,Hangzhou
杭州黄龙世纪广场店,杭州市,"浙江省杭州市, B区一层15号室, 江南大道3588号、火炬大道499号",120.14,30.27,Zhejiang,Hangzhou
杭州恒生电子店,杭州市,"浙江省杭州市滨江区, 2幢B101、B102单元, 文二路333号大华华领国际大厦",120.17,30.19,Zhejiang,Hangzhou
杭州大华华领国际店,杭州市,"西湖区, 大华华领国际, 景昙路18-26号",120.12,30.28,Zhejiang,Hangzhou
杭州银泰庆春店,杭州市,"江干区, 银泰百货庆春店一楼, 庆春路122号",120.2,30.26,Zhejiang,Hangzhou
杭州庆春路店,杭州市,"下城区, 嘉德广场1楼, 延安路385号嘉里中心购物中心4层L419b号单元",120.17,30.26,Zhejiang,Hangzhou
杭州嘉里中心4F店,杭州市,"杭州市下城区, 圣塘景区8号",120.16,30.26,Zhejiang,Hangzhou
杭州石函店,杭州市,"西湖区, 石函精舍, 绍兴路161号野风现代中心一层",120.16,30.26,Zhejiang,Hangzhou
杭州野风现代中心店,杭州市,"下城区, 杭州野风现代中心, 西湖文化广场",120.18,30.29,Zhejiang,Hangzhou
杭州西湖文化广场店,杭州市,"下城区, 18号1楼1A-09号, 南山路147号6号楼",120.16,30.28,Zhejiang,Hangzhou
杭州西湖天地店,杭州市,"上城区, 西湖天地, 莫干山路街1509号",120.16,30.25,Zhejiang,Hangzhou
杭州西田城购物中心店,杭州市,"杭州市余杭区, 西田城购物中心一层A1F-008-1商铺, 余杭区五常大道1号",120.09,30.34,Zhejiang,Hangzhou
杭州西溪印象城中庭店,杭州市,"浙江省杭州市, 西溪印象城地上第1层的P1-01-65单元, 西溪路546号2-102和2-103-1",120.05,30.25,Zhejiang,Hangzhou
杭州西溪新座店,杭州市,"西湖区, 西溪新座, 市心中路268号",120.11,30.27,Zhejiang,Hangzhou
萧山银隆百货店,杭州市,"萧山区, 萧山银隆百货, 山阴路754号5幢1层（近工人路路口）",120.27,30.17,Zhejiang,Hangzhou
杭州萧山恒隆广场店,杭州市,"萧山区, 萧山恒隆广场, 复广直街8号赞成中心1号商铺",120.26,30.18,Zhejiang,Hangzhou
杭州赞成中心店,杭州市,"上城区, 延安路530号",120.18,30.21,Zhejiang,Hangzhou
杭州银泰店,杭州市,"上城区, 银泰, 萧山国际机场T3航站楼出发层禁区外",120.16,30.27,Zhejiang,Hangzhou
萧山机场出发广场店,杭州市,"萧山区, 萧山国际机场T3, 江干区新塘路58号第一层101号商铺",120.44,30.24,Zhejiang,Hangzhou
杭州新传媒大厦店,杭州市,"浙江省杭州市, 桐庐县江南镇小潘村",120.21,30.26,Zhejiang,Hangzhou
G25高速桐庐服务区北区店,杭州市,"浙江省杭州市, （桐庐服务区北区N02商铺）, 万塘路262号万塘汇2#101室",119.8,29.84,Zhejiang,Hangzhou
杭州万塘汇店,杭州市,"浙江省杭州市, 上城区解放路91、93号",120.12,30.28,Zhejiang,Hangzhou
杭州解放路汇和城店,杭州市,"浙江省杭州市, 天工艺苑一层01号商铺",120.18,30.25,Zhejiang,Hangzhou
杭州金逸影视中心店,杭州市,"杭州下城区东新路655号1层1-13单元, 春秋北路271-1号",120.17,30.32,Zhejiang,Hangzhou
杭州富阳银泰店,杭州市,"富阳市, 银泰",119.94,30.06,Zhejiang,Hangzhou
杭州桐庐立山国际店,杭州市,"迎春南路281号, 东信大道1232号",119.69,29.79,Zhejiang,Hangzhou
杭州天寓店,杭州市,"滨江区, 杭州天寓, 望江东路332号望江国际中心3号楼一层102号商铺",120.15,30.19,Zhejiang,Hangzhou
杭州望江国际店,杭州市,"上城区, 望江国际中心, 拱墅区祥园路28号107、108商铺",120.19,30.23,Zhejiang,Hangzhou
杭州乐富智汇园店,杭州市,"浙江省杭州市, 灵隐路38号一层5室E01",120.11,30.33,Zhejiang,Hangzhou
杭州灵隐解百店,杭州市,"西湖区, 之江路148号",120.11,30.24,Zhejiang,Hangzhou
杭州宋城店,杭州市,"浙江省杭州市西湖区, 宋城景区第16幢,17幢01部分, 延安路98号西湖银泰城一层",120.1,30.17,Zhejiang,Hangzhou
杭州西湖银泰二店,杭州市,"上城区, 杭州西湖银泰城, 滨盛路3867号第一层M-F1-030号商铺",120.17,30.24,Zhejiang,Hangzhou
杭州滨江宝龙北区店,杭州市,"杭州市滨江区, 西湖区杨梅山路343号",120.17,30.19,Zhejiang,Hangzhou
杭州西湖区和家园店,杭州市,"浙江省杭州市, 一楼101室二楼201室, 延安路179号",120.06,30.23,Zhejiang,Hangzhou
杭州解百元华店,杭州市,"上城区, 解百新元华, 富春街道金桥北路1号",120.16,30.25,Zhejiang,Hangzhou
杭州富阳东方茂店,杭州市,"富阳区, 富阳东方茂1065部位, 延安路98号",119.93,30.05,Zhejiang,Hangzhou
杭州新银泰店,杭州市,"上城区, 银泰百货西湖店B1F",120.16,30.24,Zhejiang,Hangzhou
杭州临平和合广场店,杭州市,"杭州市余杭区东湖南路59号, 江陵路2028号3幢101-6&7室",120.31,30.42,Zhejiang,Hangzhou
杭州乐宜城店,杭州市,"滨江区, 星耀城, 体育场路218号杭州日报老大楼东面一层",120.22,30.21,Zhejiang,Hangzhou
杭州日报店,杭州市,"下城区, 杭州日报, 星光城二层L249号",120.17,30.27,Zhejiang,Hangzhou
杭州星光城1店,杭州市,"滨江区长河街道滨盛路1766号, 东方时代购物中心",120.21,30.21,Zhejiang,Hangzhou
衢州江山东方店,江山市,"鹿溪南路365号, 启潮路199号",118.63,28.73,,
浙江奥特莱斯店,海宁市,"长安镇农发区, 奥特莱斯, G60沪杭高速长安服务区北区CAB101",120.38,30.34,,
G60长安服务区北区店,海宁市,"长安镇兴福村北角兜38号, G60沪杭高速长安服务区南区CAN101",120.46,30.49,,
G60长安服务区南区店,海宁市,长安镇兴福村北角兜38号,120.47,30.49,,
温岭锦屏店,温岭市,太平街道万泉东路234号（新天地2-101，2-102，2-201）,121.39,28.37,,
温岭千禧店,温岭市,"太平街道东城路20号, 锦屏路92号",121.37,28.37,,
温岭锦江店,温岭市,温岭市,121.39,28.38,,
温岭银泰城店,温岭市,"中华路728号, 永嘉县瓯北镇双塔路",121.36,28.39,,
温州置诚广场店,温州市,"浙江省温州市, 瓯海区瓯海大道1299号1-2层的L1057和L2029单元",120.64,28.04,Zhejiang,Wenzhou
温州银泰奥莱店,温州市,"浙江省温州市, 瓯海区温瑞大道999号",120.6,27.96,Zhejiang,Wenzhou
温州万象城二楼店,温州市,"浙江省温州市, 二层L201-L202室, 车站大道288号",120.69,27.95,Zhejiang,Wenzhou
温州时代店,温州市,"鹿城区, 温州时代广场购物中心一楼",120.68,28.0,Zhejiang,Wenzhou
温州平阳银泰店,温州市,"平阳县车站大道1188号一层1001室, 解放南路与荷花路交叉口",120.57,27.6,Zhejiang,Wenzhou
温州银泰店,温州市,"鹿城区, 银泰, 1-2层B1-07—B2-07单元",120.66,28.01,Zhejiang,Wenzhou
温州梦多多店店,温州市,"瓯海区六虹桥路1189号, 瓯海区温瑞大道999号",120.63,27.98,Zhejiang,Wenzhou
温州万象城五楼店,温州市,"浙江省温州市, 五层L518室, 府前街1-2层N9号、N10号",120.69,27.95,Zhejiang,Wenzhou
温州五马街店,温州市,"鹿城区, 五马商厦, 龙港财富广场",120.66,28.01,Zhejiang,Wenzhou
温州龙港财富广场店,温州市,"龙港镇广场路61-145号, 人民中路1号",120.54,27.58,Zhejiang,Wenzhou
温州人民路店,温州市,"鹿城区, 人民路, 永中街道永定路1188号",120.66,28.01,Zhejiang,Wenzhou
温州龙湾万达店,温州市,"龙湾区, 一楼1001号铺位, 鹿城区黎明工业区21号101单元",120.81,27.92,Zhejiang,Wenzhou
温州东瓯智库店,温州市,"浙江省温州市, 报喜鸟大楼",120.71,28.0,Zhejiang,Wenzhou
温州瓯北凤凰尚品店,温州市,"瓯北镇双塔路2116号, 鹿城区学院中路人才大厦107-3室101单元",120.63,28.04,Zhejiang,Wenzhou
温州人才大厦店,温州市,"浙江省温州市, 万达广场",120.7,28.0,Zhejiang,Wenzhou
温州平阳万达广场店,温州市,"平阳县鳌江镇车站大道88号, 乐清市清远路221号",120.56,27.62,Zhejiang,Wenzhou
乐清时代店,温州市,"乐成镇, 乐清时代, 瑞安时代广场",120.97,28.11,Zhejiang,Wenzhou
瑞安时代广场店,温州市,"罗阳大道699号, 瓯海区温瑞大道999号1-2层",120.66,27.78,Zhejiang,Wenzhou
温州万象城商业街店,温州市,"浙江省温州市, S101-103室,S201a-203a室, 1054-1158号一层1001单元",120.69,27.95,Zhejiang,Wenzhou
温州苍南银泰店,温州市,"苍南县灵溪镇玉苍路, 湖州市公园路168号（公园路与南街交叉口）",120.43,27.51,Zhejiang,Wenzhou
湖州浙北中心店,湖州市,"吴兴区, 湖州浙北中心, 湖州市人民路85号",120.1,30.87,Zhejiang,Huzhou
湖州爱山广场店,湖州市,"湖州, 爱山广场, 东吴国际龙玺公馆湖州银泰城1-13",120.1,30.87,Zhejiang,Huzhou
湖州银泰城店,湖州市,"吴兴区, 安吉浙北大厦",120.1,30.87,Zhejiang,Huzhou
安吉浙北大厦店,湖州市,"安吉县云鸿东路1号, 滨河路666号E1127，E2153室",119.69,30.62,Zhejiang,Huzhou
湖州凤凰时代广场店,湖州市,"吴兴区, 湖州凤凰时代广场",120.09,30.87,Zhejiang,Huzhou
湖州梅地亚广场店,湖州市,吴兴区新华路658号,120.12,30.87,Zhejiang,Huzhou
湖州长兴海洋城店,湖州市,"长兴县海洋城2幢119号, 吴兴区勤劳街181号5单元",119.9,31.04,Zhejiang,Huzhou
湖州状元街店,湖州市,"浙江省湖州市, 南浔区人瑞路9999号一层103单元",120.09,30.86,Zhejiang,Huzhou
湖州南浔浙北店,湖州市,"浙江省湖州市, 吴兴区大升路899号一层1052单元",120.41,30.86,Zhejiang,Huzhou
湖州万达广场店,湖州市,"浙江省湖州市, 安吉经典1958",120.14,30.86,Zhejiang,Huzhou
湖州安吉经典1958店,湖州市,"昌硕街道递铺中路19号1号楼, 解放西路2号",119.69,30.64,Zhejiang,Huzhou
长兴八佰伴店,湖州市,"长兴县, 马山镇宋家娄村",119.91,31.0,Zhejiang,Huzhou
G92高速绍兴服务区北区店,绍兴市,"浙江省绍兴市, （绍兴服务区北区B02商铺）",120.64,30.1,Zhejiang,Shanxing
诸暨雄风新天地店,绍兴市,"苎萝东路555号, 迪扬路1339号",120.27,29.7,Zhejiang,Shanxing
绍兴柯桥天虹店,绍兴市,"柯桥, 天虹百货1楼, 越城区解放北路449号1F-001商铺",120.49,30.08,Zhejiang,Shanxing
绍兴国商购物中心店,绍兴市,"浙江省绍兴市, 胜利东路389号",120.58,30.0,Zhejiang,Shanxing
绍兴昆仑国际店,绍兴市,"越城区, 钱陶路799号一层1F-11,1F-12商铺",120.6,30.0,Zhejiang,Shanxing
绍兴柯桥万达南门店,绍兴市,"绍兴市柯桥区, 柯桥区, 柯桥钱陶公路799号",120.51,30.09,Zhejiang,Shanxing
绍兴万达店,绍兴市,"绍兴县, 万达广场室内步行街地面一层1067, 嵊州市鹿山路6号",120.51,30.09,Zhejiang,Shanxing
绍兴嵊州鹿山广场店,绍兴市,"浙江省绍兴市, 嵊州鹿山广场1层1F-059A商铺, 笛扬路1533号",120.83,29.59,Zhejiang,Shanxing
绍兴柯桥银泰店,绍兴市,"柯桥区, 一至二层01058号铺位, 马山镇宋家娄村",120.49,30.09,Zhejiang,Shanxing
G92高速绍兴服务区南区店,绍兴市,"浙江省绍兴市, （绍兴服务区南区N02商铺）, 汇金艺术生活广场1楼1019号",120.64,30.1,Zhejiang,Shanxing
绍兴汇金店,绍兴市,"解放北路199号, 上虞区称山北路399号一层1033号商铺",120.58,30.01,Zhejiang,Shanxing
绍兴上虞万达广场店,绍兴市,"浙江省绍兴市, 新昌世贸广场",120.85,30.05,Zhejiang,Shanxing
绍兴新昌世贸店,绍兴市,"新昌县鼓山东路196号1层001商铺, 市民大道688号",120.9,29.5,Zhejiang,Shanxing
绍兴上虞万和城店,绍兴市,"上虞区, 上百万和城, 解放南路777号",120.88,30.03,Zhejiang,Shanxing
绍兴金帝银泰店,绍兴市,"越城区, 绍兴金帝银泰, 胜利东路366号",120.58,29.98,Zhejiang,Shanxing
绍兴世贸店,绍兴市,"越城区, 世茂城购物中心1-A-14, 越城区中兴中路35号以及37号的部分区域",120.6,30.0,Zhejiang,Shanxing
绍兴中惠百货店,绍兴市,"浙江省绍兴市, （1-2,7-10商铺）",120.59,30.0,Zhejiang,Shanxing
绍兴鲁迅故里店,绍兴市,"越城区鲁迅中路209号一层, 临城新城海宇道99号",120.58,29.99,Zhejiang,Shanxing
舟山银泰店,舟山市,"定海区, 银泰百货1F-E-3, 普渡路2号",122.21,29.99,Zhejiang,Zhoushan
舟山蜈蚣峙店,舟山市,"普陀区, 蜈蚣峙码头, 解放西路106号一楼007室",122.37,29.95,Zhejiang,Zhoushan
舟山太平洋百货店,舟山市,"定海区, 普陀区海印路780-1号",122.1,30.02,Zhejiang,Zhoushan
舟山普陀美乐汇店,舟山市,"浙江省舟山市, 兴普大道288号",122.32,29.97,Zhejiang,Zhoushan
舟山凯虹广场店,舟山市,"普陀区, 凯虹广场, 市心中路123-A号顺发旺角城新天地金座7幢101-1号",122.32,29.97,Zhejiang,Zhoushan
萧山旺角城店,萧山市,"萧山区, 萧山顺发旺角城新天地, 柯城区南街2幢一层L1-06商铺",120.27,30.17,,
衢州国金中心店,衢州市,"浙江省衢州市, 上街96号",118.87,28.96,Zhejiang,Quzhou
衢州东方店,衢州市,"柯城区, 信安大道398号东方广场一层1-126商铺",118.87,28.95,Zhejiang,Quzhou
衢州衢江东方广场店,衢州市,"衢江区, 东方商厦, 诸暨第一百货",118.94,28.97,Zhejiang,Quzhou
诸暨一百店,诸暨市,"诸暨市暨阳路7号, 雄风百货",120.24,29.72,,
诸暨老雄风店,诸暨市,"艮塔路28号, 东阳市横店镇万盛南街8号,&8-1号",120.24,29.72,,
金华横店万盛街店,金华市,"浙江省金华市, 金东区傅村镇石狮塘村",120.32,29.16,Zhejiang,Jinhua
高速金华服务区北区店,金华市,"浙江省金华市, 宾虹路855号",119.88,29.25,Zhejiang,Jinhua
金华一百店,金华市,"婺城区, 新光太平洋百货一层1F-006商铺",119.65,29.08,Zhejiang,Jinhua
金华东阳太平洋店,金华市,"东阳市吴宁街道南街51号, 婺江东路188号",120.23,29.26,Zhejiang,Jinhua
金华金厦店,金华市,"婺城区, 金厦帝壹城购物中心",119.66,29.1,Zhejiang,Jinhua
义乌锦都店,金华市,"城中中路168号, 金东区傅村镇石狮塘村",120.07,29.3,Zhejiang,Jinhua
高速公路金华服务区南区店,金华市,"浙江省金华市, 义乌市宾王路218号",119.89,29.24,Zhejiang,Jinhua
金华义乌国际大厦店,金华市,"浙江省金华市, 国际大厦主楼一层1F-01商铺",120.09,29.31,Zhejiang,Jinhua
金华万达店,金华市,"李渔东路366号, 解放东路168号",119.68,29.09,Zhejiang,Jinhua
金华银泰店,金华市,"婺城区, 金华银泰天地一楼, 义乌市新科路9号1层1067号商铺",119.65,29.1,Zhejiang,Jinhua
金华义乌万达广场店,金华市,"浙江省金华市, 长江东路与东二环交口",120.04,29.28,Zhejiang,Jinhua
合肥宝业东城广场店,合肥市,"瑶海区, 宝业东城时代广场C栋一层, 临泉路与和县路交口",117.34,31.87,Anhui,Hefei
合肥瑶海万达广场店,合肥市,"瑶海区, 合肥瑶海万达广场一层1031号, 庐州大道与紫云路交叉口",117.35,31.88,Anhui,Hefei
合肥Idmall店,合肥市,"滨湖新区, 悦方购物中心一楼, 徽州大道5566号",117.3,31.74,Anhui,Hefei
合肥世纪金源购物广场店,合肥市,"包河区, 世纪金源购物中心一层, 淮河中路77号",117.29,31.74,Anhui,Hefei
合肥百盛逍遥广场店,合肥市,"庐阳区, 合肥百盛逍遥广场, 马鞍山路130号",117.29,31.86,Anhui,Hefei
合肥包河万达2店,合肥市,"包河区, 包河万达广场一楼1001号铺位, 全椒路与站前路交口信地步行街",117.3,31.86,Anhui,Hefei
合肥乐汇街店,合肥市,"瑶海区, A号商业楼地上一层的103和104商铺, 天鹅湖万达广场室内步行街",117.32,31.88,Anhui,Hefei
合肥天鹅湖万达广场店,合肥市,"政务区怀宁路与南二环(东北角东流路)交口, 地面一层1-02号铺位, 长江西路与肥西路交口",117.22,31.82,Anhui,Hefei
合肥之心城店,合肥市,"蜀山区, 望江西路218号",117.26,31.85,Anhui,Hefei
合肥百大港汇店,合肥市,"蜀山区, 港汇广场B区商业A栋一楼, 习友路与潜山路交叉口",117.23,31.83,Anhui,Hefei
合肥华润万象城店,合肥市,"政务区, 华润万象城购物中心一楼, 祁门路南侧",117.23,31.8,Anhui,Hefei
合肥新地中心店,合肥市,"政务区, 新地中心一层F101单元, 濉溪路278号",117.23,31.81,Anhui,Hefei
合肥财富广场店,合肥市,"庐阳区, 财富广场三期一楼101, 南二环778号",117.27,31.88,Anhui,Hefei
合肥华邦银泰城店,合肥市,"政务区, 华邦世贸中心零售商区地上一层157单元, 蒙城北路与濉溪路交口",117.23,31.82,Anhui,Hefei
合肥蒙城路店,合肥市,"庐阳区, 北京华联一楼, 庐州大道800号",117.28,31.88,Anhui,Hefei
合肥滨湖万达城店,合肥市,"滨湖新区, 合肥万达茂一层1036号",117.3,31.7,Anhui,Hefei
合肥1912店,合肥市,"黄山路与怀宁路交叉口, 马鞍山路",117.22,31.84,Anhui,Hefei
合肥包河万达广场店,合肥市,"包河区, 包河万达广场1F, 利民西路189号",117.3,31.86,Anhui,Hefei
芜湖银泰城店,芜湖市,"弋江区, 芜湖银泰城地上一层1-019号铺位, 中山南路189号",118.37,31.31,Anhui,Wuhu
芜湖金鹰新城市店,芜湖市,"弋江区,  芜湖金鹰新城市购物中心A103单元, 中和路与中山路步行街交叉口",118.37,31.32,Anhui,Wuhu
芜湖苏宁广场店,芜湖市,"镜湖区, 苏宁广场一楼, 中山北路77号",118.37,31.33,Anhui,Wuhu
芜湖侨鸿国际广场店,芜湖市,"镜湖区, 芜湖侨鸿国际广场1F, 东海大道4399号",118.37,31.34,Anhui,Wuhu
蚌埠万达店,蚌埠市,"蚌山区, 万达广场一层",117.36,32.92,Anhui,Bengbu
马鞍山八佰伴店,马鞍山,"花山区, 大华马鞍山国际广场2-1号, 湖东北路和湖南西路十字路口",118.51,31.68,,
马鞍山金鹰天地店,马鞍山,"花山区, 金鹰天地购物中心一楼, 太白大道与钟山路交叉口",118.51,31.69,,
马鞍山雨山万达店,马鞍山,"雨山区, 雨山万达广场一层1001号, 高崎机场T3航站楼",118.51,31.66,,
厦门高崎机场T3店,厦门市,"湖里区, 国内出发T3-W-2地块, 滨湖北二路60-80号",118.13,24.53,Fujian,Xiamen
厦门阿罗海店,厦门市,"海沧区, 大摩阿罗海城市广场一层B101，B102单元, 厦禾路278号一层和268号二层201室",118.03,24.48,Fujian,Xiamen
厦门厦禾路源通中心分店,厦门市,"思明区, 木浦路101、103号",118.08,24.46,Fujian,Xiamen
厦门恒安国际中心店,厦门市,"湖里区, 厦门恒安国际广场地上一层的03-04单元, ""思明南路171号之31B1055b 铺位 """,118.19,24.53,Fujian,Xiamen
厦门中华城分店,厦门市,"思明区, 嘉禾路468号",118.08,24.45,Fujian,Xiamen
厦门SM城市广场分店,厦门市,"思明区, SM城市广场首层156,157号, 梧侣路1709号",118.13,24.5,Fujian,Xiamen
厦门梧侣路分店,厦门市,"同安区, 新景舜弘广场第一层1032单元, 仙岳路4666号",118.14,24.69,Fujian,Xiamen
厦门湖里万达店,厦门市,"湖里区, 厦门湖里万达广场2F邮编：361009, 日圆里1号",118.18,24.5,Fujian,Xiamen
厦门湾悦城店,厦门市,"湖里区, 厦门湾悦城2号楼地上二层的L2-019单元",118.16,24.52,Fujian,Xiamen
厦门SM新生活广场店,厦门市,"嘉禾路399号SM新生活广场, 厦禾路899号",118.13,24.5,Fujian,Xiamen
厦门罗宾森店,厦门市,"思明区, 罗宾森广场一层L1-09，二层L2-08，S2-10, 环岛东路1701号建发JFC品尚中心",118.11,24.47,Fujian,Xiamen
厦门JFC品尚中心店,厦门市,"思明区, 第1层的A-L1-07单元, 演武西路182号",118.19,24.47,Fujian,Xiamen
厦门演武路分店,厦门市,"思明区, 厦门世茂海峡大厦第一层的 101 单元, 湖滨南路76号百脑汇电子科技大厦第一层",118.09,24.43,Fujian,Xiamen
厦门百脑汇分店,厦门市,"思明区, 的1Y04 单元和第二层的2Y04 单元, 沧林东路 282 号",118.09,24.47,Fujian,Xiamen
厦门海沧天虹店,厦门市,"海沧区, 海沧天虹百货商场一层的 1033-1036 号单元, 吕岭路1068号东百蔡塘广场",118.05,24.49,Fujian,Xiamen
厦门吕岭路店,厦门市,"湖里区, A-29 号店铺, 巴黎春天百货第二层的2S2 单元1 号铺位",118.16,24.49,Fujian,Xiamen
厦门嘉禾巴黎春天分店,厦门市,"思明区武汉大厦, 嘉禾路261-265 号",118.12,24.49,Fujian,Xiamen
厦门磐基中心店,厦门市,"莲岳路1号磐基中心, 厦门市软件园二期观日路54号",118.12,24.48,Fujian,Xiamen
厦门软件园分店,厦门市,"湖里区, 地上第1层的107单元, 中山路76-132号",118.19,24.48,Fujian,Xiamen
厦门巴黎春天百货店,厦门市,"思明区, 巴黎春天百货二层228,229,230,245单元, 银江路137 号",118.08,24.45,Fujian,Xiamen
厦门集美万达分店,厦门市,"集美区, 集美万达广场, 祥福五里24 号136，137",118.09,24.57,Fujian,Xiamen
厦门翔安汇景广场分店,厦门市,"翔安区, 138，139，140，141室, 厦门市湖里区金湖路 101 号",118.25,24.62,Fujian,Xiamen
厦门金湖路分店,厦门市,"湖里区, 杏林街道宁海一里66号金域华府10号",118.16,24.51,Fujian,Xiamen
厦门集美万科里店,厦门市,"集美区, 楼地上一层L101,L102单元, 莲前东路288号",118.06,24.57,Fujian,Xiamen
厦门瑞景商业广场店,厦门市,"思明区, 瑞景商业广场1F, 体育路88号",118.16,24.48,Fujian,Xiamen
厦门体育路分店,厦门市,"思明区, 第一层B单元, 福建省厦门市思明区厦禾路 983 号102 单元",118.11,24.49,Fujian,Xiamen
厦门双涵分店,厦门市,"思明区, 同安区大同街道同新路 14 号",118.12,24.47,Fujian,Xiamen
厦门同安钟楼一号店,厦门市,"同安区, 钟楼壹号第 1 层的04、05、06 单元",118.15,24.73,Fujian,Xiamen
厦门筼筜路店,厦门市,"湖滨北建业路马可波罗东方大酒店, 二层M210B、三层M301B",118.09,24.47,Fujian,Xiamen
厦门鹭江道店,厦门市,"鹭江道新领荟广场1层M101单元，, 及四层M401A单元, 厦禾路882-888号",118.08,24.45,Fujian,Xiamen
厦门世贸商城店,厦门市,"思明区, 世界贸易中心B栋一层, 闽东中路32号联信财富广场",118.11,24.47,Fujian,Xiamen
宁德闽东中路店,宁德市,"东侨经济开发区, A区1号楼地上一层, 闽东中路2号",119.55,26.66,Fujian,Ningde
宁德宝信城市广场店,宁德市,"蕉城区, 宝信城市广场25幢L1层101单元, 狮城国际广场",119.54,26.65,Fujian,Ningde
泉州石狮九二路分店,泉州市,"九二路北侧塔前村段, 1F-L1-52/53/55/56单元, 世纪大道与长兴路交汇处",118.62,24.74,Fujian,Quanzhou
泉州晋江宝龙分店,泉州市,"晋江, 宝龙城市广场第一层的018单元, 中山路北门街A1幢",118.57,24.8,Fujian,Quanzhou
泉州中山公园店,泉州市,"鲤城区, A17-A19、A217-A219单元, 宝岛中路339号",118.59,24.92,Fujian,Quanzhou
泉州石狮泰禾广场店,泉州市,"石狮市, 石狮泰禾广场地上一层L136铺位, 东海大街中段南侧",118.65,24.74,Fujian,Quanzhou
泉州东海大街店,泉州市,"丰泽区, 新华都东海湾生活广场地上一层L107铺位, 宝洲路 689 号",118.65,24.87,Fujian,Quanzhou
泉州浦西万达广场店,泉州市,"丰泽区, 泉州浦西万达广场第一层1－35 号铺, 阳光路青莲南区2号1幢",118.6,24.88,Fujian,Quanzhou
晋江马哥孛罗分店,泉州市,"晋江市青阳街道阳光社区, SM Mall地上一层",118.59,24.81,Fujian,Quanzhou
晋江Smmall分店,泉州市,"晋江市福埔开发区, 1121A-1121 单元, 八七路814号",118.57,24.78,Fujian,Quanzhou
泉州石狮德辉广场店,泉州市,"石狮市, 石狮德辉广场第一层的1-006铺位, 泉州浦西万达广场商业综合楼4 号建筑",118.65,24.73,Fujian,Quanzhou
泉州万达金街分店,泉州市,"丰泽区, (室外步行街)5幢第一层的北侧A单元, 晋江万达广场二层237号铺（地面入口处）",118.6,24.88,Fujian,Quanzhou
泉州晋江万达广场店,泉州市,"晋江市世纪大道888号, 中骏世界城Shopping Mall",118.57,24.82,Fujian,Quanzhou
泉州中骏世界城分店,泉州市,"丰泽区, 地上第一层的 M1-1 单元, 刺桐路南路西侧",118.66,24.92,Fujian,Quanzhou
泉州电信大楼分店,泉州市,"丰泽区, 东海电信综合楼地上一层, 南昌中路49号",118.6,24.89,Fujian,Quanzhou
漳州凯德广场店,漳州市,"芗城区, 凯德广场一楼01-32/33/34C商铺, 八一七路760号",117.67,24.51,Fujian,Zhangzhou
福州群升东百分店,福州市,"台江区, 群升国际二期E地块2号楼第一层的1102单元, 上海街道西环中路691号",119.3,26.06,Fujian,Fuzhou
福州万象商业广场分店,福州市,"台江区, 航城街道广场路 39 号",119.29,26.06,Fujian,Fuzhou
福州长乐长山湖分店,福州市,"长乐市, ""长山湖购物广场第一层的 1-17 单元 "", 乌山路",119.5,25.96,Fujian,Fuzhou
福州乌山店,福州市,"鼓楼区, 乌山南入口广场东侧店面, 坂中路6号",119.3,26.08,Fujian,Fuzhou
福州泰禾广场分店,福州市,"晋安区, 泰禾城市广场地上第一层的 L-110 单元, 瀛洲街道台江路 95 号",119.32,26.13,Fujian,Fuzhou
福州元洪东百分店,福州市,"台江区, 元洪城商场地下一层的 04 单元, 峰镇竹屿路 6 号",119.32,26.05,Fujian,Fuzhou
福州东二环泰禾广场店,福州市,"晋安区, 东二环泰禾广场17号楼地下一层, 宁化街道工业路193号",119.34,26.09,Fujian,Fuzhou
福州宝龙广场店,福州市,"台江区, 福州宝龙城市广场（一期）地面一层, 长乐国际机场候机楼内",119.29,26.06,Fujian,Fuzhou
福州长乐机场分店,福州市,"福州市, ""国内隔离区三楼文化长廊N3-2 地块, 五一北路157号",119.67,25.93,Fujian,Fuzhou
福州正祥中心店,福州市,"鼓楼区, 正祥商务中心地上一层N103单元, 音西清昌大道105号",119.31,26.08,Fujian,Fuzhou
福州福清万达广场分店,福州市,"福州市, 福清万达广场地面一层1001号铺位, 鳌江路8号",119.35,25.72,Fujian,Fuzhou
福州万达广场店,福州市,"台江区, 金融街万达广场, 上街镇新保路22号福州正荣财富中心",119.34,26.05,Fujian,Fuzhou
闽候正荣财富广场店,福州市,"闽侯县, A1地块1#楼地上一层的1030单元, 仓山/万达广场室内步行街1-55号商铺",119.22,26.02,Fujian,Fuzhou
福州仓山万达店,福州市,"浦上大道, 浦上大道与闽江大道交汇处",119.28,26.04,Fujian,Fuzhou
福州红星国际广场店,福州市,"仓山区, 红星国际广场地上一层的F1012单元, 五四路126号",119.28,26.04,Fujian,Fuzhou
福州恒力城分店,福州市,"鼓楼区, 恒力城王府井百货第一层, 岳峰镇竹屿路6号",119.31,26.09,Fujian,Fuzhou
福州东二环泰禾广场二店,福州市,"晋安区, 东二环泰禾广场中心地上三层L320-2, 马江园区罗星路西北侧",119.34,26.09,Fujian,Fuzhou
福州马尾中环广场店,福州市,"马尾区, 中环广场地上一层C01号商铺, 国宾大道268号永嘉天地",119.47,25.99,Fujian,Fuzhou
福州闽侯永嘉天地店,福州市,"闽侯县, 16#楼地上一层1001单元, 晋安区晋连路18号",119.2,26.07,Fujian,Fuzhou
福州世欧广场分店,福州市,"福州市, 福州世欧广场地上一层的A3-1-32 和A3-1-33 单元, 工业路233号",119.33,26.07,Fujian,Fuzhou
福州苏宁广场分店,福州市,"台江区, 苏宁广场地上第一层的110室, 南后街101号",119.29,26.06,Fujian,Fuzhou
福州三坊七巷店,福州市,"鼓楼区, 苍霞路 13 号",119.3,26.08,Fujian,Fuzhou
福州青年会分店,福州市,"台江区, 第一层的 101 单元, 荔华东大道8 号",119.31,26.05,Fujian,Fuzhou
莆田万达广场分店,莆田市,"城厢区, 莆田万达广场地上一层 A177、A178 号铺位, 荔园路与天妃路交叉路口西南侧",119.0,25.42,Fujian,Putian
莆田正荣财富中心店,莆田市,"荔城区, 正荣财富中心A1座地上一层1018单元, 镇海街道北大北街80号",119.03,25.42,Fujian,Putian
莆田金鼎广场分店,莆田市,"荔城区, 金鼎广场一层的L140-L142单元, 曹溪镇双龙路1号",119.02,25.43,Fujian,Putian
龙岩万达广场分店,龙岩市,"龙岩市新罗区, ""万达广场地面一层1001号铺位, 龙岩大道388号",117.02,25.06,Fujian,Longyan
龙岩万宝广场店,龙岩市,"龙岩市新罗区, 万宝广场第一层的1026铺, 长虹大道与长江大道交汇处西北角",117.02,25.08,Fujian,Longyan
九江九方购物中心店,九江市,"经济技术开发区, 九方购物中心1F, 京九路9号",115.98,29.69,Jiangxi,Jiujiang
九江联盛快乐城,九江市,"经济技术开发区, 联盛快乐城1F, 南龙蟠路666号",115.97,29.7,Jiangxi,Jiujiang
南昌万达文化旅游城店,南昌市,"红谷滩新区, 万达茂一层, 阳明东路66号",115.8,28.58,Jiangxi,Nanchang
南昌央央春天店,南昌市,"东湖区, 央央春天投资大厦1层, 金沙大道2133号",115.9,28.69,Jiangxi,Nanchang
南昌新力愉景湾店,南昌市,"象湖新城, 新力都荟1层, 红谷中大道998号",115.89,28.58,Jiangxi,Nanchang
南昌红谷滩百盛店,南昌市,"红谷滩新区, 红谷滩百盛1F-A8, 红谷中大道1706号",115.85,28.68,Jiangxi,Nanchang
南昌世茂广场店,南昌市,"红谷滩新区, 南昌世茂广场一层119号, 会展路999号",115.87,28.69,Jiangxi,Nanchang
南昌红谷滩万达店,南昌市,"红谷滩区, 中山路318号",115.85,28.69,Jiangxi,Nanchang
南昌中山天虹店,南昌市,"西湖区, 天虹商场1层, 红谷中大道和绿茵路交汇处",115.89,28.68,Jiangxi,Nanchang
南昌红谷滩天虹店,南昌市,"红谷滩新区, 联发广场一层1003单元, 北京东路418号",115.86,28.69,Jiangxi,Nanchang
南昌恒茂梦时代广场店,南昌市,"青山湖区, 恒茂梦时代广场店一层, 中山路1号",115.94,28.67,Jiangxi,Nanchang
南昌百货大楼店,南昌市,"东湖区, 广场南路205号",115.9,28.68,Jiangxi,Nanchang
南昌恒茂国际华城店,南昌市,"西湖区, 恒茂国际华城19栋一层, 北一路730号",115.91,28.67,Jiangxi,Nanchang
东营万达咖啡店,东营市,"东营区, 万达广场一楼, 解放路183号",118.54,37.46,Shandong,Dongying
临沂九州咖啡店,临沂市,"兰山区, 九州商业大厦一层, 沂蒙北路87号",118.33,35.07,Shandong,Linyi
临沂颐高上海街咖啡店,临沂市,"兰山区, 颐高上海街一层, 解放路和通达路交汇处",118.34,35.11,Shandong,Linyi
临沂和谐广场咖啡店,临沂市,"兰山区, 和谐广场一层, 新威路17号",118.33,35.06,Shandong,Linyi
威海威高广场咖啡店,威海市,"环翠区, 威高广场迪尚大厦一层C4-XP-101单元, 世昌大道1号",122.12,37.5,Shandong,Weihai
威海银座咖啡店,威海市,"环翠区, （银座商城）零售商区的地上一层, 华夏路18号",122.13,37.5,Shandong,Weihai
威海永旺购物中心店,威海市,"威海市, 永旺购物中心1层T145单元, 东风东路1899号",122.15,37.43,Shandong,Weihai
德州澳德乐广场店,德州市,"经济开发区, 澳德乐时代广场一层F1101, 湖滨南大道669号",116.37,37.43,Shandong,Dezhou
德州万达广场店,德州市,"德城区, 万达广场一楼, 烟台路176号",116.31,37.43,Shandong,Dezhou
日照万象汇店,日照市,"东港区, 华润万象汇地上1层L-101, 泰山大街566号",119.53,35.42,Shandong,Rizhao
泰安万达咖啡店,泰安市,"泰山区, 经十路19288号",117.09,36.18,Shandong,Taian
济南玉函路咖啡店,济南市,"历下区, 鲁商泉城中心城市广场c地块B楼地上一层, 共青团路25号",117.01,36.65,Shandong,Jinan
济南绿地中心店,济南市,"市中区, 绿地中心一号楼一层, 济南银座商城二层",117.01,36.66,Shandong,Jinan
济南银座店,济南市,泺源大街66号,117.03,36.66,Shandong,Jinan
济南万达店,济南市,"市中区市中区经四路5号魏家庄万达广场一层, 泉城路188号",117.0,36.66,Shandong,Jinan
济南恒隆二店,济南市,"历下区, 济南恒隆广场东翼一层, 工业南路44号",117.02,36.66,Shandong,Jinan
济南丁豪广场咖啡店,济南市,"高新区, 丁豪广场2号楼1层110单元, 崇华路2666号",117.12,36.68,Shandong,Jinan
济南银荷大厦店,济南市,"高新区, 联荷雨滴广场B1层B3单元、F1层103单元, 工业南路57号",117.13,36.67,Shandong,Jinan
济南高新万达广场店,济南市,"高新区, 万达广场1层, 新泺大街",117.13,36.68,Shandong,Jinan
济南美莲广场店,济南市,"高新区, 新泺大街1166号, 窑头路8号",117.14,36.68,Shandong,Jinan
济南燕山银座咖啡店,济南市,"历下区, 燕山银座一层, 泉城路188号",117.08,36.65,Shandong,Jinan
济南恒隆店,济南市,"历下区, 济南恒隆广场店一层177号, 济南市中区经四路5号",117.02,36.66,Shandong,Jinan
济南经四路万达影院店,济南市,"市中区, 万达广场5层万达影城, 遥墙机场候机楼一层到大厅（5、6号门对面）",117.0,36.66,Shandong,Jinan
济南遥墙机场店,济南市,"历称区, C-13单元, 二环南路6638号中海环宇城",117.21,36.85,Shandong,Jinan
济南中海环宇城店,济南市,"市中区, 一层105.106号商铺, 泉城路101号贵和商厦一层",116.98,36.61,Shandong,Jinan
济南贵和店,济南市,"历下区, 经十路22799号",117.03,36.67,Shandong,Jinan
济南银隆店,济南市,"槐荫区, 银隆购物中心一层125, 太白楼路17号",116.98,36.65,Shandong,Jinan
济宁运河城咖啡店,济宁市,"市中区, 济宁运河城广场地上一层国际-01D, 太白楼东路55号",116.59,35.41,Shandong,Jining
济宁万达广场咖啡店,济宁市,"市中区, 济宁万达广场一层1001店铺, 金宇路59号",116.6,35.41,Shandong,Jining
济宁贵和购物广场,济宁市,"任城区, 贵和购物广场1层, 金晶大道66号",116.6,35.43,Shandong,Jining
淄博万象汇店,淄博市,"张店区, 华润万象汇一层, 金晶大道125号",118.06,36.8,Shandong,Zibo
淄博商厦咖啡店,淄博市,"张店区, 淄博商厦一层, 鲁泰大道9号",118.06,36.8,Shandong,Zibo
淄博银泰城咖啡店,淄博市,"高新区, 名尚银泰城一层, 中润大道1号",118.04,36.85,Shandong,Zibo
淄博新玛特咖啡店,淄博市,"张店区, 淄博新玛特一层, 柳泉路152号",118.03,36.84,Shandong,Zibo
淄博茂业天地咖啡店,淄博市,"张店区, 淄博茂业天地一层, 胜利东街4000号",118.05,36.81,Shandong,Zibo
潍坊胜利东街银座商城店,潍坊市,"奎文区, 潍坊银座商城地上一层102铺位, 鸢飞路958号",119.16,36.7,Shandong,Weifang
潍坊万达广场咖啡店,潍坊市,"奎文区, 万达广场零售商区一层1001号",119.13,36.72,Shandong,Weifang
潍坊泰华广场店,潍坊市,"东风东街泰华假日广场一层, 福寿东街4369号",119.11,36.71,Shandong,Weifang
潍坊谷德广场咖啡店,潍坊市,"高新技术开发区, 谷德广场一层, 清泉路27号",119.17,36.72,Shandong,Weifang
烟台新世界咖啡店,烟台市,"莱山区, 烟台新世界一层, 衡山路17号",121.45,37.48,Shandong,Yantai
烟台开发区万达广场店,烟台市,"经济技术开发区, 万达广场一楼, 西关南街6号",121.25,37.55,Shandong,Yantai
烟台万达咖啡店,烟台市,"芝罘区, 万达广场零售商区一层1062a商铺, 南大街166号",121.39,37.54,Shandong,Yantai
烟台百盛店,烟台市,"芝罘区, 百盛购物中心一层, 西大街8号",121.38,37.54,Shandong,Yantai
烟台振华商厦咖啡店,烟台市,"芝罘区, 振华商厦一层, 观海路277号",121.38,37.54,Shandong,Yantai
烟台观海路咖啡店,烟台市,"莱山区, 佳世客一层, 北马路150号",121.45,37.47,Shandong,Yantai
烟台大悦城咖啡店,烟台市,"芝罘区, 大悦城1F-13和2F-17号商铺, 迎春大街253号",121.39,37.55,Shandong,Yantai
烟台莱山振华商厦咖啡店,烟台市,"莱山区, 振华商厦一层, 香港中路与延安三路交汇处,",121.43,37.45,Shandong,Yantai
青岛海航万邦中心店,青岛市,"市南区, ""海航万邦中心 "", 香港中路69号",120.38,36.06,Shandong,Qingdao
青岛麦凯乐分店,青岛市,"市南区, 麦凯乐商场一层, 合肥路672号",120.4,36.07,Shandong,Qingdao
青岛合肥路永旺广场店,青岛市,"市北区, 永旺广场三层T323, 哈尔滨路88号",120.41,36.11,Shandong,Qingdao
青岛麦凯乐新都心店,青岛市,"市北区, 麦凯乐新都购物广场一层AF1001铺位, 香港东路195号乙",120.39,36.11,Shandong,Qingdao
青岛金狮广场二店,青岛市,"崂山区, 金狮广场零售商区地上四层L4-26A商铺, 正阳路136号",120.46,36.1,Shandong,Qingdao
青岛家佳源城阳分店,青岛市,"城阳区, 城阳家佳源购物中心西侧, 青岛流亭国际机场候机楼二楼",120.42,36.3,Shandong,Qingdao
青岛流亭机场店,青岛市,"城阳区, T-G-34-1标段, 澳门路88号",120.39,36.27,Shandong,Qingdao
青岛百丽广场店,青岛市,"市南区, 百丽一层",120.39,36.06,Shandong,Qingdao
青岛颐和国际店,青岛市,"香港中路10号颐和国际一层102, 延吉路112号",120.38,36.07,Shandong,Qingdao
青岛青岛延吉万达店,青岛市,"市北区, 万达广场一层, 香港东路195号乙",120.38,36.09,Shandong,Qingdao
青岛金狮广场店,青岛市,"崂山区, 金狮广场地上一层L1-15及-L1-17, 山东路6号",120.46,36.09,Shandong,Qingdao
青岛万象城第二分店,青岛市,"市南区, 华润中心万象城地上五层L-537, 巨峰路148号",120.38,36.07,Shandong,Qingdao
青岛李沧万达广场店,青岛市,"李沧区, 李沧万达广场中9-1-2地块二层237号铺位",120.43,36.17,Shandong,Qingdao
青岛阳光店,青岛市,香港中路38号,120.39,36.07,Shandong,Qingdao
青岛佳世客店,青岛市,"香港中路72号, 香港中路31号",120.4,36.06,Shandong,Qingdao
青岛香港中路银座商厦,青岛市,"市南区, 银座商厦一层, 长江中路419号",120.39,36.07,Shandong,Qingdao
青岛黄岛佳世客店,青岛市,"黄岛经济技术开发区, 奥帆基地",120.19,35.96,Shandong,Qingdao
青岛心海广场店,青岛市,"燕尔岛路1号, 心海广场一层星巴克店, 长江中路308号",120.39,36.05,Shandong,Qingdao
青岛黄岛家佳源分店,青岛市,"黄岛经济开发区, 家佳源一层, 同安路880号",120.19,35.95,Shandong,Qingdao
青岛大拇指广场分店,青岛市,"崂山区, 青岛证大大拇指广场1F-02, 海信广场地下一层055-3号",120.45,36.11,Shandong,Qingdao
青岛海信广场店,青岛市,"澳门路117号, 巨峰路178号",120.4,36.06,Shandong,Qingdao
青岛李沧万达广场第二店,青岛市,"李沧区, 李沧万达一层, 广州南路26号",120.43,36.17,Shandong,Qingdao
青岛科润城分店,青岛市,"胶州市, 润城小区1号楼商业单元一层145，149户, 山东路6号",120.01,36.28,Shandong,Qingdao
青岛万象城分店,青岛市,"市南区, 华润中心万象城B-149, 夏庄路7号",120.38,36.07,Shandong,Qingdao
青岛伟东乐客城店,青岛市,"李沧区, 伟东乐客城一层, 文阳路269号",120.43,36.16,Shandong,Qingdao
青岛四季春天宝龙店,青岛市,"城阳区, 黑龙江南路16、18号",120.4,36.3,Shandong,Qingdao
青岛凯德新都心店,青岛市,"市北区, 凯德Mall新都心地上一层01-27号, 秦岭路18号",120.39,36.11,Shandong,Qingdao
青岛丽达购物中心店,青岛市,"崂山区, 展览路南",120.47,36.1,Shandong,Qingdao
洛阳泉舜店,洛阳,"洛龙区, 泉舜购物中心广场, 中州中路429号",112.45,34.61,,
洛阳中州路王府井店,洛阳,"西工区, 王府井百货一楼, 南昌路与丽春路交叉口",112.43,34.67,,
洛阳南昌路王府井店,洛阳,"涧西区, 王府井购物中心一楼, 二七路188号",112.41,34.64,,
郑州丹尼斯大卫城,郑州市,"郑州市, 丹尼斯大卫城B1F-35, 金水路和未来路及中州大道的交汇处",113.67,34.76,Henan,Zhengzhou
郑州曼哈顿广场店,郑州市,"金水区, 曼哈顿广场C区11号楼1-2楼, 棉纺西路与桐柏路交叉口西",113.71,34.76,Henan,Zhengzhou
郑州锦艺城王府井店,郑州市,"中原区, 王府井百货一层A1-1, 北环路文化路交汇处东南角",113.61,34.76,Henan,Zhengzhou
郑州北金时尚广场店,郑州市,"金水区, 瀚海北金商业广场一楼, 航海中路与大学中路交汇口",113.67,34.81,Henan,Zhengzhou
郑州二七万达店,郑州市,"二七区, 郑州二七万达广场, CBD",113.64,34.72,Henan,Zhengzhou
郑州绿地千玺店,郑州市,"郑东新区, 绿地千玺广场御湖道, 花园路8号",113.73,34.77,Henan,Zhengzhou
郑州正道花园道店,郑州市,"金水区, 正道花园百货一层, 二七路230号",113.68,34.77,Henan,Zhengzhou
郑州华联商厦店,郑州市,"二七区, 郑州华联商厦一层1066单元, 东太康路72号",113.67,34.75,Henan,Zhengzhou
郑州二七百盛店,郑州市,"管城区, 百盛购物广场一楼",113.67,34.75,Henan,Zhengzhou
郑州中原万达店,郑州市,"中原西路南秦岭路西万达广场1楼, 民主路和解放路交叉口",113.6,34.75,Henan,Zhengzhou
郑州万象城店,郑州市,"二七区, 华润万象城购物中心B123号商铺, 商务西八街北、商务西七街南",113.66,34.76,Henan,Zhengzhou
郑州丹尼斯CBD一天地,郑州市,"郑东新区, 丹尼斯一天地一层11F-027, 东风南路东、康宁街北",113.72,34.77,Henan,Zhengzhou
郑州海汇中心店,郑州市,"郑东新区, 海马国际商务中心一期A1地块8号楼, 紫荆山路57号",113.77,34.75,Henan,Zhengzhou
郑州紫荆山新世界店,郑州市,"管城回族区, 新世界百货1-11号, 开元路68号",113.68,34.75,Henan,Zhengzhou
郑州惠济万达店,郑州市,"惠济区, 地面一层1053号, 众意路G段",113.64,34.87,Henan,Zhengzhou
郑州CBD七天地店,郑州市,"郑东新区, 丹尼斯七天地第七天地一层710001单元, 国贸360广场4号楼1层",113.72,34.78,Henan,Zhengzhou
郑州国贸360广场店,郑州市,"花园路39号, 北二七路200号",113.68,34.79,Henan,Zhengzhou
郑州大商新玛特金博大店,郑州市,"二七区, 金博大城一楼, 北京北路99号",113.67,34.76,Henan,Zhengzhou
十堰万达店,十堰市,"张湾区, 万达广场一楼, 夷陵大道56号",110.81,32.66,Hubei,Shiyan
宜昌大洋百货店,宜昌市,"西陵区, 大洋百货（德克士和肯德基中间）, 沿江大道特166号",111.29,30.71,Hubei,Yichang
宜昌沿江路万达广场店,宜昌市,"伍家岗区, 宜昌万达广场一层127、128号, 发展大道13号",111.31,30.68,Hubei,Yichang
宜昌水悦城分店,宜昌市,"开发区, 水悦城一层102单元, 东山大道106号",111.32,30.71,Hubei,Yichang
宜昌国贸大厦店,宜昌市,"西陵区, 国贸大厦一楼, 张之洞路151号",111.3,30.7,Hubei,Yichang
武汉首义汇店,武汉市,"武昌区, 南国首义汇一层 85-88室, 东风3路15号",114.3,30.53,Hubei,Wuhan
武汉东合中心店,武汉市,"沌口经济开发区, 东合中心一层, 中科协中商大厦1层",114.16,30.51,Hubei,Wuhan
武汉大学店,武汉市,"武汉大学大门口, 中山大道242号",114.36,30.53,Hubei,Wuhan
武汉武胜凯德广场店,武汉市,"硚口区, 武胜凯德广场一层18、二层12商铺, 中南路99号",114.27,30.57,Hubei,Wuhan
武汉保利广场店,武汉市,"武昌区, 武汉保利广场一层, 盘龙城经济开发区盘龙大道51号",114.34,30.54,Hubei,Wuhan
武汉百联奥特莱斯店,武汉市,"黄陂区, 百联奥特莱斯广场15栋137B, 中山大道704号",114.26,30.73,Hubei,Wuhan
武汉民众乐园店,武汉市,"江汉区, 关山大道479号",114.29,30.58,Hubei,Wuhan
武汉光谷天地店,武汉市,"东湖新技术开发区, 光谷天地一楼, 中山大道1618号",114.41,30.48,Hubei,Wuhan
武汉新天地店,武汉市,"江岸区, 武汉新天地A4地块一期一号一楼, 解放大道201号",114.31,30.61,Hubei,Wuhan
武汉南国西汇店,武汉市,"硚口区, 南国西汇一楼, 将军路街办事处金银潭大道1号",114.22,30.58,Hubei,Wuhan
武汉金银潭永旺梦乐城店,武汉市,"东西湖区, 永旺梦乐城1F, 江城大道388号",114.24,30.65,Hubei,Wuhan
武汉经开永旺梦乐城店,武汉市,"经济技术开发区, 永旺梦乐城武汉经开店一层A172 号, 和平大道809号",114.21,30.51,Hubei,Wuhan
武汉奥山世纪城2店,武汉市,"青山区, 奥山世纪城3号楼, 江汉一路19号二层B-11",114.36,30.62,Hubei,Wuhan
武汉欧利新天地店,武汉市,"江汉区, 珞瑜路726号",114.29,30.58,Hubei,Wuhan
武汉鲁巷广场店,武汉市,"东湖开发区, 鲁巷广场购物中心一楼, 东湖新技术开发区珞瑜路889号",114.4,30.51,Hubei,Wuhan
武汉光谷国际广场店,武汉市,"洪山区, 光谷国际广场一层, 中山路与友谊大道交汇",114.4,30.51,Hubei,Wuhan
武汉昙华林分店,武汉市,"武昌区, 南国昙华林1F, 建设大道737号",114.32,30.55,Hubei,Wuhan
武汉广发银行大厦店,武汉市,"江汉区, 武汉广东发展银行大厦一层, 中南路街武珞路586号",114.27,30.6,Hubei,Wuhan
武汉百瑞景店,武汉市,"武昌区, 宝通寺路百瑞景商业5号楼1层, 青年路308号花园道1楼",114.33,30.52,Hubei,Wuhan
武汉花园道店,武汉市,"江汉区, 余家头村",114.27,30.6,Hubei,Wuhan
武汉奥山世纪城店,武汉市,"武昌区, 奥山世纪广场一层, 长青一路218号",114.36,30.62,Hubei,Wuhan
武汉新唐万科广场店,武汉市,"江汉区, 新唐万科广场一层1-35号商铺, 武汉火车站",114.26,30.62,Hubei,Wuhan
武汉火车站到达层,武汉市,"洪山区, 武汉火车站到达层靠近西出站口, 汉街武汉中央文化旅游区",114.43,30.61,Hubei,Wuhan
武汉汉街万达知音广场店,武汉市,"武昌区, 知音广场J3-5-16号, 水果湖街中北路166号",114.34,30.56,Hubei,Wuhan
武汉菩提金国际广场店,武汉市,"武昌区, 中山大道756号",114.36,30.57,Hubei,Wuhan
武汉中山大洋百货店,武汉市,"江汉区, 中山大洋百货1层A17单元, 汉街万达广场1楼",114.29,30.58,Hubei,Wuhan
武汉汉街万达店,武汉市,"东湖中央商务区, 徐东大街120号群星城一层",114.35,30.55,Hubei,Wuhan
武汉群星城分店,武汉市,"武昌区, 群星城一层SL1-07单元, 龙阳大道36号",114.35,30.58,Hubei,Wuhan
武汉大洋百货龙阳店,武汉市,"汉阳区, 龙阳大洋百货一层1A 14-15单元, 新马路3号",114.21,30.56,Hubei,Wuhan
武汉融科天城店,武汉市,"江岸区, 融科天城三期13#、14#商铺, 中北路31号",114.3,30.6,Hubei,Wuhan
武汉凯德1818店,武汉市,"武昌区, 凯德1818一层, 中山大道215号",114.34,30.55,Hubei,Wuhan
武汉市第一医院店,武汉市,"硚口区, 武汉市第一医院2楼, 和平街三角路村福星惠誉",114.27,30.57,Hubei,Wuhan
武汉水岸国际店,武汉市,"武昌区, 水岸国际三号楼一层, 洪山地铁站",114.32,30.57,Hubei,Wuhan
武汉洪山广场站店,武汉市,"武昌区, 负一层商业街（靠近D出口）, 解放路338-342号",114.34,30.55,Hubei,Wuhan
武汉司门口店,武汉市,"武昌区, 黄鹤楼街, 欢乐大道75号",114.3,30.54,Hubei,Wuhan
武汉骏业财富中心店,武汉市,"洪山区, 骏业财富中心一层06单元, 销品茂购物广场一楼",114.36,30.58,Hubei,Wuhan
武汉徐东销品茂店,武汉市,"徐东大街18号, 中央文化旅游区",114.34,30.59,Hubei,Wuhan
武汉汉街万达百货店,武汉市,"武昌区, 汉街万达广场4002号, 工农路长宜路1号",114.34,30.56,Hubei,Wuhan
武汉宜家店,武汉市,"硚口区, 宜家购物中心6-11-03-SU单元, 武珞路456号",114.17,30.62,Hubei,Wuhan
武汉新时代商务中心店,武汉市,"武昌区, 新时代商务中心写字楼一层, 中南路14号",114.33,30.53,Hubei,Wuhan
武汉中南银泰,武汉市,"洪山区, 银泰百货武汉世纪店一层, 新华西路",114.33,30.54,Hubei,Wuhan
武汉1911店,武汉市,"江汉区, 大武汉1911项目C栋一层, 菱角湖万达广场1楼",114.26,30.61,Hubei,Wuhan
武汉万达广场店,武汉市,"新华西路与新华下路交汇处, 建设大道568号",114.27,30.61,Hubei,Wuhan
武汉国贸新世界店,武汉市,"江汉区, 国贸新世界商场一层, 雄楚大道888号",114.27,30.59,Hubei,Wuhan
武汉雄楚一号店,武汉市,"洪山区, 武汉工程大学正对面, 云杉路199号",114.39,30.5,Hubei,Wuhan
武汉泛海城市广场店,武汉市,"江汉区, 武汉泛海城市广场购物中心1楼, 中山大道888号",114.26,30.6,Hubei,Wuhan
武汉王府井店,武汉市,"江汉区, 王府井百货一楼, 龙阳大道特6号",114.29,30.58,Hubei,Wuhan
武汉摩尔城店,武汉市,"汉阳区, 花楼街198号1楼",114.21,30.56,Hubei,Wuhan
武汉宝利金店,武汉市,"江汉区, 徐东大街9号",114.29,30.58,Hubei,Wuhan
武汉徐东新世界店,武汉市,"武昌区, 徐东新世界百货1楼, 龙阳村",114.35,30.59,Hubei,Wuhan
武汉汉阳人信汇店,武汉市,"汉阳区, 人信汇7号楼一楼7-103A商铺, 关山大道332号保利时代广场",114.21,30.55,Hubei,Wuhan
武汉保利时代,武汉市,"东湖新技术开发区, C栋商业裙楼地上一层101及102单元, 东湖新技术开发区珞瑜路",114.41,30.49,Hubei,Wuhan
武汉光谷德国风情街店,武汉市,"武昌区, 光谷世界城广场四期德国风情街1F, 江汉路257号",114.41,30.5,Hubei,Wuhan
武汉大润发店,武汉市,"江汉区, 大润发超市1楼, 珞瑜路6号",114.29,30.59,Hubei,Wuhan
武汉群光百货店,武汉市,"洪山区, 群光广场一楼, 建设大道延长线与幸福大道交汇处",114.36,30.53,Hubei,Wuhan
武汉汉口城市广场店,武汉市,"江岸区, 汉口城市广场二期一层35、37号, 雄楚大街与民院路交汇处东南角",114.31,30.65,Hubei,Wuhan
武汉洪福添美店,武汉市,"东湖开发区, 中山大道1515号",114.4,30.5,Hubei,Wuhan
武汉壹方购物中心店,武汉市,"江岸区, 壹方购物中心1F商场内, 临江大道96号",114.31,30.61,Hubei,Wuhan
武汉万达中心店,武汉市,"武昌区, 武汉万达中心写字楼一层, 新世界百货中心一楼",114.31,30.57,Hubei,Wuhan
武汉新世界店,武汉市,"汉口解放大道634号, 珞瑜路",114.27,30.58,Hubei,Wuhan
武汉光谷世界城三期店,武汉市,"东湖新技术开发区, 光谷世界城意大利风情街3号楼1层, 龙阳大道经开万达购物广场",114.41,30.5,Hubei,Wuhan
武汉经开万达店,武汉市,"沌口开发区, 珞瑜路1号鹏程国际大厦",114.17,30.51,Hubei,Wuhan
武汉街道口新世界店,武汉市,"洪山区, 新世界百货1层010180A铺位, 南湖大道116号",114.35,30.53,Hubei,Wuhan
武汉南湖时尚城店,武汉市,"东湖新技术开发区, 南湖时尚城一层, 解放大道1277号",114.39,30.48,Hubei,Wuhan
武汉协和医院店,武汉市,"江汉区, 协和医院B1F, 百步亭花园路18号",114.27,30.58,Hubei,Wuhan
武汉幸福里店,武汉市,"江岸区, 幸福时代, 南湖街南湖城市广场一楼",114.32,30.66,Hubei,Wuhan
武汉南湖城市广场店,武汉市,"武昌区, 大庆西路19号",114.33,30.51,Hubei,Wuhan
襄阳天元四季城店,襄樊市,"樊城区, 天元四季城1楼, 长虹北路9号",112.15,32.04,,
襄阳万达广场店,襄阳市,"高新区, 万达广场一楼1号门, 长虹路13号",112.13,32.06,Hubei,Xiangyang
襄阳民发商业广场店,襄阳市,"樊城区, 民发商业广场A幢, 花湖大道30号",112.14,32.04,Hubei,Xiangyang
黄石万达广场店,黄石市,"黄石港区, 黄石万达广场购物中心一层, 岳阳市金鹗中路与学院路交汇处",115.06,30.24,Hubei,Huangshi
岳阳步步高广场,岳阳市,"岳阳楼区, 东茅岭路42号",113.14,29.36,Hunan,Yueyang
岳阳天虹百货店,岳阳市,"岳阳楼区, 中航国际广场, 银天广场一层1016单元",113.11,29.37,Hunan,Yueyang
株洲天虹百货店,株洲市,"天元区, 车站路61号一层102单元",113.13,27.83,Hunan,Zhuzhou
株洲平和堂店,株洲市,"芦淞区, 平和堂商场1楼, 建设南路102号",113.15,27.83,Hunan,Zhuzhou
湘潭建设南路店,湘潭市,"岳塘区, 步步高购物广场1楼, 双马街道芙蓉路26号",112.92,27.83,Hunan,Xiangtan
湘潭万达店,湘潭市,"岳塘区, 万达广场1F, 船山西路2号",112.94,27.83,Hunan,Xiangtan
衡阳崇盛晶珠广场店,衡阳市,"蒸湘区, 崇尚晶珠广场1楼, 426号",112.6,26.9,Hunan,Hengyang
衡阳连卡福店,衡阳市,"蒸湘区, 连卡福商业广场一层, 解放路121号",112.56,26.89,Hunan,Hengyang
衡阳大洋百货店,衡阳市,"雁峰区, 大洋百货一层, 韶山北路488号",112.6,26.89,Hunan,Hengyang
长沙平和塘店,长沙市,"雨花区, 平和堂商场GF层, 沙湾路289号",112.99,28.17,Hunan,Changsha
长沙运达中央广场店,长沙市,"雨花区, 运达中央广场, 枫林路2号",113.04,28.17,Hunan,Changsha
长沙通程店,长沙市,"岳麓区, 东厢2号新天地大厦",112.95,28.2,Hunan,Changsha
长沙黄兴路店,长沙市,"黄兴南路步行街, 八一路1号",112.98,28.19,Hunan,Changsha
长沙阿波罗商业广场店,长沙市,"芙蓉区, 阿波罗商业广场一层, 黄兴中路88号",113.01,28.2,Hunan,Changsha
长沙五一平和堂店,长沙市,"芙蓉区, 负一层101单元, 麓山南路",112.98,28.19,Hunan,Changsha
长沙麓南广场店,长沙市,"岳麓区, 麓南商业广场, 金星大道与桐梓坡路交汇处东北角",112.93,28.16,Hunan,Changsha
长沙步步高店,长沙市,"岳麓区, 黄兴中路188号",112.94,28.22,Hunan,Changsha
长沙亿万豪店,长沙市,"芙蓉区, 凯德广场雨花亭",112.98,28.2,Hunan,Changsha
长沙雨花亭凯德店,长沙市,"韶山中路421号, 溁银路与岳麓大道交汇处",113.0,28.15,Hunan,Changsha
长沙奥克斯店,长沙市,"岳麓区, 奥克斯广场一层, 星沙大道186号",112.95,28.22,Hunan,Changsha
长沙星沙万象汇店,长沙市,"经济技术开发区, 华润万象汇1楼, 万家丽路与木莲冲路交汇处",113.09,28.25,Hunan,Changsha
长沙喜盈门店,长沙市,"雨花区, 喜盈门•范城3-101, 芙蓉南路368号",113.04,28.14,Hunan,Changsha
长沙芙蓉南路天虹百货店,长沙市,"天心区, 天虹百货一楼, 湘府中路18号",112.99,28.14,Hunan,Changsha
长沙德思勤广场,长沙市,"雨花区, 德思勤广场一楼, 湘江中路中山路589",113.01,28.11,Hunan,Changsha
长沙开福万达广场店,长沙市,"开福区, 长沙开福万达广场2F-07号, 解放西路209号",112.97,28.2,Hunan,Changsha
长沙解放西路店,长沙市,"天心区, 中山路589号",112.97,28.19,Hunan,Changsha
长沙开福万达II店,长沙市,"开福区, 开福万达2号门旁1楼, 韶山中路1号",112.97,28.2,Hunan,Changsha
长沙东塘荟店,长沙市,"雨花区, 萧影大厦1楼, 金星中路383号",112.99,28.17,Hunan,Changsha
长沙河西王府井购物店,长沙市,"岳麓区, 王府井购物中心B1-A05, 太平街167号",112.93,28.22,Hunan,Changsha
长沙太平街店,长沙市,"天心区, 万家丽中路一段318号",112.97,28.19,Hunan,Changsha
长沙西子花苑店,长沙市,"雨花区, 西子花苑一层, 枫林三路1099号",113.03,28.18,Hunan,Changsha
长沙步步高梅溪新天地店,长沙市,"岳麓区, 步步高梅溪新天地广场1F, 芙蓉中路一段109号",112.86,28.2,Hunan,Changsha
长沙华创国际广场店,长沙市,"开福区, 华创国际广场B-101、B-102号商铺, 黄花国际机场T2航站楼",112.99,28.22,Hunan,Changsha
长沙黄花国际机场,长沙市,"长沙县, 负一楼-124铺, 王府井商业广场一层",113.22,28.19,Hunan,Changsha
长沙王府井店,长沙市,"天心区, 沁园路七号",112.98,28.19,Hunan,Changsha
东莞松山湖店,东莞市,"松山湖高新技术产业开发区, 长城世家商业街105、106号商铺",113.89,22.93,Guangdong,Dongguan
东莞豪门饭店店,东莞市,"虎门镇虎门大道121号豪门饭店一、二层, 连升北路虎门万达广场",113.68,22.82,Guangdong,Dongguan
东莞虎门万达广场店,东莞市,"东莞市, 虎门万达广场一层1032和1033号单元, 东纵路 208 号",113.68,22.83,Guangdong,Dongguan
东莞东城万达广场分店,东莞市,"东城区, 万达广场室内步行街1001和1002号, 居委会市场路",113.78,23.04,Guangdong,Dongguan
东莞常平市场路店,东莞市,"常平镇, 富盈广场首层, 虎门地标广场天虹商场第1层1200号",114.0,22.97,Guangdong,Dongguan
东莞虎门天虹店,东莞市,"虎门镇金洲社区, 旗峰路200号",113.69,22.81,Guangdong,Dongguan
东莞莞城万科中心店,东莞市,"莞城区, 万科中心首层L1-001商铺, 东城中心A1区裙楼",113.76,23.02,Guangdong,Dongguan
东莞星玺广场分店,东莞市,"东城区, 310004、320013号铺, 迎宾大道1号",113.78,23.03,Guangdong,Dongguan
东莞塘厦万科生活广场店,东莞市,"塘厦镇, 万科生活广场首层L1-012单元, 鸿福路88号时尚岛首层",114.08,22.81,Guangdong,Dongguan
东莞时尚岛店,东莞市,"南城区, 长青路1号",113.74,23.02,Guangdong,Dongguan
东莞长安万科广场店,东莞市,"长安镇, 万科广场首层L1-052",113.8,22.8,Guangdong,Dongguan
东莞中心广场店,东莞市,"中心广场东莞名牌商业街A28、A29号商铺, 康乐北路6 号",113.76,23.02,Guangdong,Dongguan
东莞厚街万达广场店,东莞市,"厚街镇, 宏图大道19号",113.67,22.94,Guangdong,Dongguan
东莞宏图路店,东莞市,"南城区, 城市风情街区18栋1、2座18-103商铺, 鸿福路200 号海德广场2栋",113.74,23.0,Guangdong,Dongguan
东莞海德广场店,东莞市,"南城区, 101,201-HD-001,D-201单元铺, 大运城邦花园一区三期益田假日天地",113.76,23.01,Guangdong,Dongguan
东莞益田假日天地店,东莞市,"凤岗镇官井头村龙平南路一号, L1-73-74、L2-34-2号商铺, 二区2栋万科生活广场一层",114.21,22.72,Guangdong,Dongguan
东莞松山湖万科生活店,东莞市,"松山湖万科松湖中心, L1-001单元和第二层L2-001单元, 莞樟路与西城路交汇处",113.89,22.93,Guangdong,Dongguan
东莞天一城店,东莞市,"樟木头镇, 天一城购物中心1层, 新城社区万江街南10号",114.06,22.91,Guangdong,Dongguan
东莞万江华南Mall店,东莞市,"万江区, 嘉荣超市华南摩尔店第一层100号, 万达广场",113.73,23.04,Guangdong,Dongguan
东莞长安万达广场店,东莞市,"长安镇, 室内步行街一层1057号铺, 教育路与东风路交汇处",113.82,22.81,Guangdong,Dongguan
东莞厚街天虹店,东莞市,"厚街镇, 天虹商场一层1003号铺, 鸿福路200号",113.66,22.94,Guangdong,Dongguan
东莞汇一城店,东莞市,"南城区, 第一国际汇一城购物中心1层122号铺, 东纵路111号",113.76,23.01,Guangdong,Dongguan
东莞君尚百货店,东莞市,"莞城区, 中银广场首层1-001单元",113.77,23.04,Guangdong,Dongguan
东莞厚街康乐南店,东莞市,厚街镇康乐南路112号康华城首、二楼,113.66,22.93,Guangdong,Dongguan
东莞常平星汇店,东莞市,"常平镇常平大道星汇中心首层, 东城大道愉景雅苑二号楼8号铺",114.0,22.97,Guangdong,Dongguan
东莞愉景雅苑店,东莞市,"东城区, 观澜湖高尔夫球会东莞会所",113.77,23.03,Guangdong,Dongguan
东莞观澜湖高尔夫分店,东莞市,"塘厦镇大坪林坪路, 球场出发锦标廊区, 宏伟路1号",114.01,22.78,Guangdong,Dongguan
东莞景湖时代城店,东莞市,"南城区, 景湖时代城1棟46、47号商铺, 长盛南路10号中央盛景购物广场",113.75,23.0,Guangdong,Dongguan
东莞大朗中央盛景店,东莞市,"大朗镇, 一层142、143、144号商铺, 板湖村富康花园",113.93,22.93,Guangdong,Dongguan
东莞黄江天虹店,东莞市,"黄江镇, 天虹商场第1层01单元, 东城东路",114.01,22.91,Guangdong,Dongguan
东莞星河传说店,东莞市,"东城区, 星河传说星河城购物中心1002号铺, 中山四路",113.79,23.02,Guangdong,Dongguan
中山盛景尚峰店,中山市,"东区, 盛景尚峰3座2卡首层及二层, 长堤路-凤鸣路段改造工程二期B段",113.4,22.51,Guangdong,Zhongshan
中山兴中广场分店,中山市,"石岐区, 兴中广场B1 区1F-01、2F-02单元",113.37,22.52,Guangdong,Zhongshan
中山假日广场店,中山市,"孙文东路78号假日广场首层, 中山市石岐区大信南路2号都",113.39,22.52,Guangdong,Zhongshan
中山石岐大信新都汇店,中山市,"石岐区, 汇广场一层及二层的1FA02号单元, 北秀路43号",113.38,22.53,Guangdong,Zhongshan
中山小榄百汇时代广场店,中山市,"小榄镇北区, 百汇时代广场1号楼一层1F004单元",113.23,22.69,Guangdong,Zhongshan
中山益华店,中山市,"石岐中山三路益华百货一层3号商铺, 升平中路 18 号",113.38,22.51,Guangdong,Zhongshan
中山小榄大信皇冠假日店,中山市,"小榄镇, ""大信皇冠假日酒店大堂 1F003 号单元 "", 西堤路岐江公园",113.25,22.67,Guangdong,Zhongshan
中山喜来登店,中山市,"西区, 北喜来登酒店1层01单元, 中山市东区博爱六路28号",113.37,22.52,Guangdong,Zhongshan
中山远洋城大信新都汇店,中山市,"石岐区, 远洋广场大信新都汇首层1F103a单元, 中山三路16号",113.42,22.5,Guangdong,Zhongshan
中山利和广场分店,中山市,"东区, 利和广场第二层201C号铺, 中兴大道灯饰大厦旁星光联盟  照明灯饰",113.38,22.51,Guangdong,Zhongshan
中山古镇星光联盟店,中山市,"古镇, 中心广场地上一层的 A01 单元, 至中山沙溪段（广珠西线二期）",113.19,22.61,Guangdong,Zhongshan
佛山顺德服务区西区店,佛山市,"广州至珠海高速公路（西线）顺德碧江, 顺德服务区西区综合楼第一层A-L1-01单元, 桂澜路",113.27,22.92,Guangdong,Foshan
佛山南海万科广场店,佛山市,"南海区, 万科广场首层, 狮山镇博爱中路61号",113.16,23.04,Guangdong,Foshan
佛山和信广场店,佛山市,"南海区, 和信广场首层, 桂城街道南海大道北75号",113.01,23.12,Guangdong,Foshan
佛山南海嘉信茂广场店,佛山市,"南海区, 嘉信茂广场首层01-31/31A/32/33/33A单元, 大良新区兴顺路",113.14,23.03,Guangdong,Foshan
佛山大良嘉信城市广场店,佛山市,"顺德, 嘉信城市 广场一期204-207号商铺, 锦华路82号东方广场首层",113.29,22.79,Guangdong,Foshan
佛山东方广场店,佛山市,"禅城区, 大良东乐路",113.12,23.04,Guangdong,Foshan
佛山大良东乐路店,佛山市,"顺德区, 深国投商业广场新一城首层01-46, 西樵镇江浦路 18 号",113.27,22.83,Guangdong,Foshan
佛山西樵富盛广场店,佛山市,"南海区, 富盛广场首层A12、13单元, 季华五路33号",112.99,22.94,Guangdong,Foshan
佛山顺联国际广场店,佛山市,"禅城区, 佛山顺联国际购物中心首层103、105号铺, 南海大道北84号",113.11,23.01,Guangdong,Foshan
佛山越秀悦汇天地店,佛山市,"南海区, 越秀星汇云锦广场首层B101单元, 里广路2号山海汇花园11号楼",113.14,23.03,Guangdong,Foshan
佛山山海名门店,佛山市,"南海区, 地上一层101室及二层201室, 季华五路12号",113.21,23.17,Guangdong,Foshan
佛山季华园店,佛山市,"禅城区, 新城市商业广场首层F1F0022单元, 西南街张边路 9 号",113.11,23.01,Guangdong,Foshan
佛山三水广场店,佛山市,"三水区, 三水广场第一层1632单元, 陈村镇合成居委会佛陈路一号",112.89,23.17,Guangdong,Foshan
佛山陈村顺联店,佛山市,"顺德区, 顺联广场, 路州村委会乐从大道东B270号",113.24,22.95,Guangdong,Foshan
佛山顺德乐从星光广场店,佛山市,"顺德区乐从镇, 顺德星光广场首层的IA006、IA007、IA008单元, 桂澜中路18 号",113.11,22.95,Guangdong,Foshan
佛山中海环宇城店,佛山市,"南海区, 环宇城地上层L123铺, 南丰路 13 号",113.16,23.05,Guangdong,Foshan
佛山三水万达店,佛山市,"三水区, 万达广场首层1032铺, 大良街道南国东路",112.9,23.18,Guangdong,Foshan
佛山顺德永旺购物中心店,佛山市,"顺德区, 永旺顺德购物中心一层 R-101单元, 清晖路 150 号",113.27,22.83,Guangdong,Foshan
佛山大良新世界酒店分店,佛山市,"顺德区大良街, 顺德新世界酒店第一层101单元, 南庄镇南庄二马路89号",113.26,22.84,Guangdong,Foshan
佛山吉利购物广场店,佛山市,"禅城区, 吉利购物广场首层D18-19, 龙江镇",113.02,22.97,Guangdong,Foshan
佛山龙江盈信广场店,佛山市,"顺德区, 盈信城市广场二期一层101 号商铺, 西南街道新华路13号101",113.08,22.87,Guangdong,Foshan
佛山恒福广场咖啡店,佛山市,"三水区, 恒福广场201自编1#42号商铺, 建新路111号",112.89,23.16,Guangdong,Foshan
佛山铂顿店,佛山市,"禅城区, 铂顿城第一层1F033、034单元, 祖庙路29号",113.11,23.03,Guangdong,Foshan
佛山岭南站2店,佛山市,"禅城区, 第六层03号铺, 广州至珠海高速公路（西线）顺德碧江至中山沙溪段（广珠西线二期）",113.11,23.03,Guangdong,Foshan
佛山顺德服务区东区店,佛山市,"顺德区, 顺德服务区东区综合楼第一层A-L1-01, 桂城街道桂澜北路28号",113.27,22.92,Guangdong,Foshan
佛山南海万达广场店,佛山市,"南海区, 佛山南海万达广场一层1002号铺, 岭南天地",113.16,23.06,Guangdong,Foshan
佛山佛山岭南天地店,佛山市,"禅城区, 首层FC04、FC06、FC06-2号, 弼塘东二街22 号",113.12,23.03,Guangdong,Foshan
佛山创意产业园店,佛山市,"禅城区, 厂内六幢（即15#楼）101 单元, 祖庙路29号",113.1,23.01,Guangdong,Foshan
佛山岭南站1店,佛山市,"禅城区, 负一层020铺, 容桂红星桂洲大道中63号",113.11,23.03,Guangdong,Foshan
佛山顺德天佑城,佛山市,"顺德区, ""顺德天佑城  首层的1A-002b、1A-002c 单元 "", 桂城桂平西路2号",113.27,22.76,Guangdong,Foshan
佛山南海桂平西路店,佛山市,"南海, 鹿璟村1#6#楼首层B145, 三山新城佛罗伦萨小镇购物中心",113.16,23.03,Guangdong,Foshan
佛山佛罗伦萨小镇店,佛山市,"南海区, 一期二楼G25号铺, 桂城灯湖西路20号",113.23,23.01,Guangdong,Foshan
佛山保利水城店,佛山市,"南海区, 保利商业水城1层1A008A单元, 环市东路329号",113.15,23.06,Guangdong,Foshan
广州新粤新分店,广州市,"广州市越秀区, 新粤新酒店首层东侧（自编1号）, 保利香槟花园东区07、08号铺",113.28,23.14,Guangdong,Guangzhou
广州保利香缤花园店,广州市,"珠江新城华利路46-52号, 花城大道760号",113.32,23.12,Guangdong,Guangzhou
广州花城大道东分店,广州市,"天河区, 一层103房, 长堤街111号立白国际商务中心",113.34,23.12,Guangdong,Guangzhou
广州立白中心店,广州市,"荔湾区, 零售商区北裙楼首层103-104 商铺, 体育西路101号",113.24,23.1,Guangdong,Guangzhou
广州维多利广场店,广州市,"天河区, 维多利广场首层115B、116及二层217Q、218Q单元",113.32,23.13,Guangdong,Guangzhou
广州中国联通大厦店,广州市,"黄埔大道西666号首层102单元102，, 先烈中路63号",113.35,23.13,Guangdong,Guangzhou
广州区庄新大新店,广州市,"越秀区, 东山广场地上一层1-02铺, 云城西路与齐心路交汇处",113.29,23.14,Guangdong,Guangzhou
广州白云凯德云尚分店,广州市,"白云区, 凯德云尚首层, 大石镇迎宾路星河湾四季会所",113.27,23.18,Guangdong,Guangzhou
广州番禺星河湾店,广州市,"番禺区, 一层自编之八单元, 新港中路 354 号",113.33,23.03,Guangdong,Guangzhou
广州珠影星光城店,广州市,"海珠区, 珠影星光城76 栋133A 单元, 马场路36号",113.32,23.1,Guangdong,Guangzhou
广州太阳新天地店,广州市,"天河区, 二楼209号, 下九路58、60号",113.34,23.12,Guangdong,Guangzhou
广州东方汇店,广州市,"荔湾区, 地上二层的2F-033和2F-047单元, 滨江东路31、39号",113.25,23.11,Guangdong,Guangzhou
广州滨江壹号店,广州市,"海珠区, 滨江壹号商场首层07、10号商铺, 增城大道 69 号",113.29,23.1,Guangdong,Guangzhou
广州增城万达广场分店,广州市,"增城荔城街, 增城万达广场一层 1038 号铺",113.82,23.28,Guangdong,Guangzhou
广州天河城店,广州市,"天河路208号天河城首层北门103C号铺, 农林下路37号",113.32,23.13,Guangdong,Guangzhou
广州美东百货店,广州市,"越秀区, 广州美东百货店铺之首层1-Z01商铺, 东风东路 836号",113.3,23.13,Guangdong,Guangzhou
广州东峻广场店,广州市,"越秀区, 东峻广场地上一层28-29 号铺, 叠景路",113.31,23.13,Guangdong,Guangzhou
广州合生广场店,广州市,"海珠区, 合生广场首层L1-103/104A, 珠江新城金穗路28号102之十一号",113.31,23.09,Guangdong,Guangzhou
广州华亿丽晶店,广州市,"天河区, 白云国际机场出发大厅",113.32,23.12,Guangdong,Guangzhou
广州白云机场3店,广州市,"花都区, 东三指廊二层",113.31,23.39,Guangdong,Guangzhou
广州太古汇店,广州市,"天河路383号太古汇商场裙楼内地铁上层MU23号, 东风中路268号",113.33,23.13,Guangdong,Guangzhou
广州交易广场店,广州市,"越秀区, 广州交易广场一层108A-109铺, 江南大道中131、133、135、137号",113.26,23.13,Guangdong,Guangzhou
广州万国广场店,广州市,"海珠区, 自编外1001号铺, 石壁街广州南站",113.27,23.1,Guangdong,Guangzhou
广州南站店,广州市,"番禺区, 高架商业夹层广3-26, 黄沙大道8号",113.27,22.99,Guangdong,Guangzhou
广州西城都荟店,广州市,"荔湾区, 西城都荟广场首层114号铺, 珠江新城金穗路 1 号",113.24,23.11,Guangdong,Guangzhou
广州邦华环球国际分店,广州市,"天河区, 邦华环球广场首层01单元, 天河路228号",113.32,23.12,Guangdong,Guangzhou
广州正佳万豪分店,广州市,"天河区, 正佳万豪酒店首层101铺, 珠江新城珠江东路",113.33,23.13,Guangdong,Guangzhou
广州高德置地春店,广州市,"天河区, 高德置地广场春商场负二层B202单元, 珠江西路89 号花城汇三区",113.32,23.12,Guangdong,Guangzhou
广州花城汇3区分店,广州市,"天河区, 负一层3001-A02, 华强路9号保利克洛维广场",113.32,23.12,Guangdong,Guangzhou
广州保利克洛维店,广州市,"天河区, 一期一层的105单元, 科丰路89号",113.32,23.13,Guangdong,Guangzhou
广州萝岗万达店,广州市,"萝岗区, 萝岗万达广场一层1027号铺位, 越秀北路319号",113.47,23.17,Guangdong,Guangzhou
广州越秀北分店,广州市,越秀区,113.27,23.14,Guangdong,Guangzhou
广州中山3路2号店,广州市,"广州市越秀区中山3路2号, 体育东路112号",113.29,23.13,Guangdong,Guangzhou
广州百福广场店,广州市,"天河区, 百福广场首层A2铺, 滨江东路912-974号,红梅路2-6号",113.33,23.14,Guangdong,Guangzhou
广州铂丽廊广场分店,广州市,"海珠区, 铂丽廊广场首层的101单元-自编106号, 五山路141号",113.31,23.1,Guangdong,Guangzhou
广州尚德大厦分店,广州市,"天河区, 尚德大厦第一层106号铺位内的自编E单元",113.34,23.14,Guangdong,Guangzhou
广州东山锦轩店,广州市,"农林下路46号东山锦轩大厦首层A6号铺, 珠江新城花城广场花城汇二区",113.3,23.13,Guangdong,Guangzhou
广州花城汇2分店,广州市,"天河区, 负一层商场A006号铺, 云城东路白云万达广场509 号",113.32,23.12,Guangdong,Guangzhou
广州白云万达2店,广州市,"白云区, 1层203 号铺位",113.27,23.17,Guangdong,Guangzhou
广州富力中心店,广州市,"华夏路10富力中心首层东北面103单元, 珠江新城临江大道",113.32,23.12,Guangdong,Guangzhou
广州新鸿基天汇广场1店,广州市,"天河区, 猎德项目商场部分地下负一层107号商铺, 市桥街大北路130号",113.33,23.12,Guangdong,Guangzhou
广州番禺宾馆店,广州市,"番禺区, 番禺宾馆首层大堂8号商铺, 天河路596号",113.37,22.94,Guangdong,Guangzhou
广州百脑汇店,广州市,"天河区, 百脑汇科技大厦负一层、首层, 江南西路46号",113.34,23.13,Guangdong,Guangzhou
广州江南新地店,广州市,"海珠区, 江南新地地下二层K34b，K36单元, 市桥桥南福德路 281号",113.27,23.09,Guangdong,Guangzhou
广州番禺奥圆广场店,广州市,"番禺区, 奥园广场首层113 单元, 新塘镇南安村碧桂园凤凰城凤妍苑",113.36,22.92,Guangdong,Guangzhou
广州凤凰城分店,广州市,"增城区, 凤凰城广场步行南街1号之三, 天河路101号",113.57,23.13,Guangdong,Guangzhou
广州兴业银行大厦分店,广州市,"天河区, 兴业银行大厦首层",113.32,23.13,Guangdong,Guangzhou
广州淘金店,广州市,"环市东路369号广州友谊商店综合楼首层106号铺, 黄埔大道西106号",113.29,23.14,Guangdong,Guangzhou
广州南国商苑店,广州市,"天河区, 维多利酒店首层01单元, 黄埔大道西74号花城汇",113.34,23.13,Guangdong,Guangzhou
广州花城汇一区店,广州市,"天河区, 负一层的A29+A30单元, 江南大道中 79号",113.32,23.13,Guangdong,Guangzhou
广州市二宫盘丰广场店,广州市,"海珠区, 盘丰广场 一层110号铺位, 建设大马路18号",113.27,23.11,Guangdong,Guangzhou
广州保利中环店,广州市,"越秀区, 首层B117、B118、B119、B120, 赤岗北路18号",113.28,23.14,Guangdong,Guangzhou
广州赤岗北路店,广州市,"海珠区, 四季天地第一层A07单元, 中石化大厦柏西商都首层1/29、",113.33,23.1,Guangdong,Guangzhou
广州中石化大厦店,广州市,"天河区体育西路191号, 1/29A、1/30A、1/30B号单元, 广州大道北路 1618号",113.32,23.14,Guangdong,Guangzhou
广州香柏广场店,广州市,"白云区, 香柏广场首层自编二十七号, 物业大门建筑第二层GL201-204",113.32,23.18,Guangdong,Guangzhou
广州新港82分店,广州市,"海珠区新港西路82号, 和第三层GL301-304单元",113.3,23.09,Guangdong,Guangzhou
广州天河北龙口店,广州市,"天河北路476号首层A号铺, 珠江新城珠江西路 ",113.34,23.14,Guangdong,Guangzhou
广州星巴克西塔国金天地分店,广州市,"天河区,  5号负一层60房B104单元, 天河东路75号",113.32,23.12,Guangdong,Guangzhou
广州天河东75号分店,广州市,"天河区, 108铺, 白云机场出发大厅西三指廊三楼B8005号",113.33,23.14,Guangdong,Guangzhou
广州白云机场2店,广州市,"花都区, 天河路228号",113.3,23.39,Guangdong,Guangzhou
广州正佳广场1店,广州市,"天河区, 广州正佳广场一楼1A001铺, 二沙岛晴波路33号",113.33,23.13,Guangdong,Guangzhou
广州星海音乐厅店,广州市,"越秀区, 东方都会广场首层108、",113.31,23.11,Guangdong,Guangzhou
广州上街东方都会广场店,广州市,"中山大道西路186号, 109、134、136号铺, 天河北路233号",113.36,23.13,Guangdong,Guangzhou
广州中信广场2分店,广州市,"天河区, 中信广场首层146铺, 吉祥路1号动漫星城广场西区",113.32,23.14,Guangdong,Guangzhou
广州动漫星城2店,广州市,"越秀区, 地下一层夹层自编 WD001 单元, 荔城街府佑路98号",113.26,23.13,Guangdong,Guangzhou
广州增城东汇城分店,广州市,"增城区, 首层160号铺, 阅江西路222号首层自编号119号铺",113.82,23.28,Guangdong,Guangzhou
广州塔分店,广州市,"海珠区, 林和中路 136 号",113.32,23.11,Guangdong,Guangzhou
广州天誉花园店,广州市,"天河区, 天誉花园二期101 铺自编A3-4单元, 珠江新城花城大道86号",113.33,23.14,Guangdong,Guangzhou
花城湾店,广州市,", 江燕路101号",113.33,23.12,Guangdong,Guangzhou
广州万科派店,广州市,"海珠区, 万科派第一层的L121，L123单元, 天河路宏城广场",113.28,23.08,Guangdong,Guangzhou
广州天环广场店,广州市,"天河区, 地下二层B253号",113.32,23.13,Guangdong,Guangzhou
广州中国大酒店店,广州市,流花路1号中国大酒店首层S125及S155号铺,113.26,23.14,Guangdong,Guangzhou
广州中华广场店,广州市,"中山三路33号中华广场负一层A23号铺, 天河区珠江东路12、14、16 号",113.28,23.13,Guangdong,Guangzhou
广州高德地置地冬广场店,广州市,"天河区, 高德置地冬广场第三层自编311、312号, 文德北路68号自编A101单元",113.33,23.12,Guangdong,Guangzhou
广州东方文德店,广州市,"越秀区, 亚运大道1号永旺梦乐城",113.27,23.12,Guangdong,Guangzhou
广州番禺永旺梦乐城分店,广州市,"番禺区, 地上1层自编号1024单元, 名盛广场首层1B48单元",113.39,22.94,Guangdong,Guangzhou
广州名盛广场店,广州市,北京路238号,113.27,23.12,Guangdong,Guangzhou
广州新光百货店,广州市,"康王中路666号新光城市广场首、二层, 白云国际机场出发大厅",113.25,23.12,Guangdong,Guangzhou
广州白云机场1店,广州市,"花都区, 东二指廊三层C7标段A8201, 市桥街富华西路2号",113.31,23.39,Guangdong,Guangzhou
广州番禺钻汇广场分店,广州市,"番禺区, 钻汇珠宝广场第一层，自编为C009号单元, 阅江中路382号",113.36,22.95,Guangdong,Guangzhou
广州琶洲会展中心B馆店,广州市,"海珠区, 琶洲展馆B区A层快餐区黄区南B经营点, 沙面大街50-52号",113.36,23.1,Guangdong,Guangzhou
广州沙面店,广州市,"荔湾区, 宝岗大道498号",113.24,23.11,Guangdong,Guangzhou
广州广百新一城店,广州市,"海珠区, 新一城广场首层自编1-7号, 体育东路138号",113.27,23.09,Guangdong,Guangzhou
广州金利来大厦店,广州市,"天河区, 金利来数码网络大厦首层01号单元, 林和西路 153、155 和157 号",113.33,23.14,Guangdong,Guangzhou
广州保利中汇分店,广州市,"天河区, 保利中汇广场一层的21、22、23、24 单元, 珠江新城猎德大道31号",113.32,23.15,Guangdong,Guangzhou
广州中海璟晖店,广州市,"天河区, 中海璟晖华庭二期商铺首层101铺, 沙湾镇西环路1502号番禺荔园新天地",113.33,23.12,Guangdong,Guangzhou
广州番禺荔园新天地分店,广州市,"番禺区, 一层A29商铺, 天河北路233号二层214、215B铺",113.35,22.92,Guangdong,Guangzhou
广州中信广场店,广州市,"天河区, 云城东路509号",113.33,23.14,Guangdong,Guangzhou
广州万达店,广州市,"白云区, 万达广场首一层的150、151单元, 珠江新城F1-3地块地段",113.27,23.17,Guangdong,Guangzhou
广州全球通店,广州市,"天河区, 广东全球通大厦第一层的101单元, 珠江东路11、13 号101 、201房",113.32,23.12,Guangdong,Guangzhou
广州高德置地秋广场店,广州市,"天河区, 103-104 商铺, 昌岗中路188号",113.33,23.12,Guangdong,Guangzhou
广州昌岗合生生活广场店,广州市,"海珠区, 海珠合生生活天地首层113单元, 好世界广场首层101-102B",113.28,23.09,Guangdong,Guangzhou
广州好世界广场店,广州市,"环市东路362-363号, 二楼203A号铺, 机场路云霄街353号",113.29,23.14,Guangdong,Guangzhou
广州#5停机坪店,广州市,"白云区, L1032C铺, 龙珠北路花都广百",113.27,23.18,Guangdong,Guangzhou
广州花都广百店,广州市,"花都区, 首层自编号1-26、1-17铺, 中山五路4号",113.23,23.4,Guangdong,Guangzhou
广州北京路新大新店,广州市,"越秀区, 二层自编2-01商铺, 东圃天银商贸大厦自编101号",113.27,23.13,Guangdong,Guangzhou
广州东圃天银店,广州市,"中山大道中路437号, 东站路１号",113.4,23.12,Guangdong,Guangzhou
广州东站店,广州市,"天河区, 广州东站综合楼裙楼首层, 南沙街环市大道与双山大道交界处西",113.32,23.15,Guangdong,Guangzhou
广州南沙万达广场店,广州市,"南沙区, 万达广场北侧首层1001号, 天河路228号",113.53,22.8,Guangdong,Guangzhou
广州正佳2分店,广州市,"天河区, 正佳广场四楼嗨生活馆F4-HI-001 号商铺, 广州大道北1811\1813号",113.33,23.13,Guangdong,Guangzhou
广州嘉裕太阳城店,广州市,"白云区, 一层101单元中自编0180A/0180B号房, 南村镇兴南大道368号",113.33,23.19,Guangdong,Guangzhou
广州番禺万达广场分店,广州市,"番禺区, 番禺万达广场 一层 1056 号铺, 吉祥路1号动漫星城负一层E1107A商铺",113.35,23.01,Guangdong,Guangzhou
广州动漫星城店,广州市,"越秀区, ，下沉广场层ED001,ED002商铺, 三元里大道",113.27,23.13,Guangdong,Guangzhou
广州三元里卜蜂莲花店,广州市,"白云区, 306-308号第一层A1单元, 信华一街２号104-108房",113.26,23.16,Guangdong,Guangzhou
广州信华花园分店,广州市,"天河区, 中华广场2层2016号铺",113.36,23.14,Guangdong,Guangzhou
广州中华广场2店,广州市,"中山三路33号, 环城西二路38号",113.28,23.13,Guangdong,Guangzhou
惠州西湖丽日店,惠州市,"惠城区, 丽日购物广场首层, 文昌一路九号",114.4,23.09,Guangdong,Huizhou
惠州华茂天地店,惠州市,"江北区, 惠州华贸天地首层1111单元",114.42,23.1,Guangdong,Huizhou
惠州天虹店,惠州市,"麦地路天虹商场一层1019, 惠城区",114.41,23.07,Guangdong,Huizhou
惠州佳兆业广场店,惠州市,"惠州市, 惠州大道佳兆业广场首层, 演达路",114.42,23.12,Guangdong,Huizhou
惠州港惠店,惠州市,"惠城区, 港惠新天地二期首层, 淡水街道办事处人民四路35号",114.42,23.07,Guangdong,Huizhou
惠州惠阳永旺分店,惠州市,"惠阳区, 高地花园裙楼T101单元, 东湖一街1号",114.45,22.79,Guangdong,Huizhou
惠州隆生广场店,惠州市,"惠城区, 东湖花园9号小区第一层L131单元, 金燕大道与五横街交汇处南",114.42,23.08,Guangdong,Huizhou
梅州万达分店,梅州市,"梅江区, 梅州万达广场室内步行街地面一层1001-1002A, 金砂路179号",116.14,24.27,Guangdong,Meizhou
汕头星湖城分店,汕头市,"龙湖区, 合信星湖城14、18幢合信星湖城第一层101号房内的1-10单元, 长平路90号",116.75,23.37,Guangdong,Shantou
汕头苏宁广场店,汕头市,"龙湖区, 汕头苏宁广场地上一层102单元, 东厦北路175 号",116.72,23.36,Guangdong,Shantou
汕头卜峰中心分店,汕头市,"金平区, 卜蜂中心第一层的L1-019单元, 广益路北侧猛狮国际广场第一层L1、L2单元",116.71,23.39,Guangdong,Shantou
汕头澄海猛狮国际广场店,汕头市,"澄海区, 发展大道以北八卦山以南地段",116.76,23.47,Guangdong,Shantou
江门万达店,江门市,"蓬江区, 万达广场首层1024A-1025B, 星汇广场一层1001、1002 号",113.08,22.62,Guangdong,Jiangmen
江门星汇广场店,江门市,"新会区会城大新路50号, 商铺部分区域及二层的 2108商铺, 人民东路鹤山广场",113.04,22.52,Guangdong,Jiangmen
江门鹤山广场店,江门市,"鹤山市, 1009, 1010, 1054, 1055单元, 迎宾大道中116号益华购物广场一层",112.98,22.77,Guangdong,Jiangmen
江门益华广场店,江门市,"蓬江区, B-106单元, 胜利路33号金蓝海",113.08,22.6,Guangdong,Jiangmen
江门金蓝海广场店,江门市,"蓬江区, 首层商铺Unit A-105, G/F, 白石大道166号",113.08,22.58,Guangdong,Jiangmen
江门汇悦城店,江门市,"蓬江区, 汇悦城广场第1层, 中心城建设路",113.08,22.61,Guangdong,Jiangmen
深圳龙岗广百店,深圳市,"龙岗区, 广百百货一楼1-01号铺, 龙城街道中心城龙翔大道7188号",114.25,22.72,Guangdong,Shenzhen
深圳龙岗万科店,深圳市,"龙岗区, 万科天誉广场L2-48商铺, 蛇口兴华路",114.24,22.72,Guangdong,Shenzhen
深圳南海意库店,深圳市,"南山区, 南海意库1栋102B, 华强北路",113.92,22.49,Guangdong,Shenzhen
深圳华强广场酒店店,深圳市,"福田区, 华强广场酒店大堂, 红荔路中心书城首层N137号",114.09,22.54,Guangdong,Shenzhen
深圳中心书城店,深圳市,"福田区, 横岗街道松柏路信义御城豪园",114.06,22.55,Guangdong,Shenzhen
深圳横岗松柏天虹分店,深圳市,"龙岗区, 8栋复式-1层至复式4层 1层1030号, 坂田街道雪岗路2018号天安云谷产业园",114.21,22.65,Guangdong,Shenzhen
深圳坂田天安云谷店,深圳市,"龙岗区, 一期3栋02层B01、B02-1单元, 前海深港合作区前湾一路63号",114.07,22.66,Guangdong,Shenzhen
深圳前海企业公馆店,深圳市,"南山区, 前海企业公馆3栋1层, 80区",113.9,22.52,Guangdong,Shenzhen
深圳港隆城分店,深圳市,"宝安, 宝民二路港隆城1楼, 海德二道",113.88,22.58,Guangdong,Shenzhen
深圳南山茂业店,深圳市,"南山区, 茂业百货首层, 白石路东8号",113.93,22.52,Guangdong,Shenzhen
深圳欢乐海岸店,深圳市,"南山区, 欢乐海岸椰林沙滩12号B, 深南东路4003号",113.99,22.52,Guangdong,Shenzhen
深圳世界金融中心店,深圳市,"罗湖区, 世界金融中心首层大堂, 园岭五街1号",114.11,22.54,Guangdong,Shenzhen
深圳市园岭分店,深圳市,"福田区, 园东花园裙楼第一层27、28、29、66, 宝安国际机场",114.1,22.55,Guangdong,Shenzhen
深圳机场第三航站楼三店,深圳市,"宝安区, 空港8道地面交通中心二楼GTC-201室, 侨城西街18号",113.82,22.62,Guangdong,Shenzhen
深圳欢乐谷店,深圳市,"南山区, 欢乐谷公园商业街1-2区欢摩乐信, 海德一道",113.98,22.54,Guangdong,Shenzhen
深圳海岸城店,深圳市,"南山区, 海岸城购物中心２层291号店铺, 松岗街道东方大道36号",113.94,22.52,Guangdong,Shenzhen
深圳联投东方店,深圳市,"宝安区, 联投东方地上第一层L101号单元, 南海大道蛇口",113.86,22.76,Guangdong,Shenzhen
深圳蛇口花园城店,深圳市,"南山区, 花园城中心首层132号商铺",113.92,22.5,Guangdong,Shenzhen
深圳联通大厦店,深圳市,"深南大道深圳联通大厦首层, 福华一路115号投行大厦地",114.05,22.54,Guangdong,Shenzhen
深圳投行大厦店,深圳市,"福田区, 地上一层大堂东北角和西北角, 民康1路",114.05,22.54,Guangdong,Shenzhen
深圳8号仓分店,深圳市,"龙华区, 华南国际物流交易展示中心8号仓L101号, 东部华侨城景区",114.06,22.62,Guangdong,Shenzhen
深圳华侨城大峡谷店,深圳市,"盐田区, 海菲德小镇商业街3栋1层, 福华三路",114.3,22.61,Guangdong,Shenzhen
深圳星河苏活购物公园店,深圳市,"福田区, CocoPark首层L1S-001号铺, 福华三路",114.05,22.53,Guangdong,Shenzhen
深圳天虹广场店,深圳市,"福田区, 星河国际花园裙楼一楼1300号, 南山区高新区中区科研路9号101-A单元",114.05,22.53,Guangdong,Shenzhen
深圳比克大厦分店,深圳市,"深圳市, 南山区高新区中区科研路9号比克大厦第1层, 深圳市罗湖区建设路3018号",113.93,22.54,Guangdong,Shenzhen
深圳东门1234店,深圳市,"罗湖区, 1234 space四楼L407号商铺, 车公庙站深南大道南侧地下",114.12,22.54,Guangdong,Shenzhen
深圳丰盛町店,深圳市,"福田区, 丰盛町地下阳光街第B区负一层B-007,009, 011商铺, 深南中路",114.02,22.54,Guangdong,Shenzhen
深圳万象城店,深圳市,"罗湖区, 华润中心万象城B99号商铺, 西丽大学城汇丰商学院首层",114.11,22.54,Guangdong,Shenzhen
深圳西丽大学城店,深圳市,"南山区, 宝安国际机场T3航站楼",113.97,22.59,Guangdong,Shenzhen
深圳机场第三航站楼二店,深圳市,"宝安区, 编号为3S-06-01的商业经营网店, 深圳湾二路与白石路交汇处",113.81,22.63,Guangdong,Shenzhen
深圳御景东方店,深圳市,"南山区, 御景东方花园裙楼, 中心路（深圳湾段）2233 号",113.97,22.53,Guangdong,Shenzhen
深圳宝能太古城店,深圳市,"南山区, 宝能太古城购物中心北区负1层NB101, 吉华路与五和大道交汇处",113.94,22.5,Guangdong,Shenzhen
深圳坂田天虹分店,深圳市,"龙华区, 坂田天虹首层, 前进路34-2区",114.06,22.63,Guangdong,Shenzhen
深圳前进天虹店,深圳市,"宝安区, 黄金台商业大厦一层L1100号, 天安数码时代大厦主楼102-2单元",113.89,22.58,Guangdong,Shenzhen
深圳天安数码城店,深圳市,"福田区, 观澜街道观澜高尔夫大道8号",114.03,22.53,Guangdong,Shenzhen
深圳观澜湖新城店,深圳市,"龙华新区, 观澜湖商业中心地上一层L114铺, 高新区",114.07,22.72,Guangdong,Shenzhen
深圳高新区店,深圳市,"南山区, 南区C-1楼首层, 广东省深圳市南山区科技南十二路 28 号",113.95,22.54,Guangdong,Shenzhen
深圳康佳大厦分店,深圳市,"南山区, 康佳研发大厦1 层1D 号, 深南中路1093号",113.96,22.54,Guangdong,Shenzhen
深圳中信城市广场店,深圳市,"福田区, 中信广场1002号, 中心路 3019 号",114.1,22.54,Guangdong,Shenzhen
深圳后海君尚店,深圳市,"南山区, 天虹总部大厦第一层, 太宁路28号",113.94,22.51,Guangdong,Shenzhen
深圳喜荟城店,深圳市,"罗湖区, 百仕达喜荟城225单元, 百花二路",114.14,22.57,Guangdong,Shenzhen
深圳百花店,深圳市,"福田区, 百花园一期首层L101, 观澜街道广培社区观澜高尔夫大道1号",114.1,22.55,Guangdong,Shenzhen
深圳观澜湖会所店,深圳市,"宝安区, 观澜湖高尔夫球场内F8区二栋一层101号铺, 龙岗大道（布吉段）2288号",114.08,22.74,Guangdong,Shenzhen
深圳布吉佳兆业店,深圳市,"龙岗区, 佳兆业新都汇家园第一层的 L116,L117,L118单元, 南油大道西、学府路南",114.13,22.61,Guangdong,Shenzhen
深圳学府路店,深圳市,"南山区, 中润大厦一层C商铺, 东门中路2047号",113.93,22.53,Guangdong,Shenzhen
深圳东门茂业店,深圳市,"罗湖区, 茂业百货首层, 平湖街道华南大道华南城环球物流中心裙楼",114.12,22.55,Guangdong,Shenzhen
深圳华南城店,深圳市,"龙岗区, 地上一层HQ-1-01号单元, 蔡屋围京基金融中心裙楼",114.12,22.68,Guangdong,Shenzhen
深圳京基百纳空间店,深圳市,"罗湖区, 京基百纳空间一楼111号商铺, 春风路3023号",114.11,22.54,Guangdong,Shenzhen
深圳庐山酒店分店,深圳市,"罗湖区, 庐山大厦A座一层101单元, 南新路3022号",114.12,22.54,Guangdong,Shenzhen
深圳欢乐颂店,深圳市,"南山区, 欢乐颂购物广场一层F0-1号铺, 民治街道梅龙路西侧公馆一八六六花园第一层",113.92,22.54,Guangdong,Shenzhen
深圳龙华佐阾荟店,深圳市,"龙华区, S-L117 号和 S-L118 号商铺, 宝安国际机场T3航站楼",114.03,22.63,Guangdong,Shenzhen
深圳机场第三航站楼一店,深圳市,"宝安区, 编号为5D-02-06的商业经营网店, 深南大道9028号",113.81,22.63,Guangdong,Shenzhen
深圳益田假日广场店,深圳市,"南山区, 益田假日广场B1层4号铺, 深圳市宝安区宝民一路",113.98,22.54,Guangdong,Shenzhen
深圳宝安海雅缤纷城店,深圳市,"宝安区, 海雅缤纷城负一层B105, 人民南3002号国贸大厦一楼A区",113.91,22.56,Guangdong,Shenzhen
深圳国贸天虹店,深圳市,"罗湖区, 明治街道人民路2020号",114.12,22.54,Guangdong,Shenzhen
深圳龙华九方分店,深圳市,"龙华区, 龙华九方L1层L100号, 爱南路666号",114.02,22.63,Guangdong,Shenzhen
深圳龙岗星河时代店,深圳市,"龙岗区, 星河时代coco park L1C-038,39号铺, 中心四路1号",114.23,22.69,Guangdong,Shenzhen
深圳嘉里中心店,深圳市,"福田区, 嘉里建设广场第一座首层03单元, 西乡街道西乡大道与新湖路交汇处",114.06,22.54,Guangdong,Shenzhen
深圳西乡天虹店,深圳市,"宝安区, 魅力时代花园A-J裙楼一层1016, 福华三路118号",113.86,22.58,Guangdong,Shenzhen
深圳皇庭广场分店,深圳市,"福田区, 皇庭国商购物广场L2层22号商铺, 南海大道2088号",114.06,22.53,Guangdong,Shenzhen
深圳信和春天店,深圳市,"南山区, 信和购物广场第1层的L1S-01商铺, 中康路卓越梅林中心广场南区卓悦汇",113.93,22.51,Guangdong,Shenzhen
深圳梅林卓悦汇店,深圳市,"福田区, L1-25、 L1-26 号商铺, 华强北华富路1018 号",114.06,22.57,Guangdong,Shenzhen
深圳华强北九方二店,深圳市,"福田区, 九方购物中心负一层B169, 石厦北二街89号",114.08,22.54,Guangdong,Shenzhen
深圳新港广场分店,深圳市,"福田区, 新港商城首层127A商铺, 振华路",114.05,22.52,Guangdong,Shenzhen
深圳鼎城国际店,深圳市,"福田区, 中航苑鼎诚大厦裙楼101C, 创业二路与前进路交汇处",114.08,22.54,Guangdong,Shenzhen
深圳宝安中洲店,深圳市,"宝安区, 中洲华府商业大厦首层L106, 人民北路291号",113.91,22.57,Guangdong,Shenzhen
深圳龙华人民北店,深圳市,"龙华新区, 百佳华商场1楼D1-Pt04, 南山区商业文化中心区保利文化广场",114.02,22.66,Guangdong,Shenzhen
深圳保利文化广场分店,深圳市,"南山区, A区第三层A3-02铺, 深南中路中核大厦",113.94,22.52,Guangdong,Shenzhen
深圳购书中心店,深圳市,"福田区, 深圳购书中心一楼101-103号, 深圳软件产业基地",114.1,22.54,Guangdong,Shenzhen
深圳软件园产业基地店,深圳市,"南山区, 第4栋裙楼01层44-50号, 民治大道西侧绿景香颂花园裙楼地上一层",113.94,22.52,Guangdong,Shenzhen
深圳龙华佐阾香颂分店,深圳市,"宝安区民治街道, 的 N-L101、N-L102 号商铺, 人民南路",114.04,22.63,Guangdong,Shenzhen
深圳佳宁娜友谊广场店,深圳市,"罗湖区, 佳宁娜友谊广场01号铺, 民治街道深圳北站",114.12,22.54,Guangdong,Shenzhen
深圳北站分店,深圳市,"龙华新区, 高架夹层  深 2-01, 坂田街道环城南路与坂雪大道交汇处",114.03,22.61,Guangdong,Shenzhen
深圳坂田第五园店,深圳市,"龙岗区, 嘉悦山花园7栋第一层L01，L02单元, 华强北华富路",114.07,22.62,Guangdong,Shenzhen
深圳华强北九方店,深圳市,"福田区, 九方购物中心三楼L355、L361",114.08,22.54,Guangdong,Shenzhen
深圳地王大厦店,深圳市,"深南东路5002号地王商场G层113单元, 华润深圳湾体育中心",114.11,22.54,Guangdong,Shenzhen
深圳湾体育中心店,深圳市,"南山区, L123号商铺, 布吉街道圣力工业区",113.95,22.52,Guangdong,Shenzhen
深圳星都豪庭店,深圳市,"龙岗区, 星都豪庭2栋裙房第1层1-3号铺, 大梅沙",114.14,22.61,Guangdong,Shenzhen
深圳大梅沙奥特莱斯店,深圳市,"盐田区, 海丽晶商住园F101-S, 新湖路泰华君逸首层",114.31,22.6,Guangdong,Shenzhen
深圳宝安泰华店,深圳市,"宝安区, 宝安体育新馆后面, 福民路北面",113.88,22.56,Guangdong,Shenzhen
深圳东方雅苑店,深圳市,"福田区, 皇达东方雅苑商业裙楼1楼HF-3, 福中一路2016号",114.06,22.52,Guangdong,Shenzhen
深圳音乐厅店,深圳市,"福田区, 深圳音乐厅二楼, 福华路大中华交易广场西侧",114.06,22.55,Guangdong,Shenzhen
深圳怡景中心城店,深圳市,"福田区, 怡景中心城G层FG012号, 观澜街道办大和路西侧中航格澜阳光花园A栋",114.06,22.54,Guangdong,Shenzhen
深圳观澜天虹店,深圳市,"龙华新区, 观澜天虹商场一层 A-19 单元内的1710单元, 宝城5区宝民路",114.05,22.7,Guangdong,Shenzhen
深圳宝安海雅缤纷城2店,深圳市,"宝安区, 海雅缤纷城百货一层1S05、1S06、1S07号, 明治街道",113.91,22.56,Guangdong,Shenzhen
深圳民乐星河盛世分店,深圳市,"龙华区, 星河盛世商场首层L1S-033号, 翠竹路1052号",114.05,22.6,Guangdong,Shenzhen
深圳翠竹路店,深圳市,"罗湖区, 逸翠园（二期）一楼101单元, 海山街道办事处深盐路南面海山路北面",114.13,22.56,Guangdong,Shenzhen
深圳盐田壹海城分店,深圳市,"盐田区, 壹海城二区一楼51号, 蛇口兴华路",114.24,22.55,Guangdong,Shenzhen
深圳海上世界店,深圳市,"南山区, 海上世界南山宾馆113号铺, 华强北路2005-2006号",113.92,22.48,Guangdong,Shenzhen
深圳华强北茂业店,深圳市,"福田区, 茂业百货首层及二层C01号铺, 龙岗大道6002号",114.09,22.55,Guangdong,Shenzhen
深圳龙岗摩尔城店,深圳市,"龙岗区, 摩尔城零售商区第一层S103单元, 梅林北环大道6098号虹湾花园一层",114.27,22.72,Guangdong,Shenzhen
深圳梅林虹湾店,深圳市,"福田区, L1009 号和 L1010 号商铺, 深圳市罗湖区深南东路5016号",114.04,22.56,Guangdong,Shenzhen
深圳京基100大厦分店,深圳市,"罗湖区, 京基100大厦A座首层101号铺, 深南东路5033号",114.11,22.54,Guangdong,Shenzhen
深圳罗湖书城店,深圳市,"罗湖区, 金山大厦书城广场负06号商铺, 南海大道2748号南山书城首层",114.11,22.54,Guangdong,Shenzhen
深圳南山书城店,深圳市,"南山区, 沙井街道新沙路与西环路交界处",113.93,22.52,Guangdong,Shenzhen
深圳新沙天虹店,深圳市,"宝安区, 新沙天虹购物中心第一层115单元和第二层225单元, 人民南路",113.8,22.73,Guangdong,Shenzhen
深圳金光华店,深圳市,"罗湖区, 金光华广场负一层B1-106号商铺, 华侨城东部工业区E5栋101A",114.12,22.54,Guangdong,Shenzhen
深圳华侨城Loft店,深圳市,"南山区, 香林路东海花园福禄居4号",113.99,22.54,Guangdong,Shenzhen
深圳东海坊分店,深圳市,"福田区, 商店1层商场G18A号, 平湖街道",114.02,22.54,Guangdong,Shenzhen
深圳熙璟城分店,深圳市,"龙岗区, 平湖社区富安街100号熙璟城B001, 文锦中路2号",114.14,22.68,Guangdong,Shenzhen
深圳昇逸酒店分店,深圳市,"罗湖区, 名都大厦B座首层, 红荔西路",114.13,22.55,Guangdong,Shenzhen
深圳天健大厦分店,深圳市,"福田区, 天健大厦首层, 侨城路湖滨花园裙楼103-104",114.05,22.55,Guangdong,Shenzhen
深圳侨城街店,深圳市,"南山区, 深南大道7888号东海缤纷天地 一层",113.98,22.54,Guangdong,Shenzhen
深圳东海缤纷天地店,深圳市,"福田区, 1016A 号商铺, 松岗街道楼岗大道1号",114.02,22.54,Guangdong,Shenzhen
深圳松岗天虹店,深圳市,"宝安区, 宝利豪庭三区首层, 深圳中路北中航路西",113.85,22.76,Guangdong,Shenzhen
深圳世纪汇分店,深圳市,"福田区, 世纪汇广场商场第一层113号商铺, 文心5路33号",114.08,22.54,Guangdong,Shenzhen
深圳海岸城2店,深圳市,"南山区, 海岸城购物中心4楼432号铺, 解放路1034号",113.94,22.52,Guangdong,Shenzhen
深圳东门鸿展广场店,深圳市,"罗湖区, 地下一层的A6 单元, 新闻路12号",114.12,22.55,Guangdong,Shenzhen
深圳五洲星苑店,深圳市,"福田区, 五洲星苑B座南105及西106－107铺, 留仙大道",114.05,22.54,Guangdong,Shenzhen
深圳留仙洞店,深圳市,"南山区, 天悦南湾厂商首层L115号商铺, 农林路与侨香路交界口",113.94,22.58,Guangdong,Shenzhen
深圳深国投广场分店,深圳市,"福田区, 深国投广场01-11A,12A,13, 深圳市福田深南大道2008号",114.01,22.54,Guangdong,Shenzhen
深圳凤凰大厦店,深圳市,"福田区, 中国凤凰大厦3栋的第1层的101B单元, 凤凰路 3 号海珑华苑",114.06,22.54,Guangdong,Shenzhen
深圳凤凰路店,深圳市,"罗湖区, 地上一层自编号为 L1-01 的单元, 湖西路89号",114.13,22.55,Guangdong,Shenzhen
清远万达广场店,清远市,"清城区, 万达广场自编1001单元, 海滨大道中128号",113.01,23.71,Guangdong,Qingyuan
湛江万达广场店,湛江市,"经济技术开发区, 湛江万达广场地上一层 1078 号铺位, 人民大道南53号",110.4,21.25,Guangdong,Zhangjiang
湛江国贸大厦店,湛江市,"霞山区, 国贸大厦地上一层1F-3单元, 人民大道南116号",110.41,21.2,Guangdong,Zhangjiang
湛江鼎盛广场店,湛江市,"霞山区, 鼎盛广场购物中心第一层L1-1单元, 中山一路二号",110.4,21.21,Guangdong,Zhangjiang
湛江世贸大厦店,湛江市,"赤坎区, 世贸大厦一层的 1F-2 及 1F-3, 凤凰南路1066号L1010",110.37,21.27,Guangdong,Zhangjiang
珠海扬名广场分店,珠海市,"香洲区, 扬名广场L1010, 花苑新村中珠大厦首层及二层",113.58,22.28,Guangdong,Zhuhai
珠海中珠大厦店,珠海市,"拱北迎宾大道, 吉大情侣南路599号",113.55,22.22,Guangdong,Zhuhai
珠海九洲港店,珠海市,"香洲区, 一层, 中邦酒店首层",113.59,22.24,Guangdong,Zhuhai
珠海中邦酒店店,珠海市,"吉大情侣中路33号, 前山翠前路东，翠微西路北侧",113.59,22.25,Guangdong,Zhuhai
珠海招商花园城店,珠海市,"香洲区, 招商花园城二期商场第一层的F101单元, 九州大道",113.53,22.26,Guangdong,Zhuhai
珠海富华里店,珠海市,"香洲区, 中海富华里3-109铺, 华发世纪城酒吧街B1号商铺",113.54,22.23,Guangdong,Zhuhai
珠海华发世纪城店,珠海市,"拱北昌盛路376号, 珠海大道8号",113.53,22.21,Guangdong,Zhuhai
珠海华发商都1分店,珠海市,"香洲区, 华发商都外广场漂浮凉亭首层, 珠海大道8号",113.51,22.22,Guangdong,Zhuhai
珠海华发商都分店,珠海市,"金湾区, 华发商都1号楼A1048号商铺, 人民西路与三台石路交汇处",113.51,22.22,Guangdong,Zhuhai
珠海仁恒星园,珠海市,"新香洲, 仁恒星园商业街第1层的483-101、483-102单元, 九洲大道1009号",113.53,22.27,Guangdong,Zhuhai
珠海钰海万国汇分店,珠海市,"香洲区, 钰海环球金融中心负一层, 拱北迎宾南路2095号",113.57,22.25,Guangdong,Zhuhai
珠海摩尔百货店,珠海市,"香洲区, 第一层1001单元, 明珠北路338号",113.55,22.23,Guangdong,Zhuhai
珠海乐世界店,珠海市,"香洲区, 珠海乐世界购物中心一层 F101 号铺, 国贸购物广场首层",113.51,22.27,Guangdong,Zhuhai
珠海国贸店,珠海市,"吉大景山路228号, 端州四路10号",113.58,22.26,Guangdong,Zhuhai
肇庆星湖国际店,肇庆市,"端州区, 星湖国际广场首层, 东风一路3号1022号号-2031单元",112.47,23.05,Guangdong,Zhaoqing
阳江百利广场分店,阳江市,"江城区, 阳江百利广场一层2031单元, 北部湾中路",111.97,21.85,Guangdong,Yangjiang
北海和安商港店,北海市,"海城区, 和安商港一层, 东葛路118号",109.11,21.47,Guangxi,Beihai
南宁青秀万达广场分店,南宁市,"青秀区, 青秀万达广场一层1043号",108.37,22.83,Guangxi,Nanning
南宁万象城2店,南宁市,"民族大道136号三层319号商铺, 民族大道136-5号",108.39,22.81,Guangxi,Nanning
南宁华润大厦店,南宁市,"青秀区, 华润大厦C座 L1 层第 108 室, 吴圩国际机场新航站楼",108.39,22.81,Guangxi,Nanning
南宁吴圩机场店,南宁市,"江南区, 出发厅CF-47、CF-48, 金浦路23号",108.17,22.61,Guangxi,Nanning
南宁民歌湖分店,南宁市,"青秀区, 民歌湖酒吧街A8-1号铺, 民族大道131号",108.37,22.81,Guangxi,Nanning
南宁航洋国际店,南宁市,"青秀区, 航洋国际购物中心一层, 东盟商务区中越路8号",108.38,22.81,Guangxi,Nanning
南宁盛天地分店,南宁市,"青秀区, B5栋1楼03号, 金湖路61号",108.4,22.81,Guangxi,Nanning
南宁梦之岛水晶城,南宁市,"青秀区, 梦之岛水晶城1层, 朝阳路青云街18号",108.37,22.82,Guangxi,Nanning
南宁百盛分店,南宁市,"兴宁区, 百盛百货1、2层, 大学路98号",108.32,22.81,Guangxi,Nanning
南宁世贸西城店,南宁市,"西乡塘区, 南宁百货新世界店1层, 西乡塘高新大道55号",108.29,22.83,Guangxi,Nanning
南宁安吉万达广场分店,南宁市,"高新区, 安吉万达广场首层1001-1002号铺",108.29,22.87,Guangxi,Nanning
南宁万象城店,南宁市,"民族大道136号负一层B117号商铺, 柳邕路263号",108.39,22.81,Guangxi,Nanning
柳州柳南万达广场店,柳州,"柳南区, 万达广场首层1001号商铺, 春风路3019号",109.39,24.29,,
柳州银泰城店,柳州,"鱼峰区, 庐山酒店首层, 文昌路20号",109.41,24.3,,
柳州五星乐和城分店,柳州,"城中区, 五星乐和称首层, 万达广场第一层1068号商铺",109.44,24.32,,
柳州万达广场店,柳州,"东环大道256号, 中山中路1号",109.44,24.33,,
柳州五星商厦店,柳州,"广西柳州市城中区, 五星商业大厦首层, 步步高广场一层F118 号商铺、二层F281 号商铺",109.41,24.31,,
柳州步步高店,柳州,"广场路10号, 穿山东路43号",109.41,24.32,,
桂林高新万达分店,桂林,"七星区, 桂林高新万达广场首层临街商铺, 中山中路20号",110.32,25.24,,
桂林梦之岛店,桂林,"秀峰区, 梦之岛百货一、二层, 百花谷RT05",110.29,25.27,,
三亚百花谷分店,三亚市,"亚龙湾旅游度假区, E104、E215A 单元, 迎宾大道昌达山水天域",109.64,18.23,Hainan,Sanya
三亚迎宾路分店,三亚市,"吉阳区, 青春颂零售商区地上一层的 01 号铺面, 大东海",109.5,18.27,Hainan,Sanya
三亚夏日百货分店,三亚市,"市河东区, 海韵路一号二层, 河西路100号",109.52,18.22,Hainan,Sanya
三亚金润豪庭店,三亚市,"河西区, 金润豪庭第一层的A101单元",109.51,18.25,Hainan,Sanya
三亚凤凰机场店,三亚市,"三亚市凤凰机场国内候机楼14号登机口, 解放路668号",109.41,18.31,Hainan,Sanya
三亚明珠广场店,三亚市,"河西区, 明珠广场 地上一层, 兰洋北路与伏波路交界处",109.5,18.26,Hainan,Sanya
儋州夏日广场店,儋州市,"儋州市, 儋州夏日国际商业广场地上一层1F-033单元, 蓝天路31号",109.59,19.53,Hainan,Danzhou
海口名门广场分店,海口市,"美兰区, 海榆中线与椰海大道一交叉口东北侧",110.35,20.02,Hainan,Haikou
海口万达广场店,海口市,"秀英区, 海口万达广场首层1056号商铺, 美苑路6号",110.28,19.98,Hainan,Haikou
海口盛达景都分店,海口市,"美兰区, 第一层C1-6和第二层的C2-5单元, 海秀东路6号",110.37,20.02,Hainan,Haikou
海口望海国际分店,海口市,"美兰区, 人民大道561号",110.34,20.03,Hainan,Haikou
海口人民大道店,海口市,"美兰区, 皇冠世纪豪门B栋1层106房和107房, 玉沙路21号",110.34,20.06,Hainan,Haikou
海口玉沙京华城店,海口市,"龙华区, 美兰国际机场",110.32,20.03,Hainan,Haikou
海口美兰机场分店,海口市,"美兰区, 机场控制区内4号和5号登机门之间3号铺, 海甸二东路40号",110.46,19.94,Hainan,Haikou
海口滨江海岸店,海口市,"美兰区, 滨江海岸（商业街）C栋地上一层, 国兴大道7号",110.35,20.05,Hainan,Haikou
海口新海航大厦分店,海口市,"美兰区, 新海航大厦第一层E58、E38、E28、E18 和E08 单元, 三峡广场双巷子街6号",110.34,20.02,Hainan,Haikou
重庆新世纪凯瑞商都店,重庆市,"沙坪坝区, 煌华新纪元购物广场1F, 冉家坝余松一支路",106.46,29.56,Chongqing,Chongqing
重庆冉家坝SM广场店,重庆市,"渝北区, SM广场一楼, 经开大道68号",106.5,29.58,Chongqing,Chongqing
重庆星光天地店,重庆市,"渝北区, 星光天地一层, 新南路168号",106.53,29.63,Chongqing,Chongqing
重庆晶郦馆店,重庆市,"北部新区, 晶郦馆一层, 大坪大石路时代天街",106.51,29.6,Chongqing,Chongqing
重庆时代天街店,重庆市,"渝中区, 1F, 沧白路58号洪崖洞民俗风貌区",106.51,29.54,Chongqing,Chongqing
重庆城市阳台店,重庆市,"渝中区 `, 11层城市阳台, 北城天街6号",106.58,29.56,Chongqing,Chongqing
重庆北城天街店,重庆市,"江北区, 北城天街购物广场1楼, 三角碑转盘小新街49号",106.53,29.58,Chongqing,Chongqing
重庆沙坪坝店,重庆市,"沙坪坝区, 王府井百货1楼, 南滨路133号",106.46,29.56,Chongqing,Chongqing
重庆长嘉汇店,重庆市,"南岸区, 长嘉汇购物中心L1-1B，L2-1B, 大坪正街19号英利国际广",106.58,29.58,Chongqing,Chongqing
重庆英利国际广场店,重庆市,"渝中区, 江南大道8号附1号",106.52,29.54,Chongqing,Chongqing
重庆南坪万达II店,重庆市,"南岸区, 南坪万达广场地面一层, 南坪西路58号",106.57,29.53,Chongqing,Chongqing
重庆上海城店,重庆市,"南岸区, 上海城1F, 栖霞路16号",106.56,29.53,Chongqing,Chongqing
重庆金贸中心店,重庆市,"北部新区, 红黄路街121号",106.57,29.64,Chongqing,Chongqing
重庆紫荆商业广场店,重庆市,"渝北区, 紫荆商业广场5号楼一层, 南坪街道江南坪北路8号",106.53,29.59,Chongqing,Chongqing
重庆盛汇新世纪店,重庆市,"南岸区, 新世纪百货南坪商都1F, 洋河路10号",106.57,29.53,Chongqing,Chongqing
重庆北城天街北店,重庆市,"江北区, 北城天街, 北城天街与洋河叉路口",106.53,29.58,Chongqing,Chongqing
重庆九街店,重庆市,"江北区, 一楼, 建新北路16号",106.55,29.58,Chongqing,Chongqing
重庆江北茂业店,重庆市,"江北区, 茂业百货G层, 邹容路109号二楼",106.53,29.58,Chongqing,Chongqing
重庆商业大厦店,重庆市,"渝中区, 洪湖东路1号",106.58,29.56,Chongqing,Chongqing
重庆香江财富中心店,重庆市,"渝北区, 重庆财富购物中心1层L1-25-2/26单元, 火车北站渝利场GB04号",106.51,29.61,Chongqing,Chongqing
重庆火车北站店,重庆市,"渝北区, 杨家坪珠江路48号龙湖",106.55,29.61,Chongqing,Chongqing
重庆西城天街店,重庆市,"九龙坡区, 西城天街购物广场1楼, 渝航路重庆",106.52,29.51,Chongqing,Chongqing
重庆机场店,重庆市,"渝北区, 江北机场T2A号航站楼A支廊, 长江二路174号",106.64,29.71,Chongqing,Chongqing
重庆时代天街Ⅱ店,重庆市,"渝中区, 时代天街2期一层C-L1-52号, 大学城西路17号",106.51,29.54,Chongqing,Chongqing
重庆龙湖U城天街店,重庆市,"沙坪坝区, 龙湖U城天街, 松青路1099号",106.29,29.61,Chongqing,Chongqing
重庆新天泽国际广场店,重庆市,"大渡口区, 新天泽广场LG002, 西郊路2号",106.48,29.47,Chongqing,Chongqing
重庆富安百货店,重庆市,"九龙坡区, 富安百货一层, 大学城",106.51,29.51,Chongqing,Chongqing
重庆大学城熙街店,重庆市,"沙坪坝区, 景苑路8号附1号, 观音桥步行街商圈",106.3,29.6,Chongqing,Chongqing
重庆观音桥阳光新世纪店,重庆市,"江北区, 阳光新世纪1-2F, 观音桥步行街8号",106.53,29.58,Chongqing,Chongqing
重庆大融城店,重庆市,"江北区, 邹容路100号",106.53,29.58,Chongqing,Chongqing
重庆美美时代广场店,重庆市,"渝中区, 美美时代广场1F, 江南大道8号",106.58,29.56,Chongqing,Chongqing
重庆万达店,重庆市,"南岸区, 万达广场LGW-13号, 中华路189号",106.57,29.53,Chongqing,Chongqing
重庆NOVO店,重庆市,"渝中区, NOVO商场1楼, 重庆华润中心万象城",106.57,29.56,Chongqing,Chongqing
重庆万象城店,重庆市,"九龙坡区, 北城天街6号",106.52,29.52,Chongqing,Chongqing
重庆北城天街3楼店,重庆市,"江北区, 北城天街购物广场3楼, 金开园区",106.53,29.58,Chongqing,Chongqing
重庆西部奥特莱斯店,重庆市,"北部新区, 北区汇川路1号, 龙洲湾巴南万达广场1B069商铺",106.57,29.63,Chongqing,Chongqing
重庆巴南万达店,重庆市,"巴南区, 民族路166号",106.54,29.39,Chongqing,Chongqing
重庆民族店,重庆市,"渝中区, 王府井百货1楼, 邹容路108号",106.58,29.56,Chongqing,Chongqing
重庆国泰广场店,重庆市,"渝中区, 国泰广场一层L1 -1单元, 南滨路80号",106.58,29.56,Chongqing,Chongqing
重庆东源1891店,重庆市,"西南区, 东源1891项目1F, 渝北区胜利路金港国际",106.59,29.55,Chongqing,Chongqing
重庆金港国际店,重庆市,"渝北区, 一层",106.63,29.72,Chongqing,Chongqing
乐山万达分店,乐山市,"乐山乐青路与竹公溪交汇处, 长江西路1号",103.72,29.6,Sichuan,Leshan
德阳洋洋百货店,德阳市,"旌阳区, 洋洋百货1层1-A01单元, 庐山北路一段8号",104.39,31.13,Sichuan,Deyang
德阳万达店,德阳市,"旌阳区, 德阳万达广场一层1001号商铺, 天府三街99号海洋中心一层附6号商铺",104.42,31.16,Sichuan,Deyang
成都海洋中心店,成都市,"高新区, 下南大街59号1栋1层附7",104.07,30.55,Sichuan,Chengdu
成都世代锦江,成都市,"锦江区, 一层, 铁像寺水街一期2区7栋(2-5-2)",104.06,30.65,Sichuan,Chengdu
成都天府水街店,成都市,"高新区天府一街699号, 及8栋（2-5-5）单元, 荣华北路299号",104.05,30.56,Sichuan,Chengdu
成都雅颂居,成都市,"高新区, 一层, 天府大道北段996号8号楼2层",104.04,30.55,Sichuan,Chengdu
成都金融城,成都市,"高新区, 二层, 南部新区科技创业中心片区",104.07,30.58,Sichuan,Chengdu
成都奥克斯广场店,成都市,"高新区, 天府大道1700号新世纪环球中心购物中心1FB20",104.06,30.58,Sichuan,Chengdu
成都环球中心店,成都市,"高新区, 一层, 幸福镇都江堰大道211号1栋",104.07,30.57,Sichuan,Chengdu
都江堰百伦百货店,成都市,"都江堰, 百伦广场百伦百货零售商区1层",103.64,30.99,Sichuan,Chengdu
成都锦里店,成都市,"武侯祠大街231号, 二环路东二段1号1层21号",104.05,30.64,Sichuan,Chengdu
成都龙湖三千集店,成都市,成华区,104.11,30.67,Sichuan,Chengdu
成都威斯顿店,成都市,"人民南路4段19号威斯顿联邦大厦1楼, 日月大道一段978号",104.07,30.62,Sichuan,Chengdu
成都青羊万达1F店,成都市,"青羊区, 万达广场购物中心1F（1号门侧）, 晋吉西一街66号龙湖金楠天街商场1F",103.97,30.68,Sichuan,Chengdu
成都龙湖金楠天街店,成都市,"武侯区, 时代奥特莱斯1层1204-1206",104.0,30.65,Sichuan,Chengdu
成都时代奥特莱斯店,成都市,"双流县双楠大道中段633号, 南部园区天府大道北段8号",103.95,30.6,Sichuan,Chengdu
成都苏宁广场店,成都市,"高新区, 苏宁广场1层126单元, 天仁路388号",104.07,30.6,Sichuan,Chengdu
成都凯德天府店,成都市,"高新区, 凯德·天府一层, 府青路二段",104.07,30.6,Sichuan,Chengdu
成都财富又一城店,成都市,"成华区, 2号",104.09,30.68,Sichuan,Chengdu
成都来福士店,成都市,"人民南路四段三号, 天府大道1199号",104.07,30.63,Sichuan,Chengdu
成都银泰中心店,成都市,"高新区, 银泰中心1F, 天府广场负一楼",104.07,30.59,Sichuan,Chengdu
成都天府地铁中心城,成都市,"锦江区, 天府广场时尚购物中心, 华阳街道骑龙村11社“戛纳印象”",104.07,30.66,Sichuan,Chengdu
成都华阳戛纳湾店,成都市,"天府新区, 1102、1103、1104号商铺, 红星路三段",104.06,30.52,Sichuan,Chengdu
成都银石广场店,成都市,"锦江区, 99号, 人民南路二段1号仁恒办公楼一层大堂",104.08,30.65,Sichuan,Chengdu
成都仁恒Office店,成都市,"锦江区, 五块石1号北城天街B馆",104.07,30.65,Sichuan,Chengdu
成都北城天街分店,成都市,"金牛区, 一层27号-1F-001号, 二环路西二段街19号",104.07,30.71,Sichuan,Chengdu
成都仁和春天光华店,成都市,"青羊区, 仁和春天百货1F",104.02,30.66,Sichuan,Chengdu
成都春熙商汇店,成都市,"总府路18号2层1-3号, 总府街29号",104.08,30.66,Sichuan,Chengdu
成都春熙坊店,成都市,"锦江区, -1F, 成都市交大路183号金牛凯德2期1楼",104.08,30.66,Sichuan,Chengdu
成都金牛凯德分店,成都市,"金牛区, 一层, 东升街道葛陌社区5、7组",104.04,30.7,Sichuan,Chengdu
成都双流万达店,成都市,"双流区, 物业中零售商区的地面一层1061B、1062B号铺位, 永丰乡双楠村鹭岛国际社区",103.93,30.6,Sichuan,Chengdu
成都双楠鹭岛店,成都市,"武侯区, 鹭岛步行街1楼4单元, 人民南路四段3号来福士广场-2F",104.01,30.65,Sichuan,Chengdu
成都来福士II店,成都市,"武侯区, 顺城大街269号1楼",104.07,30.63,Sichuan,Chengdu
成都富力大厦店,成都市,"青羊区, 天久南巷396号",104.07,30.66,Sichuan,Chengdu
成都南熙里分店,成都市,"高新区, 南熙里, 日月大道一段978号",104.07,30.59,Sichuan,Chengdu
成都青羊万达店,成都市,"青羊区, 万达广场购物中心4F, 西大街19号",103.97,30.68,Sichuan,Chengdu
成都新城市广场店,成都市,"青羊区, 新光华街7号",104.06,30.67,Sichuan,Chengdu
成都航天大厦店,成都市,"锦江区, 新希望路7号",104.07,30.65,Sichuan,Chengdu
成都丰德国际广场店,成都市,"武侯区, 天晖中街56号",104.07,30.62,Sichuan,Chengdu
成都曙光国际店,成都市,"高新区, 成都市郫县望丛东路万达广场购物中心1F（高铁站旁）",104.06,30.59,Sichuan,Chengdu
成都蜀都万达店,成都市,郫县,103.91,30.81,Sichuan,Chengdu
成都东御店,成都市,"东御街19号人民商场1楼, 青羊大道99号",104.07,30.66,Sichuan,Chengdu
成都优品道广场店,成都市,"青羊区, 东大街紫东楼段35号",104.01,30.66,Sichuan,Chengdu
成都明宇金融广场店,成都市,"锦江区, 明宇金融广场地上一层, 府城大道中段88号",104.09,30.65,Sichuan,Chengdu
成都九方店,成都市,"高新区, 锦华路68号附1号",104.07,30.59,Sichuan,Chengdu
成都锦华万达广场店,成都市,"锦江区, 盛和一路18号1楼1-31号",104.1,30.62,Sichuan,Chengdu
成都凯丹广场店,成都市,"高新区, 二楼出发大厅",104.06,30.6,Sichuan,Chengdu
成都机场T2店,成都市,"双流国际机场T2航站楼, 青龙街51号倍特康派一楼",103.95,30.54,Sichuan,Chengdu
成都倍特店,成都市,"成都倍特店, 双楠路326号",104.06,30.67,Sichuan,Chengdu
成都双楠人人乐店,成都市,"武侯区, 双楠人人乐一楼, 合作路89号",104.03,30.64,Sichuan,Chengdu
成都龙湖时代天街,成都市,"高新西区, 成都龙湖-时代天街1F-014商铺, 剑南大道中段998号",103.92,30.75,Sichuan,Chengdu
成都世豪广场店,成都市,"高新区, 世豪广场一层, 中纱帽街1号(成都远洋太古里)",104.05,30.55,Sichuan,Chengdu
成都太古里二店,成都市,"锦江区, 地下一层M001a号商铺, 东大街99号",104.08,30.65,Sichuan,Chengdu
成都铁狮门晶融汇店,成都市,"锦江区, 晶融汇广场一层119号",104.08,30.65,Sichuan,Chengdu
成都广场店,成都市,"人民东路61号香榭里广场1楼, 成都市青羊区成飞大道333号1栋1F",104.07,30.66,Sichuan,Chengdu
成都青羊工业园店,成都市,"青羊区, T1航站楼A指廊A-F-1",103.96,30.68,Sichuan,Chengdu
成都机场T1店,成都市,"双流国际机场, 双林路339号",103.95,30.58,Sichuan,Chengdu
成都339欢乐颂,成都市,"成华区, 华润339欢乐颂1F, 窄巷子22号",104.09,30.66,Sichuan,Chengdu
成都宽窄巷子店,成都市,"宽窄巷子文化保护区, 龙腾东路36号",104.05,30.66,Sichuan,Chengdu
成都中海大厦店,成都市,"武侯区, 中海大厦1F, 总府路2号",104.02,30.65,Sichuan,Chengdu
成都时代百盛店,成都市,"锦江区, 时代百盛百货二楼1号商铺, 苏坡东路7号",104.08,30.66,Sichuan,Chengdu
成都金沙西单百货,成都市,"青羊区, 西单商场1-2F, 府城大道西段399号天府新谷6号楼1F",104.0,30.67,Sichuan,Chengdu
成都天府新谷店,成都市,"高新区, 一环路东五段87号",104.06,30.59,Sichuan,Chengdu
成都阳光新业中心店,成都市,"锦江区, 阳光新业中心一楼",104.09,30.64,Sichuan,Chengdu
成都财富中心店,成都市,"大业路6号青石桥南街财富中心1楼, 紫竹北街85号",104.07,30.65,Sichuan,Chengdu
成都桐梓林大世界店,成都市,"高新区, 西航港锦华路二段166号BHG购物中心",104.06,30.62,Sichuan,Chengdu
成都锦华路BHG店,成都市,"双流县, 一层F1-29/30单元一层, 光华大道三段 1588号",103.99,30.57,Sichuan,Chengdu
成都珠江国际店,成都市,"温江区, 珠江国际购物中心一层L144-B号, 沙西线交大立交外侧",103.86,30.68,Sichuan,Chengdu
成都华侨城店,成都市,"金牛区, 华侨城公园广场内一层商业街C3101-C3102, 大悦路518号",104.04,30.72,Sichuan,Chengdu
成都大悦城店,成都市,"武侯区, 大悦城购物中心B区1F-041号, ""高新西区汇川街388号 """,104.0,30.63,Sichuan,Chengdu
成都中海国际店,成都市,"高新西区, 一层, 科华中路9号",103.98,30.72,Sichuan,Chengdu
成都科华王府井店,成都市,"武侯区, 王府井商城1F, 东御街19号",104.08,30.62,Sichuan,Chengdu
成都茂业二期店,成都市,"锦江区, 茂业百货二期一楼, ""武侯区二环路南四段51 号 """,104.07,30.66,Sichuan,Chengdu
成都红牌楼天虹店,成都市,"武侯区, 一层, 正科甲巷48号一楼",104.03,30.63,Sichuan,Chengdu
成都科甲店,成都市,"锦江区, 站华路9 号附1、2 号",104.08,30.66,Sichuan,Chengdu
成都高新欧尚店,成都市,"高新区, 光华北三路55号",104.06,30.6,Sichuan,Chengdu
成都鹏瑞利购物中心店,成都市,"青羊区, 鹏瑞利青羊广场1层12号和14号, 红星路",103.96,30.67,Sichuan,Chengdu
成都国际金融广场6F店,成都市,"成都市锦江区, 国际金融广场6F, 丽都路513号",104.08,30.66,Sichuan,Chengdu
成都中粮丽都悦街店,成都市,"武侯区, 成都中粮丽都悦街店, 天府大道北段1700号新世纪环球购物中心二层BD02A单元",104.03,30.62,Sichuan,Chengdu
成都环球中心II店,成都市,"高新区, 华润路",104.07,30.57,Sichuan,Chengdu
成都翡翠天地店,成都市,"锦江区, 琉璃路656号, 纱帽街8号",104.09,30.61,Sichuan,Chengdu
成都太古里店,成都市,"锦江区区, F133b, 天府大道北段1700号",104.08,30.65,Sichuan,Chengdu
成都环球乐天店,成都市,"高新区, 新世纪环球购物中心东1栋乐天百货1层, 二环路北一段10号",104.07,30.57,Sichuan,Chengdu
成都嘉信茂沙湾店,成都市,"金牛区, 建设路10号万科钻石广场一层",104.05,30.69,Sichuan,Chengdu
成都钻石广场店,成都市,"成华区, 二环路东二段426号",104.11,30.67,Sichuan,Chengdu
成都建设路伊藤店,成都市,"成华区, 伊藤洋华堂二层, 国际机场",104.11,30.67,Sichuan,Chengdu
成都机场三店,成都市,"双流区, T2候机楼安检内DE-F-1号, 成都市提督街99号二层",103.94,30.52,Sichuan,Chengdu
成都华置广场,成都市,"锦江区, 二环路东三段",104.07,30.66,Sichuan,Chengdu
成都万象城店,成都市,成华区,104.12,30.65,Sichuan,Chengdu
成都上海花园店,成都市,"神仙树南路37号, 建设南路20号",104.05,30.61,Sichuan,Chengdu
成都SM广场店,成都市,"成华区, 红星路",104.11,30.67,Sichuan,Chengdu
成都国际金融广场B1F,成都市,"成都市锦江区, 国际金融广场B1F, 人民北路与一环路交汇处",104.08,30.65,Sichuan,Chengdu
成都金牛万达店,成都市,"青羊区, 金牛万达广场1楼, 龙泉桃都大道中段888号成都新城吾悦广场",104.07,30.69,Sichuan,Chengdu
成都新城吾悦广场店,成都市,"龙泉驿区, 零售商区地上一层的1051/1052/1053号单元, 益州大道1999号第18幢银泰城购物中心1F",104.24,30.58,Sichuan,Chengdu
成都银泰城店,成都市,"高新区, 滨江东路成都兰桂坊第17栋1层",104.06,30.54,Sichuan,Chengdu
成都兰桂坊店,成都市,"锦江区, 春熙路步行街",104.08,30.64,Sichuan,Chengdu
成都中山群光店,成都市,"锦江区, 中山广场群光商业广场负1层, 世纪城南路215号",104.08,30.65,Sichuan,Chengdu
成都软件园2期店,成都市,"高新区, 天府新城益州大道722号",104.07,30.54,Sichuan,Chengdu
成都复城国际店,成都市,"高新区, 复城国际大厦一楼",104.06,30.55,Sichuan,Chengdu
成都总府店,成都市,"总府路15号王府井百货1楼, 花园路9号",104.08,30.66,Sichuan,Chengdu
绵阳涪城万达,绵阳市,"涪城区, 绵阳市临园路东段68号",104.72,31.45,Sichuan,Mianyang
绵阳大都会百盛店,绵阳市,"涪城区, 百盛商场1层+2层, 临园路东段74号",104.74,31.46,Sichuan,Mianyang
绵阳涪城凯德店,绵阳市,"涪城区, 机场路18号",104.74,31.46,Sichuan,Mianyang
贵阳亨特城市广场店,贵阳,"南明区, 亨特城市广场负二层1B号铺, 花果园街1号",106.72,26.58,,
贵阳花果园1店,贵阳,"南明区, G区第二层玻璃房, 贵乌北路199号",106.69,26.57,,
贵阳中大国际购物中心店,贵阳,"云岩区, 中大国际购物中心一层L104号, 延安西路42号-66号",106.72,26.6,,
贵阳汇金国际广场店,贵阳,"云岩区, 汇金国际广场零售区地上第一层01F, 金阳南路6号",106.7,26.58,,
贵阳世纪金源国贸店,贵阳,"金阳新区, 世纪金源购物中心A座1层, 中山东路2号",106.62,26.6,,
贵阳智诚百货店,贵阳,"南明区, 智诚百货大楼一层1A08单, 龙洞堡国际机场",106.71,26.58,,
贵阳机场店,贵阳,"南明区, T2航站楼出发大厅内CF29号, 市南路42号",106.8,26.54,,
贵阳保利国贸逸天城店,贵阳,"南明区, 国贸逸天城购物中心6号楼地上1层1单元, 解放路100号",106.72,26.56,,
贵阳鸿通城店,贵阳市,"南明区, 鸿通城购物中心C区地上一层L1C19-L1C20单元, 祥和街278 号",106.71,26.56,Guizhou,Guiyang
丽江5596,丽江市,"古城区, 福慧路618号B101铺",100.24,26.87,Yunnan,Lijiang
丽江国际购物广场店,丽江市,"古城区, 红龙井商业街区",100.23,26.88,Yunnan,Lijiang
大理红龙井店,大理市,"大理古城, 红龙巷, 昆明长水国际机场",100.16,25.69,Yunnan,Dali
昆明机场Ⅱ店,昆明市,"官渡区, 安检内F3-CA-F-04, 白云路与万华路口",102.93,25.1,Yunnan,Kunming
昆明滨江俊园店,昆明市,"盘龙区, 滨江俊园2期裙楼1-05, 柏联广场一楼119号铺",102.72,25.07,Yunnan,Kunming
昆明柏联广场店,昆明市,三市街6号,102.71,25.04,Yunnan,Kunming
昆明美辰百货店,昆明市,"人民中路富春街98号, 霖雨路288号",102.7,25.04,Yunnan,Kunming
昆明邦利嘉年华店,昆明市,"北市区, 嘉年华商业广场, 威远路",102.74,25.1,Yunnan,Kunming
昆明金鹰天地店,昆明市,"五华区, 金鹰广场首层1-01A, 前卫西路19号(公园1903奥特莱斯)",102.71,25.04,Yunnan,Kunming
昆明金格奥特莱斯店,昆明市,"滇池国家旅游度假区, 零售商业区地上一层F1028、F1029单元, 广福路488号",102.68,24.99,Yunnan,Kunming
昆明红星爱琴海店,昆明市,"西山区, 红星宜居广场A1地块B座, 前兴路888号",102.68,24.99,Yunnan,Kunming
昆明西山万达广场店,昆明市,"西山区, 万达广场地面1层1026铺, 滇池路南亚风情第一Mall",102.71,25.01,Yunnan,Kunming
昆明南亚风情店,昆明市,"西山区, 中央商业广场首层D02-D03号铺, 欣都龙城0层",102.68,25.01,Yunnan,Kunming
昆明欣都龙城分店,昆明市,"北京路1079, 东风西路13号",102.73,25.08,Yunnan,Kunming
昆明顺城广场店,昆明市,"五华区, 顺城购物中心一楼A区A1-03A, 彩云北路3567号",102.71,25.04,Yunnan,Kunming
昆明大都店,昆明市,"官渡区, 大都商业广场一层67466-001商铺, 白塔路399号",102.77,24.97,Yunnan,Kunming
昆明七彩俊园分店,昆明市,"盘龙区, 七彩 Me town购物中心1楼, 昆明机场航站楼",102.73,25.05,Yunnan,Kunming
昆明机场店,昆明市,"官渡区, 到达大厅商业夹层, 翠湖南路16-17号1幢",102.93,25.1,Yunnan,Kunming
昆明翠湖店,昆明市,"五华区, 北京路928号",102.71,25.05,Yunnan,Kunming
昆明同德广场店,昆明市,"盘龙区, 同德广场一层, 正义路西侧昆明老街正义坊",102.72,25.07,Yunnan,Kunming
昆明正义坊店,昆明市,"五华区, A1商业2号附楼1—2层, 金源大道1号",102.71,25.04,Yunnan,Kunming
昆明世纪金源分店,昆明市,"官渡区, 金源时代购物中心C区一楼, 广福路与金源金源路交叉口",102.76,24.98,Yunnan,Kunming
昆明海伦堡店,昆明市,"官渡区, 海伦广场零售商区第一层A114单元, 昆明市五华区东风西路99号",102.75,24.96,Yunnan,Kunming
昆明百大新天地店,昆明市,"昆明五华区, 2F星巴克店铺, 人民中路31号",102.71,25.04,Yunnan,Kunming
咸阳国际财富中心店,咸阳市,"秦都区, 国际财富中心一楼, 高新大道",108.71,34.34,Shanxi,Xianyang
宝鸡天下汇购物中心店,宝鸡市,"渭滨区, 天下汇商场一楼, 民乐园万达广场室内步行街1层101B号",107.23,34.35,Shanxi,Baoji
西安万达店,西安市,"新城区, 小寨西路26号",108.96,34.27,Shanxi,Xian
西安子午路银泰店,西安市,"雁塔区, 朱雀大街一层L1-16单元, 解放路186号",108.94,34.22,Shanxi,Xian
西安苏宁生活广场店,西安市,"新城区, 苏宁生活广场一层, 芙蓉西路99号",108.96,34.27,Shanxi,Xian
西安唐市店,西安市,曲江新区,108.97,34.21,Shanxi,Xian
西安钟楼店,西安市,"西大街1号钟鼓楼广场, 长安中路99号",108.95,34.26,Shanxi,Xian
西安小寨金鹰店,西安市,"雁塔区, 长安文化综合大1F-B/04单元, 凤城八路以北，文景路以西",108.95,34.22,Shanxi,Xian
西安海璟民生店,西安市,"陕西省西安市经济技术开发区, 盐东村城改项目零售商区一、二层, T3航站楼到达厅",108.94,34.34,Shanxi,Xian
西安机T3店,西安市,"咸阳机场, 凤城五路与未央大道交叉处",108.76,34.44,Shanxi,Xian
西安赛高金花店,西安市,"北部经济技术开发区, 赛高国际金花百货一层, 高新路72号",108.95,34.33,Shanxi,Xian
西安中大国际店,西安市,"高新区, 中大国际一楼, 银泰1楼",108.9,34.22,Shanxi,Xian
西安银泰店,西安市,"曲江雁南路, 西长安街579号",108.96,34.21,Shanxi,Xian
西安长安大学城店,西安市,"长安区, 长安商贸中心三期地上一楼, 科技路50号金桥国际广场BC座一楼",108.91,34.16,Shanxi,Xian
西安金桥店,西安市,高新区,108.89,34.24,Shanxi,Xian
西安怡丰城店,西安市,"南二环太白路十字怡丰城, 雁塔路北段8号",108.92,34.23,Shanxi,Xian
西安李家村万达店,西安市,"碑林区, 万达商业广场一层37号, 北大街88号",108.96,34.24,Shanxi,Xian
西安北大街店,西安市,"莲湖区, 新世界百货一层, 太华北路369号",108.95,34.26,Shanxi,Xian
西安大明宫万达店,西安市,"未央区, 大明宫万达广场一层, 金花南路59号",108.97,34.32,Shanxi,Xian
西安立丰百盛店,西安市,"碑林区, 高新信息大道1号",109.0,34.25,Shanxi,Xian
西安阳光天地店,西安市,"雁塔区, 阳光天地广场一层, 世纪金花购物中心西门里",108.87,34.17,Shanxi,Xian
西安高新金花店,西安市,科技路三十三号,108.9,34.23,Shanxi,Xian
西安骡马市店,西安市,"东大街骡马市1号兴正元百货一楼, 凤凰大道11号",108.95,34.26,Shanxi,Xian
西安西恩奥特莱斯店,西安市,"临潼区, 西恩奥特莱斯A区C4栋一二层, 未央路33号",109.17,34.36,Shanxi,Xian
西安未央印象城,西安市,"未央区, 未央印象城一楼, 南二环北侧向东500米",108.95,34.29,Shanxi,Xian
西安绿地乐和城店,西安市,"雁塔区, 绿地乐和城1层, 高新路60乙号",108.97,34.23,Shanxi,Xian
西安一品美道店,西安市,"高新区, 一品美道A区一层10110, 曲江池东路",108.9,34.23,Shanxi,Xian
西安曲江金地广场店,西安市,"曲江新区, 金地广场一层F113单元, 西大街101号",108.99,34.2,Shanxi,Xian
西安西大街百盛店,西安市,"莲湖区, 百盛购物中心1F, 雁塔南路518号22栋",108.94,34.26,Shanxi,Xian
西安新乐汇民生店,西安市,"曲江新区, 民生百货一层, 慈恩西路东侧",108.96,34.21,Shanxi,Xian
西安秦汉唐店,西安市,"曲江新区, 唐延路3号",108.96,34.22,Shanxi,Xian
西安高新易初莲花,西安市,"高新区, 凤城七路与文景路路口",108.89,34.24,Shanxi,Xian
西安汉神百货店,西安市,"未央经济技术开发区, 汉神百货一层, 未央路",108.94,34.34,Shanxi,Xian
西安熙地港店,西安市,"未央经济技术开发区, 熙地港购物中心一层, 秦俑路1号",108.95,34.34,Shanxi,Xian
西安兵马俑博物馆店,西安市,"临潼区, 兵马俑秦皇大剧院一楼, 科技路37号",109.29,34.39,Shanxi,Xian
西安高新金鹰店,西安市,"高新区, 高新金鹰国际购物中心一楼, 长安北路118号",108.9,34.23,Shanxi,Xian
西安中贸广场店,西安市,"碑林区, 中贸广场一层, 长安中路38号",108.95,34.24,Shanxi,Xian
西安小寨百盛店,西安市,"雁塔区, 百盛购物中心二楼",108.95,34.22,Shanxi,Xian
西安开元店,西安市,"解放市场6号开元商城负一楼, 锦业路36号",108.95,34.26,Shanxi,Xian
西安旗远锦上店,西安市,"高新区, 旗远锦上一楼",108.88,34.19,Shanxi,Xian
西安大唐西市店,西安市,"劳动南路118号, 凤城七路",108.91,34.25,Shanxi,Xian
西安未央路王府井店,西安市,"未央区, 王府井百货一层1F-3号商铺, 天水北路68号",108.94,34.34,Shanxi,Xian
兰州城关万达店,兰州市,"城关区, 万达广场1层, 中山路120号",103.86,36.06,Gansu,Lanzhou
兰州亚欧商厦店,兰州市,"城关区, 亚欧商厦一层, 东方红广场",103.82,36.06,Gansu,Lanzhou
兰州东方红国芳百货店,兰州市,"城关区, 国芳百货1F, 海湖万达购物中心",103.84,36.05,Gansu,Lanzhou
西宁海湖万达店,西宁市,"海湖新区, 海湖万达一层, 五四大街",101.72,36.64,Qinghai,Xining
西宁新宁国芳百货,西宁市,"城西区, 国芳百货1F, 五四大街41号",101.76,36.63,Qinghai,Xining
西宁力盟商业巷店,西宁市,"城西区, 力盟商业巷5号楼1F, 正源北街",101.76,36.63,Qinghai,Xining
银川金凤万达店,银川市,"金凤区, 万达广场1号门1楼, 新华东街97号",106.25,38.49,Ningxia,Yinchuan
银川新华百货店,银川市,"兴庆区, 新华百货1F",106.28,38.46,Ningxia,Yinchuan
Citic Tower,Admiralty,"Shop 301 on Third Floor of CITIC Tower,, 1 Tim Mei Avenue, Central, Hong Kong",114.17,22.28,,
Admiralty Centre,Admiralty,"Shop No.80, 1/F, Admiralty Centre, Admiralty, Hong Kong",114.17,22.28,,
FASHION WALK,Causeway Bay,"Shop No. F1, 1/F, 27-47 Paterson Street,, Fashion Walk, Hong Kong",114.19,22.28,,
50 Leighton Road,Causeway Bay,"G/F, No. 50 Leighton Road, Causeway Bay,, Hong Kong",114.18,22.28,,
Hysan Place,Causeway Bay,"Portion C of Jasons, Basement 2, Hysan Place,  500 Hennessy Rd",114.18,22.28,,
Leighton Centre,Causeway Bay,"Shop L05, LG/F, Leighton Centre, 77 Leighton Road, Causeway Bay",114.18,22.28,,
Tung Lo Wan Road,Causeway Bay,"Shop 3, G/F, Cathay Mansion, 3-17 Tung Lo Wan Road, Hong Kong",114.19,22.28,,
Caine Road,Central,"Ground Floor (incl. the cockloft), and Lower G/F of No. 51 Caine Road",114.15,22.28,,
Eastern Hospital,Chaiwan,"Lobby, 1/F, Eastern Hospital, 3 Lok Man, Road, Chai Wan",114.24,22.27,,
Fortress Hill,Fortress Hill,"Shop 3A. Ground Floor, Multifield Bldg, 147-151 King's Road, Fortress Hill",114.19,22.29,,
Liberte Place,Hong Kong,"Shop No.101, 1st Floor, Liberte Place, 8, 33 Lai Chi Kok Road, Kowloon",114.15,22.33,,
50 Connaught Road Central,Hong Kong,"Shop B, Ground Floor, 50 Connaught Central, Central, HK",114.16,22.29,,
Exchange Square 3,Hong Kong,"Office Lobby, G/F Exchange Square, Central",114.16,22.28,,
MOKO,Hong Kong,"Shop 247, Level 2, Moko 193 Prince Edward Rd West, Rd W Mongkok, Kowloong",114.17,22.32,,
East Point City,Hong Kong,"Shop NO. 106 1/F, East Point City, No. 8, Chung Wa Road, Tseung Kwan O, N.T.",114.27,22.32,,
Lee Gardens,Hong Kong,"Shop Nos. 305 and 306, Lee Gardens One, 33 Hysan Avenue, Causeway Bay",114.18,22.28,,
World Trade Centre More 4/F,Hong Kong,"Shop Nos.P419-420, L4 WTC More, Causeway Bay",114.18,22.28,,
Island Resort,Hong Kong,"Shop 20B, G/F, Island Resort Mall, 28 Siu Sai Wan Road, Siu Sai Wan",114.25,22.27,,
Sun Kwai Hing Plaza,Hong Kong,"Portion of 2/F, Sun Kwai Hing Plaza,, 166-174 Hing Fong Road, Kwai Hing, N.T.",114.13,22.36,,
Laguna Mall,Hong Kong,"Shop No.UG39, UG/F, The Laguna Mall No.8, Laguna Verde Avenue, Hung Hom, Kowloon",114.19,22.31,,
St. Teresas Hospital,Hong Kong,"G/F, East Block, St Teresa's Hospital, 327 Prince's Edward Road",114.18,22.33,,
Great Eagle Centre,Hong Kong,"Shop No. G4-6, Ground Floor, Great Eagle, Centre, 23 Harbour Road, Wanchai",114.17,22.28,,
Discovery Park,Hong Kong,"Shop 1008, Level 1, Discovery Park 399, Castle Peak Rd Tsuen Wan",114.11,22.38,,
HKUST,Hong Kong,"Kong University of Science & Technology, Clear Water Bay, Kowloon",114.26,22.34,,
Alexandra House II,Hong Kong,"Shop 201, 2/F, Alexandra House, 16-20 Chater Road, Central, Hong Kong",114.16,22.28,,
Shun Tak Centre,Hong Kong,"Shop unit 226-227, 2/F, Shun Tak Centre,, Nos.168-200 Connaught Road Central",114.15,22.29,,
Star Ferry,Hong Kong,"Shop E, Central Pier 7 (Star Ferry), Man, Yiu Street, Central",114.16,22.29,,
Empire Centre,Hong Kong,"G39, G40-G41 on G/F, Empire Centre, 68 Mody Road, Tsim Sha Tsui",114.18,22.3,,
Hong Kong Station,Hong Kong,"Concession HOK 3a & b, LAR Hong Kong Station",114.16,22.28,,
Mei Foo,Hong Kong,"Mei Foo Sun Chuen (Phase 7), Mei Foo, Kowloon",114.14,22.34,,
South Horizon,Hong Kong,"Shop G49D, G/F, West Commercial Block, M, arina Square, Ap Lei Chau",114.15,22.24,,
E-Max -,Hong Kong,"Shop 48, G/F,HK Int'l Trade & Exhibit, 1 Trademart Drive, Kowloon Bay",114.2,22.32,,
Citygate II,Hong Kong,"Shop 23, G/F, North Wing, Citygate,, Tung Chung, N.T.",113.94,22.29,,
V City,Hong Kong,"LG 12, V City, Tuen Mun Heung Sze Wui Rd, Tuen Mun",113.97,22.4,,
254 Des Voeus Road Central,Hong Kong,"G/F, 254 Des Voeux Road CentralSheung, Wan, Hong Kong",114.15,22.29,,
Knutsford Steps,Hong Kong,"No. 3, Knutsford Steps, 1/F, 1 Kimberley, Road, Tsim Sha Tsui, Kowloon",114.17,22.3,,
One Kowloon,Hong Kong,"Lobby, Ground Floor, One Kowloon, 1 Wang, Yuen Street, Kowloon Bay, Hong Kong",114.21,22.32,,
Home Square,Hong Kong,"Shop 217, HomeSquare, 138 Shatin,, Rural Committe Road, Shatin",114.19,22.39,,
Lan Kwai Fong,Hong Kong,"Shop A, Upper Ground Floor, Century Sq., 1-13 D¿Aguilar Street, Central",114.16,22.28,,
Maritime Square,Hong Kong,"Shop Unit 166, 1/F, Maritime Square, New Territories",114.11,22.36,,
YOHO MALL II,Hong Kong,"Shop No. A335, Level 3, Yoho Mall, 8-9, Yeung Long",114.04,22.45,,
China Hong Kong City,Hong Kong,"Shop 17A, 1/F, China Hong Kong City, 33, Canton Road, Tsimshatsui, Kowloon",114.17,22.3,,
Prosperity Tower,Hong Kong,"Shop on 1/F, Prosperity Tower, 39 Queens Road Central, Central",114.16,22.28,,
New Jade Shopping Arcade,Hong Kong,"Shop No.112B, Level 1, New Jade Shopping, Arcade, 233 Chai Wan Road, Chai Wan",114.24,22.26,,
Element,Hong Kong,"Shop 2100B, Level 2, Elements, 1 Austin Road West, Kowloon",114.16,22.3,,
Airport - Gate 44,Hong Kong,"Unit No. 6Y585, Departures SW Concourse, (Restricted Area), Lvl 6, HK Int'l Air",113.93,22.31,,
Bank Centre Mall,Hong Kong,"Shop 10-16, 1/Fm Bank Centre Mall, 636 Nathan Road, Mongkok",114.17,22.32,,
Mui Wo,Hong Kong,"Shop 4, G/F, Ngan Kwong Wan Road, Mui Wo, New Territories",114.0,22.27,,
Airport - Gate 21,Hong Kong,"HKIA, 6Z500, Lvl 6, Terminal 1, Airside, Central Concourse, Depart Boarding",113.93,22.31,,
E Plaza,Hong Kong,"Shop 7, G/F, E Plaza, 7 Shing Yip, Street, Kwun Tong, HK.",114.23,22.31,,
Pacific Plaza,Hong Kong,"Shop G1&2, G/F, Pacific Plaza,, 410 Des Couex Road West, Tai Po Mega Mall",114.14,22.29,,
大埔超級城,Hong Kong,"Shop 539 - 541, L1, Zone C, Tai Po Mega Mall, Tai Po, N.T.",114.17,22.45,,
New Town Plaza,Hong Kong,"Shop Nos. 155-158, New Town Plaza, Shantin, NT",114.19,22.38,,
Pacific Place Shop 106,Hong Kong,"Shop 106, G/F, Pacific Place,, 88 Queensway, Hong Kong.",114.16,22.28,,
New Town Plaza YATA,Hong Kong,"Counter No. 2087, Lvl 2, New Town Plaza, Phase III, 2-8 Shatin Centre Street",114.19,22.38,,
Midland Centre,Hong Kong,"Shop G61 & G62, G/F, Midland Centre, 328 Queens Road Central",114.15,22.29,,
No.8 Observatory Road,Hong Kong,"Shop 3, G/F, No.8 Obervatory Road,, Tsim SHa Tsui",114.18,22.3,,
Panda Place,Hong Kong,"G/F, Panda Place, 3 Tsuen Wah Street,, Tsuen Wan, N.T.",114.12,22.37,,
Exchange Square,Hong Kong,"Shops 308-310, 3/F.,, Exchange Square Podium, Central, HK.",114.16,22.28,,
Airport - Gate 16,Hong Kong,"Unit No. 6N505 at Terminal 1, Hong Kong International Airport, Lantau",113.93,22.32,,
One Bay East,Hong Kong,"Unit W2, G/F, One Bay East West Tower, 83 Hoi Bun Rd, Kln",114.21,22.32,,
Wan Chai Tower,Hong Kong,"G/F, Wanchai Tower, 12 Harbour Road, Wanchai, HK",114.17,22.28,,
Bank Of China Tower,Hong Kong,"1/F, West Hall, Bank of China Tower, 1 Garden Road, Central, Hong Kong",114.16,22.28,,
Three Garden Road,Hong Kong,"Shop 3, Citibank Plaza,3 Garden Road, Central, HK",114.16,22.28,,
W Square,Hong Kong,"Shop A, Ground Floor, W Square, 318 Hennessy Road, Wanchai",114.18,22.28,,
Citywalk,Hong Kong,"Shop Unit UG06, Upper Ground Floor, City, walk, 1 Yeung Uk Road, Tsuen Wan",114.11,22.37,,
Kowloon City Plaza,Hong Kong,"Shop LG 10, LG/F, Kowloon City Plaza,, 128 Carpenter Road, Kowloon City,, IFC Mall",114.19,22.33,,
IFC II - 2F - Relocation,Hong Kong,"8 Finance Street, Central, Poduim Level Two, Shop Nos 2097-2098",114.16,22.29,,
MTR Central,Hong Kong,"Kiosk Nos. CEN K4-K5, Transfer Concourse, , MTR Central Station",114.16,22.28,,
Mirror Tower,Hong Kong,"Shop Nos. G5 and G6 on G/F Mirror Tower, 61 Mody Road, Tsim Sha Tsui East",114.18,22.3,,
Metro Town,Hong Kong,"Shop No.L2-008B, 2/F, Metro Town, No.8 King Ling Road, Tseung Kwan O, N.T",114.25,22.3,,
Man Yee,Hong Kong,"Shop No.112, Level One, Man Yee Arcade,, Man Yee Bldg, 68 Des Voeux Rd Central",114.16,22.28,,
Bonham Road,Hong Kong,"Shop 1&2, G/F, Golden Phoenix Court, 1&2 St. Stephens Lane",114.14,22.28,,
Science Park,Hong Kong,"Shop S001, Phase 1, Science Park,, Shatin, N.T.",114.21,22.42,,
MTR - Tai Po Market,Hong Kong,"MTR Kiosk No. TAP8 at Tai Po Market MTR, Station",114.17,22.44,,
AIA Tower,Hong Kong,"Shop Nos. 7 & 8, G/F, AIA Tower, No. 183 Electric Road, North Point",114.19,22.29,,
金鐘廊 LAB,Hong Kong,"Shop A04, First Floor, LAB Concept, Queenway Plaza, 93 Queensway, Hong Kong",114.16,22.28,,
Airport - Terminal 1,Hong Kong,"Unit M701, Level 7, Terminal 1,Hong Kong, International Airport, Lantau",113.94,22.31,,
Maxim's Centre,Hong Kong,"G/F, Maxim's Centre, 17 Cheung Shun St, Cheung Sha Wan",114.15,22.34,,
Millennium City 1,Hong Kong,"Shop 3A & 3B, G/F, Tower 1, 388 Kwun Ton, g Rd.,Millennium City 1,Kwun Tong",114.22,22.31,,
iSQUARE,Hong Kong,"Shop LB02 & portion area, Lobby Floor, iSQUARE, 35-79 Nathan Rd, Tsim Sha Tsui",114.17,22.3,,
Hotel ibis,Hong Kong,"Shop 2, G/F, Hotel IBIS, 18-24 Des Voeux Rd West, Sheung Wan",114.15,22.29,,
Gala Place (Dead),Hong Kong,"Shop B01, B1/F, Gala Place, No 56 Dundas, Street, Mong Kok, Kowloon.",114.17,22.32,,
Sai Kung Chan Man Street,Hong Kong,"Shop A2, Ground Floor, 18-32 Chan Man St, reet, Sai Kung, New Territories",114.27,22.38,,
Landmark North,Hong Kong,"Area A, 5/F, Landmark North, 39 Lung Sum Avenue, Sheung Shui, N.T.",114.13,22.5,,
Midfield Concourse Airport,Hong Kong,"Unit No. 6MC612, Level 6, Midfield, Concourse, HK International Airport",113.92,22.31,,
Hong Kong University Student Union,Hong Kong,"Shop 2, G/F, Composite building, The University of Hong Kong",114.14,22.28,,
Airport - North Satellite Concourse,Hong Kong,"5NC154, L5, North Satellite Concourse HK, International Airport, Lantau, HK",113.93,22.32,,
One Island South,Hong Kong,"Shop No. C, G/F, One Island South, 2 Heung Yip Road, Wong Chuk Hang",114.17,22.25,,
Aberdeen Centre,Hong Kong,"Shop No.6-9, 1/F, Aberdeen Centre Site 4, Aberdeen",114.15,22.25,,
Windsor House,Hong Kong,"Shop 406, 4/F, Windsor House, 311 Gloucester Road, Causeway Bay",114.19,22.28,,
Prince Tower,Hong Kong,"Basement, No.14 - 16 Hankow Road,, Tsim Sha Tsui, Kowloon",114.17,22.3,,
"Pacific Place, Central",Hong Kong,"Shop 131, Level 1, Pacific Place, 88 Queensway, HK",114.16,22.28,,
InnoCentre,Hong Kong,"1F, InnoCentre, 72 Tat, Chee Avenue, Kowloon Tong",114.18,22.34,,
Lei King Wan,Hong Kong,"Shop C 11-12, G/F, Site C, Lei King Wan, 35 Tai Hong Street",114.22,22.28,,
Cityplaza,Hong Kong,"Shop 005-006, G/F, Cityplaza, 18 Taikoo Shing Road",114.22,22.29,,
K 11,Hong Kong,"Shop G31, G/F, K 11, 18 Hanoi Road, Tsimshatsui, Kowloon",114.17,22.3,,
Causeway Bay Plaza 2,Hong Kong,"Shop A, 2/F, Causeway Bay Plaza 2, 463-483 Lockhard Road, Causeway Bay",114.18,22.28,,
Sun Arcade,Hong Kong,"Shop B06A, Basement 1 Floor, The Sun, Arcade, 28 Canton Road, Tsim Sha Tsui",114.17,22.3,,
Metro Plaza II,Hong Kong,"Shop No.219A, Level 2, Metroplaza, Kwai Fong",114.13,22.36,,
Kolour,Hong Kong,"Shop No.1001 -1002, 1/F, Kolour,, 68 Chung On Street, Tsuen Wan, N.T.",114.12,22.37,,
Gala Place,Hong Kong,"Shop B01, Basement, Gala Place, 56, Dundas Street, Mong Kok, Kowloon",114.17,22.32,,
Plaza Hollywood,Hong Kong,"Level 2, Plaza Hollywood, Diamond Hill,, Kowloon",114.2,22.34,,
Hong Kong University Library,Hong Kong,"Coffee Shop, G/F, Main Library Old Wing, The University of Hong Kong",114.14,22.28,,
Harbour Crystal Centre,Hong Kong,"Shop 53-55, G/F, Harbour Crystal Centre, 100 Granville Road, Tsim Sha Tsui",114.18,22.3,,
Rumsey Street,Hong Kong,"Shop B on Ground Floor, Kwong Fat Hong, Building, 1 Rumsey Street, Sheung Wan",114.15,22.29,,
Duddell Street,Hong Kong,"Shop M2, Mezzanine Floor, Baskerville, House, 13 Duddell Street, Central",114.16,22.28,,
Cyberport L4,Hong Kong,"The Concourse, IT Street, Level 4, Cyberport Telegraph Bay, Pokfulam",114.13,22.26,,
Sing Woo Road,Hong Kong,"G/F, Le Cachet, 69 Sing Woo Road, Happy Valley, Cyberport",114.19,22.27,,
Cyberport L3,Hong Kong,"IT Street, Level 3, Unit 316",114.13,22.26,,
The Henry,Hong Kong,"Whole of G/F Unit, The Henry,, 322-324 Des Voeux Road West, HK",114.14,22.29,,
Airport - Skyplaza,Hong Kong,"Unit 5P009, Skyplaza, 1 Skyplaza Road, Hong Kong International Airport, Lantau",113.94,22.32,,
Peak Galleria,Hong Kong,"Shop 7, G/F Peak Galleria, 118 Peak Road, , Peak, Hong Kong",114.15,22.27,,
Times Square 9/F,Hong Kong,"Kiosk H on 9/F, Times Square, 1 Matheson Street, Causeway Bay",114.18,22.28,,
Cultural Centre Auditoria Building,Kowloon,"G/F, Auditoria Building, HK Cultural Centre, Tsim Sha Tsui",114.17,22.29,,
APM,Kowloon,"Shop No. 15, Level 2, APM, Millennium Ci, ty 5, 418 Kwun Tong Road, Kowloon",114.23,22.31,,
Telford Plaza,Kowloon,"Shop Unit G1A, Atrium A, Telford Plaza I, , Kowloon Bay, Kowloon",114.21,22.32,,
Mikiki,Kowloon,"Shop No. G01, Ground Floor, Mikiki 638, Prince Edward Road East, Kowloon",114.2,22.33,,
Granville Road,Kowloon,"2-6 Granville Rd, Abion Centre, TST",114.17,22.3,,
Austin Road,Kowloon,"Shop on G/F., 102 Austin Road, Tsimshats, ui, Kowloon, Hong Kong",114.17,22.3,,
Olympian City 2,Kowloon,"Shop No. G78 on Ground Floor, Olympian City 2, 18 Hoi Ting Rd, Kowloon",114.16,22.32,,
New Kowloon Centre,Kowloon,"Shop 009 & 011-012, G/F, New Kowloon Plaza, Taikoktsui",114.16,22.32,,
Harbour City 3/F,Kowloon,"Shop 3327, Level 3, Gateway Arcade, Harbour City, Kowloon, Hong Kong",114.17,22.3,,
3 Jordan Road,Kowloon,"Shop A & B on the Ground Floor, 3 Jordan Road",114.17,22.31,,
Metro City II,Kowloon,"Shop 1011-1013, 1/F,  Metro City, TKO, Tseung Kwan O",114.26,22.32,,
Nathan Hotel,Kowloon,"Shop A & Rear Expansion, G/F, Nathan Hotel, No. 378 Nathan Rd, Kowloon",114.17,22.31,,
Ocean Centre 4/F (Closed),Kowloon,"Kiosk 406K, Level 4, Ocean Centre, Tsim Sha Tsui",114.17,22.3,,
Lok Fu Plaza,Kowloon,"U215, UG2/F, Lok Fu Plaza, 198 Junction Road, Kowloon, Hong Kong",114.19,22.34,,
Cheung Sha Wan Plaza,Kowloon,"G/F Cheung Sha Wan Plaza, 833 Cheung Sha, Wan Road, Cheung Sha Wan, Kowloon",114.15,22.34,,
Whampoa Garden - Shop 5 Site 4,Kowloon,"Shop No.5, G/F, Site 4, Whampoa Garden,, Hunghom, Kowloon",114.19,22.3,,
Hong Kong Baptist University,Kowloon,"1/F, JCACC, Baptist University Road, HKBU",114.18,22.34,,
Pioneer Centre,Kowloon,"Kiosk A & B, 2/F, Pioneer Centre, 750 Nathan Road, Mongkok, Kowloon",114.17,22.32,,
Sai Yee Street,Kowloon,"1/F & 2/F, Wai Kee House, 91 Sai Yee Street, Mongkok, Kowloon",114.17,22.32,,
MegaBox L6,Kowloon Bay,"Unit 4 on Level 6 of MegaBox, Enterprise, Square 5, 38 Wang Chiu Road, Kowloon Bay",114.21,22.32,,
Festival Walk AMC,Kowloon Tong,"Unit 20A on Level UG/F, Festival Walk, 80 Tat Chee Avenue, Kowloon Ton",114.17,22.34,,
Ngong Ping,Lantau Island,"Shop 10, Ngong Ping 360, Lantau Island",113.9,22.26,,
Citygate,Lantau Island,"Unit G19, G/F, Citygate, Tung Chung, Lantau",113.94,22.29,,
Langham Place,Mong Kok,"Shop No. 2, Level 4A, Langham Place, 8 Argyle Street, Mongkok, Kowloon",114.17,22.32,,
One Victory,Mong Kok,"1/F, One Victory,1-3 Victory Avenue, Ho Man Tin, Kowloon",114.17,22.32,,
Luk Yeung Galleria,N.T.,"Shop S10-12, Luk Yeung Galleria, 2/F, Tsuen Wan",114.12,22.37,,
Wu Kai Sha,N.T.,"Shop 1, 2/F, Double Cove Place, Lok Wo Sha, Shatin Town Lot No.502, N.T.",114.24,22.43,,
Sunshine City Plaza,New Territories,"Open Space next to Shop 2115-6, L2, Sun Shine City Plaza, Ma On Shan",114.23,22.42,,
Fo Tan,New Territories,"Shops 12A & 12B on G/F Shatin Galleria, 18-24 Shan Mei Street, Fo Tan",114.19,22.4,,
Tuen Mun Town Plaza Phase 1,New Territories,"Shop Nos. UG012 and UG015-UG017, on UG/Floor, Tuen Mun Town Plaza",113.98,22.39,,
Star House B/F,New Territories,"Shop No. B5, Basement Floor, Star House, Plaza, 3 Salisbury Rd, Tsim Sha Tsui",114.17,22.29,,
Sham Tseng,New Territories,"Shop No. 1, G/F, Lido Avenue, 41-63 Castle Peak Road, Sham Tseng",114.06,22.37,,
Popcorn Mall,New Territories,"F45, 1/F, PopCorn, 9 Tong Yin St, Tseung, Kwan O, NT",114.26,22.31,,
Asia World Expo,New Territories,"Unit A at First Level, Central Concourse, Asia World-Expo, Lantau",113.94,22.32,,
Kerry Centre,Quarry Bay,"Unit 1, First Floor, Kerry Centre, 683 King's Road, Quarry Bay",114.21,22.29,,
AIA Hong Kong Tower,Quarry Bay,"Shop No.1A, G/F, AIA Hong Kong Tower, 734 Kings Road, Quarry Bay",114.21,22.29,,
Tong Chong Street,Quarry Bay,"14A G/F Hoi Kwong Court, 13-15 Hoi Kwong Street, Quarry Bay",114.21,22.29,,
City One,Shantin,"Shop Nos. G33A & G33B, G/F, Fortune City One, No.1, Ngan Shing St.",114.2,22.39,,
Stanley Plaza G/F,Stanley,"Shop G01, G/F, Stanley Plaza, 23 Carmel, Road, Stanley",114.21,22.22,,
Taikoo Shing,Tai Koo Shing,"Shop No. G516, Kin On Mansion, Taikoo Shing, Island East, Hong Kong",114.21,22.29,,
Tin Hau,Tin Hau,"Shop D, G/F, Hung On Building, No. 2-2A King's Road, Tin Hau",114.19,22.28,,
Tsuen Wan Plaza,Tsuen Wan,"Open Café A on Level 2, Tsuen Wan Plaza, New Territories",114.11,22.37,,
Trend Plaza,Tuen Mum,"Shop no. 38, Level 3, North Wing, Trend Plaza, Tuen Mun, N.T.",113.98,22.39,,
Gloucester Road,Wan Chai,"Shop 1 on Ground Floor, Fortis Bank, Tower, 77-79 Gloucester Road, Wanchai",114.19,22.28,,
Sun Hung Kai Centre,Wan Chai,"Shop G12-13, G/F. Sun Hung Kai Centre, 30 Harbour Road, Wanchai",114.18,22.28,,
Hopewell Centre,Wan Chai,"Shop Nos. 318 ¿ 319 on 3 FL, Hopewell, Centre, 183 Queen's Road E., Wanchai",114.17,22.27,,
Yuen Long Plaza,Yuen Long,"Open Space, OS3, 2/F, Yuen Long Plaza,, Yuen Long, NT",114.02,22.44,,
Yuen Long Plaza Relo,Yuen Long,"Shop 270-271, 2/F, Yuen Long Plaza",114.02,22.44,,
AIA Tower-,Macau,"Shop G01 on G/F, AIA Tower, 251-301 Avenida Commercial De Macau",113.54,22.19,,
Studio City,Macau,"Shop L02-2070, Studio City, Cotai",113.56,22.14,,
Sun Star City,Macau,"Nos.2A - 4D, Rua de Pedro, Nolasco da Silva",113.54,22.19,,
Wynn Palace,Macau,"Retail Unit, Wynn Cotai Resort",113.54,22.2,,
Taipa,Macau,"Rua Dos Clerigos Nos 89-95, Taipa, Macau, Contai District",113.56,22.15,,
City of Dreams,Macau,"Aseana Ave. cor. Macapagal Ave., Roxas Blvd., Manila",113.56,22.15,,
Venetian,Macau,"Shop 1033a Grand Canal Shoppes, Venetian, Estrada Baia de N Senhora da Esperanca",113.56,22.15,,
St. Paul Ruin,Macau,"Shop C-D, G/F, No.34, Ruin of St. Paul Street, Macau",113.54,22.2,,
Sands,Macau,"Portion of Shop 04, Ground Floor, Sands, Largo de Monte Carlo, No.203",113.55,22.19,,
Wynn II,Macau,"Wynn Macau, Rua Cidada de Sintra, NAPE",113.55,22.19,,
Wynn Palace BOH,Macau,"Employee Entrance Outlet, Wynn Cotai, Resort",113.54,22.2,,
Sands Cotai Central,Macau,"Shop K201 & K202, Level 02, Parcela 5&6, Estrada do Lstmo, Cotai",113.56,22.15,,
One Central,Macau,"Promenade Rd, Open Area, 2/F",113.55,22.19,,
